{
"type": "FeatureCollection",
"name": "Ajah_routes",
"crs": { "type": "name", "properties": { "name": "urn:ogc:def:crs:OGC:1.3:CRS84" } },
"features": [
{ "type": "Feature", "properties": { "Hub": "Ajah", "Origin": "Ajah", "Origin_Long": 3.564929932, "Origin_Lat": 6.466905287, "Destination": "Alesh Hotel International", "Destination_Long": 3.563056489, "Destination_Lat": 6.467047432, "Distance_km": 0.63, "Duration_min": 7.57, "Route": "-" }, "geometry": { "type": "LineString", "coordinates": [ [ 3.56482, 6.4671 ], [ 3.56469, 6.46703 ], [ 3.56405, 6.46671 ], [ 3.56373, 6.46653 ], [ 3.56307, 6.46621 ], [ 3.5625, 6.46589 ], [ 3.56241, 6.46582 ], [ 3.56228, 6.46573 ], [ 3.56203, 6.46562 ], [ 3.56191, 6.46558 ], [ 3.56198, 6.46568 ], [ 3.56254, 6.46602 ], [ 3.56232, 6.46639 ], [ 3.56288, 6.46673 ], [ 3.56302, 6.46668 ], [ 3.56311, 6.46675 ], [ 3.56302, 6.46687 ], [ 3.56295, 6.46699 ] ] } },
{ "type": "Feature", "properties": { "Hub": "Ajah", "Origin": "Ajah", "Origin_Long": 3.564929932, "Origin_Lat": 6.466905287, "Destination": "Ajah market", "Destination_Long": 3.564755569, "Destination_Lat": 6.468418936, "Distance_km": 1.0, "Duration_min": 11.95, "Route": "-" }, "geometry": { "type": "LineString", "coordinates": [ [ 3.56482, 6.4671 ], [ 3.56469, 6.46703 ], [ 3.56405, 6.46671 ], [ 3.56373, 6.46653 ], [ 3.56307, 6.46621 ], [ 3.5625, 6.46589 ], [ 3.56241, 6.46582 ], [ 3.56228, 6.46573 ], [ 3.56203, 6.46562 ], [ 3.56191, 6.46558 ], [ 3.56198, 6.46568 ], [ 3.56254, 6.46602 ], [ 3.56232, 6.46639 ], [ 3.56288, 6.46673 ], [ 3.56302, 6.46668 ], [ 3.56311, 6.46675 ], [ 3.56302, 6.46687 ], [ 3.56287, 6.46713 ], [ 3.56258, 6.46774 ], [ 3.56261, 6.46778 ], [ 3.5627, 6.46784 ], [ 3.56287, 6.46791 ], [ 3.56313, 6.46797 ], [ 3.56335, 6.46806 ], [ 3.56359, 6.4682 ], [ 3.56412, 6.46862 ], [ 3.5647, 6.46831 ] ] } },
{ "type": "Feature", "properties": { "Hub": "Ajah", "Origin": "Ajah", "Origin_Long": 3.564929932, "Origin_Lat": 6.466905287, "Destination": "Olomu Community Senior Secondary school", "Destination_Long": 3.564309157, "Destination_Lat": 6.469474648, "Distance_km": 0.98, "Duration_min": 11.8, "Route": "-" }, "geometry": { "type": "LineString", "coordinates": [ [ 3.56482, 6.4671 ], [ 3.56469, 6.46703 ], [ 3.56405, 6.46671 ], [ 3.56373, 6.46653 ], [ 3.56307, 6.46621 ], [ 3.5625, 6.46589 ], [ 3.56241, 6.46582 ], [ 3.56228, 6.46573 ], [ 3.56203, 6.46562 ], [ 3.56191, 6.46558 ], [ 3.56198, 6.46568 ], [ 3.56254, 6.46602 ], [ 3.56232, 6.46639 ], [ 3.56288, 6.46673 ], [ 3.56302, 6.46668 ], [ 3.56311, 6.46675 ], [ 3.56302, 6.46687 ], [ 3.56287, 6.46713 ], [ 3.56258, 6.46774 ], [ 3.56261, 6.46778 ], [ 3.5627, 6.46784 ], [ 3.56287, 6.46791 ], [ 3.56313, 6.46797 ], [ 3.56335, 6.46806 ], [ 3.56359, 6.4682 ], [ 3.56412, 6.46862 ], [ 3.56457, 6.46887 ], [ 3.5646, 6.46888 ] ] } },
{ "type": "Feature", "properties": { "Hub": "Ajah", "Origin": "Ajah", "Origin_Long": 3.564929932, "Origin_Lat": 6.466905287, "Destination": "Chicken Republic", "Destination_Long": 3.56488157, "Destination_Lat": 6.470238023, "Distance_km": 1.13, "Duration_min": 13.6, "Route": "- → Addo Road" }, "geometry": { "type": "LineString", "coordinates": [ [ 3.56482, 6.4671 ], [ 3.56469, 6.46703 ], [ 3.56405, 6.46671 ], [ 3.56373, 6.46653 ], [ 3.56307, 6.46621 ], [ 3.5625, 6.46589 ], [ 3.56241, 6.46582 ], [ 3.56228, 6.46573 ], [ 3.56203, 6.46562 ], [ 3.56191, 6.46558 ], [ 3.56198, 6.46568 ], [ 3.56254, 6.46602 ], [ 3.56232, 6.46639 ], [ 3.56288, 6.46673 ], [ 3.56302, 6.46668 ], [ 3.56311, 6.46675 ], [ 3.56502, 6.46797 ], [ 3.56511, 6.46812 ], [ 3.56513, 6.46825 ], [ 3.56513, 6.46833 ], [ 3.56508, 6.46866 ], [ 3.56507, 6.46886 ], [ 3.56509, 6.46912 ], [ 3.56513, 6.46961 ], [ 3.56523, 6.47023 ], [ 3.56498, 6.47028 ] ] } },
{ "type": "Feature", "properties": { "Hub": "Ajah", "Origin": "Ajah", "Origin_Long": 3.564929932, "Origin_Lat": 6.466905287, "Destination": "View point plaza", "Destination_Long": 3.566820015, "Destination_Lat": 6.469610529, "Distance_km": 1.35, "Duration_min": 16.21, "Route": "- → Addo Road → Thomas Street" }, "geometry": { "type": "LineString", "coordinates": [ [ 3.56482, 6.4671 ], [ 3.56469, 6.46703 ], [ 3.56405, 6.46671 ], [ 3.56373, 6.46653 ], [ 3.56307, 6.46621 ], [ 3.5625, 6.46589 ], [ 3.56241, 6.46582 ], [ 3.56228, 6.46573 ], [ 3.56203, 6.46562 ], [ 3.56191, 6.46558 ], [ 3.56198, 6.46568 ], [ 3.56254, 6.46602 ], [ 3.56308, 6.46636 ], [ 3.5631, 6.46641 ], [ 3.56448, 6.46727 ], [ 3.56517, 6.46769 ], [ 3.56577, 6.46806 ], [ 3.56564, 6.46826 ], [ 3.56558, 6.46832 ], [ 3.5653, 6.46855 ], [ 3.56524, 6.4686 ], [ 3.56582, 6.46897 ], [ 3.56643, 6.46922 ], [ 3.56691, 6.46932 ], [ 3.56751, 6.4694 ], [ 3.56741, 6.46987 ], [ 3.56681, 6.46984 ] ] } },
{ "type": "Feature", "properties": { "Hub": "Ajah", "Origin": "Ajah", "Origin_Long": 3.564929932, "Origin_Lat": 6.466905287, "Destination": "The Apostolic Church", "Destination_Long": 3.564856089, "Destination_Lat": 6.469155692, "Distance_km": 1.0, "Duration_min": 12.04, "Route": "- → Addo Road" }, "geometry": { "type": "LineString", "coordinates": [ [ 3.56482, 6.4671 ], [ 3.56469, 6.46703 ], [ 3.56405, 6.46671 ], [ 3.56373, 6.46653 ], [ 3.56307, 6.46621 ], [ 3.5625, 6.46589 ], [ 3.56241, 6.46582 ], [ 3.56228, 6.46573 ], [ 3.56203, 6.46562 ], [ 3.56191, 6.46558 ], [ 3.56198, 6.46568 ], [ 3.56254, 6.46602 ], [ 3.56232, 6.46639 ], [ 3.56288, 6.46673 ], [ 3.56302, 6.46668 ], [ 3.56311, 6.46675 ], [ 3.56502, 6.46797 ], [ 3.56511, 6.46812 ], [ 3.56513, 6.46825 ], [ 3.56513, 6.46833 ], [ 3.56508, 6.46866 ], [ 3.56507, 6.46886 ], [ 3.56509, 6.46912 ], [ 3.56492, 6.46903 ] ] } },
{ "type": "Feature", "properties": { "Hub": "Ajah", "Origin": "Ajah", "Origin_Long": 3.564929932, "Origin_Lat": 6.466905287, "Destination": "Olumegbon Palace", "Destination_Long": 3.565580658, "Destination_Lat": 6.469586359, "Distance_km": 1.13, "Duration_min": 13.61, "Route": "- → Addo Road → Engr. Ogunduyile Crescent" }, "geometry": { "type": "LineString", "coordinates": [ [ 3.56482, 6.4671 ], [ 3.56469, 6.46703 ], [ 3.56405, 6.46671 ], [ 3.56373, 6.46653 ], [ 3.56307, 6.46621 ], [ 3.5625, 6.46589 ], [ 3.56241, 6.46582 ], [ 3.56228, 6.46573 ], [ 3.56203, 6.46562 ], [ 3.56191, 6.46558 ], [ 3.56198, 6.46568 ], [ 3.56254, 6.46602 ], [ 3.56308, 6.46636 ], [ 3.5631, 6.46641 ], [ 3.56448, 6.46727 ], [ 3.56517, 6.46769 ], [ 3.56577, 6.46806 ], [ 3.56564, 6.46826 ], [ 3.56558, 6.46832 ], [ 3.5653, 6.46855 ], [ 3.56524, 6.4686 ], [ 3.5652, 6.46865 ], [ 3.56518, 6.46887 ], [ 3.56524, 6.46962 ], [ 3.56527, 6.46982 ], [ 3.56539, 6.4698 ], [ 3.56538, 6.4696 ] ] } },
{ "type": "Feature", "properties": { "Hub": "Ajah", "Origin": "Ajah", "Origin_Long": 3.564929932, "Origin_Lat": 6.466905287, "Destination": "Mountain of Fire Miracles Church", "Destination_Long": 3.565935023, "Destination_Lat": 6.472006529, "Distance_km": 1.36, "Duration_min": 16.37, "Route": "- → Addo Road" }, "geometry": { "type": "LineString", "coordinates": [ [ 3.56482, 6.4671 ], [ 3.56469, 6.46703 ], [ 3.56405, 6.46671 ], [ 3.56373, 6.46653 ], [ 3.56307, 6.46621 ], [ 3.5625, 6.46589 ], [ 3.56241, 6.46582 ], [ 3.56228, 6.46573 ], [ 3.56203, 6.46562 ], [ 3.56191, 6.46558 ], [ 3.56198, 6.46568 ], [ 3.56254, 6.46602 ], [ 3.56308, 6.46636 ], [ 3.5631, 6.46641 ], [ 3.56448, 6.46727 ], [ 3.56517, 6.46769 ], [ 3.56577, 6.46806 ], [ 3.56564, 6.46826 ], [ 3.56558, 6.46832 ], [ 3.5653, 6.46855 ], [ 3.56524, 6.4686 ], [ 3.5652, 6.46865 ], [ 3.56518, 6.46887 ], [ 3.56524, 6.46962 ], [ 3.56527, 6.46982 ], [ 3.56538, 6.47048 ], [ 3.56545, 6.47103 ], [ 3.56554, 6.47159 ], [ 3.5656, 6.47182 ], [ 3.56566, 6.47194 ], [ 3.56574, 6.47205 ], [ 3.5658, 6.47212 ] ] } },
{ "type": "Feature", "properties": { "Hub": "Ajah", "Origin": "Ajah", "Origin_Long": 3.564929932, "Origin_Lat": 6.466905287, "Destination": "St Edwards hospital", "Destination_Long": 3.565187637, "Destination_Lat": 6.473228214, "Distance_km": 1.57, "Duration_min": 18.86, "Route": "- → Addo Road → Dolapo Oshinaike Street" }, "geometry": { "type": "LineString", "coordinates": [ [ 3.56482, 6.4671 ], [ 3.56469, 6.46703 ], [ 3.56405, 6.46671 ], [ 3.56373, 6.46653 ], [ 3.56307, 6.46621 ], [ 3.5625, 6.46589 ], [ 3.56241, 6.46582 ], [ 3.56228, 6.46573 ], [ 3.56203, 6.46562 ], [ 3.56191, 6.46558 ], [ 3.56198, 6.46568 ], [ 3.56254, 6.46602 ], [ 3.56232, 6.46639 ], [ 3.56288, 6.46673 ], [ 3.56302, 6.46668 ], [ 3.56311, 6.46675 ], [ 3.56502, 6.46797 ], [ 3.56511, 6.46812 ], [ 3.56513, 6.46825 ], [ 3.56513, 6.46833 ], [ 3.56508, 6.46866 ], [ 3.56507, 6.46886 ], [ 3.56509, 6.46912 ], [ 3.56513, 6.46961 ], [ 3.56523, 6.47023 ], [ 3.56535, 6.47099 ], [ 3.56548, 6.47169 ], [ 3.56553, 6.47188 ], [ 3.56566, 6.47209 ], [ 3.56579, 6.47225 ], [ 3.56618, 6.47267 ], [ 3.56545, 6.47332 ], [ 3.56527, 6.4735 ], [ 3.56511, 6.47329 ] ] } },
{ "type": "Feature", "properties": { "Hub": "Ajah", "Origin": "Ajah", "Origin_Long": 3.564929932, "Origin_Lat": 6.466905287, "Destination": "RCCG, Believers Parish", "Destination_Long": 3.562798012, "Destination_Lat": 6.472539745, "Distance_km": 1.4, "Duration_min": 16.76, "Route": "-" }, "geometry": { "type": "LineString", "coordinates": [ [ 3.56482, 6.4671 ], [ 3.56469, 6.46703 ], [ 3.56405, 6.46671 ], [ 3.56373, 6.46653 ], [ 3.56307, 6.46621 ], [ 3.5625, 6.46589 ], [ 3.56241, 6.46582 ], [ 3.56228, 6.46573 ], [ 3.56203, 6.46562 ], [ 3.56191, 6.46558 ], [ 3.56198, 6.46568 ], [ 3.56254, 6.46602 ], [ 3.56232, 6.46639 ], [ 3.56288, 6.46673 ], [ 3.56302, 6.46668 ], [ 3.56311, 6.46675 ], [ 3.56302, 6.46687 ], [ 3.56287, 6.46713 ], [ 3.56258, 6.46774 ], [ 3.56237, 6.46832 ], [ 3.56246, 6.46856 ], [ 3.56264, 6.46889 ], [ 3.56271, 6.46906 ], [ 3.56268, 6.46908 ], [ 3.56265, 6.46915 ], [ 3.56265, 6.46919 ], [ 3.56277, 6.4694 ], [ 3.56286, 6.46963 ], [ 3.56289, 6.46973 ], [ 3.56288, 6.46977 ], [ 3.56284, 6.4698 ], [ 3.56252, 6.46992 ], [ 3.56213, 6.4701 ], [ 3.5622, 6.4703 ], [ 3.56225, 6.47037 ], [ 3.56245, 6.47065 ], [ 3.56257, 6.47099 ], [ 3.56271, 6.47145 ], [ 3.56292, 6.47193 ], [ 3.56313, 6.47259 ], [ 3.56312, 6.47263 ], [ 3.56288, 6.47269 ], [ 3.56286, 6.4727 ] ] } },
{ "type": "Feature", "properties": { "Hub": "Ajah", "Origin": "Ajah", "Origin_Long": 3.564929932, "Origin_Lat": 6.466905287, "Destination": "La Fete lounge and Events Hall", "Destination_Long": 3.561841538, "Destination_Lat": 6.468096866, "Distance_km": 0.87, "Duration_min": 10.48, "Route": "-" }, "geometry": { "type": "LineString", "coordinates": [ [ 3.56482, 6.4671 ], [ 3.56469, 6.46703 ], [ 3.56405, 6.46671 ], [ 3.56373, 6.46653 ], [ 3.56307, 6.46621 ], [ 3.5625, 6.46589 ], [ 3.56241, 6.46582 ], [ 3.56228, 6.46573 ], [ 3.56203, 6.46562 ], [ 3.56191, 6.46558 ], [ 3.56198, 6.46568 ], [ 3.56254, 6.46602 ], [ 3.56232, 6.46639 ], [ 3.56288, 6.46673 ], [ 3.56302, 6.46668 ], [ 3.56311, 6.46675 ], [ 3.56302, 6.46687 ], [ 3.56287, 6.46713 ], [ 3.56258, 6.46774 ], [ 3.56201, 6.46741 ], [ 3.56191, 6.46755 ], [ 3.56166, 6.468 ] ] } },
{ "type": "Feature", "properties": { "Hub": "Ajah", "Origin": "Ajah", "Origin_Long": 3.564929932, "Origin_Lat": 6.466905287, "Destination": "Olomu Central Mosque", "Destination_Long": 3.562456715, "Destination_Lat": 6.4673232, "Distance_km": 0.69, "Duration_min": 8.26, "Route": "-" }, "geometry": { "type": "LineString", "coordinates": [ [ 3.56482, 6.4671 ], [ 3.56469, 6.46703 ], [ 3.56405, 6.46671 ], [ 3.56373, 6.46653 ], [ 3.56307, 6.46621 ], [ 3.5625, 6.46589 ], [ 3.56241, 6.46582 ], [ 3.56228, 6.46573 ], [ 3.56203, 6.46562 ], [ 3.56191, 6.46558 ], [ 3.56198, 6.46568 ], [ 3.56254, 6.46602 ], [ 3.56232, 6.46639 ], [ 3.56288, 6.46673 ], [ 3.56302, 6.46668 ], [ 3.56311, 6.46675 ], [ 3.56302, 6.46687 ], [ 3.56287, 6.46713 ], [ 3.56272, 6.46745 ] ] } },
{ "type": "Feature", "properties": { "Hub": "Ajah", "Origin": "Ajah", "Origin_Long": 3.564929932, "Origin_Lat": 6.466905287, "Destination": "Ilaje-Oshodi BRT Park", "Destination_Long": 3.561920901, "Destination_Lat": 6.466179008, "Distance_km": 0.76, "Duration_min": 9.12, "Route": "-" }, "geometry": { "type": "LineString", "coordinates": [ [ 3.56482, 6.4671 ], [ 3.56469, 6.46703 ], [ 3.56405, 6.46671 ], [ 3.56373, 6.46653 ], [ 3.56307, 6.46621 ], [ 3.5625, 6.46589 ], [ 3.56241, 6.46582 ], [ 3.56228, 6.46573 ], [ 3.56203, 6.46562 ], [ 3.56191, 6.46558 ], [ 3.56198, 6.46568 ], [ 3.56254, 6.46602 ], [ 3.56232, 6.46639 ], [ 3.56288, 6.46673 ], [ 3.56302, 6.46668 ], [ 3.56311, 6.46675 ], [ 3.56302, 6.46687 ], [ 3.56267, 6.46664 ], [ 3.56219, 6.46635 ], [ 3.56192, 6.46618 ] ] } },
{ "type": "Feature", "properties": { "Hub": "Ajah", "Origin": "Ajah", "Origin_Long": 3.564929932, "Origin_Lat": 6.466905287, "Destination": "Ajah Motor Park", "Destination_Long": 3.563075114, "Destination_Lat": 6.465907499, "Distance_km": 0.23, "Duration_min": 2.8, "Route": "-" }, "geometry": { "type": "LineString", "coordinates": [ [ 3.56482, 6.4671 ], [ 3.56469, 6.46703 ], [ 3.56405, 6.46671 ], [ 3.56373, 6.46653 ], [ 3.56307, 6.46621 ], [ 3.56294, 6.46614 ] ] } },
{ "type": "Feature", "properties": { "Hub": "Ajah", "Origin": "Ajah", "Origin_Long": 3.564929932, "Origin_Lat": 6.466905287, "Destination": "Royal Gardens Estate", "Destination_Long": 3.568224722, "Destination_Lat": 6.46520656, "Distance_km": 0.41, "Duration_min": 4.88, "Route": "-" }, "geometry": { "type": "LineString", "coordinates": [ [ 3.56482, 6.4671 ], [ 3.56515, 6.4673 ], [ 3.56546, 6.46745 ], [ 3.56597, 6.46775 ], [ 3.56612, 6.4678 ], [ 3.56623, 6.46777 ], [ 3.56631, 6.46771 ], [ 3.56637, 6.4677 ], [ 3.56677, 6.46797 ], [ 3.56696, 6.46802 ], [ 3.56761, 6.46806 ], [ 3.5682, 6.46807 ] ] } },
{ "type": "Feature", "properties": { "Hub": "Ajah", "Origin": "Ajah", "Origin_Long": 3.564929932, "Origin_Lat": 6.466905287, "Destination": "Greenland estate", "Destination_Long": 3.563000943, "Destination_Lat": 6.46310013, "Distance_km": 0.69, "Duration_min": 8.31, "Route": "- → Mobil Estate Road" }, "geometry": { "type": "LineString", "coordinates": [ [ 3.56482, 6.4671 ], [ 3.56469, 6.46703 ], [ 3.56405, 6.46671 ], [ 3.56373, 6.46653 ], [ 3.56307, 6.46621 ], [ 3.5625, 6.46589 ], [ 3.56241, 6.46582 ], [ 3.56228, 6.46573 ], [ 3.56203, 6.46562 ], [ 3.56191, 6.46558 ], [ 3.56172, 6.4655 ], [ 3.56167, 6.46547 ], [ 3.56153, 6.46536 ], [ 3.56167, 6.46518 ], [ 3.56177, 6.46503 ], [ 3.56182, 6.46489 ], [ 3.56181, 6.46478 ], [ 3.56182, 6.46475 ], [ 3.56189, 6.46466 ], [ 3.56197, 6.46454 ], [ 3.56212, 6.46423 ], [ 3.56213, 6.46409 ], [ 3.56214, 6.46402 ], [ 3.56227, 6.46301 ] ] } },
{ "type": "Feature", "properties": { "Hub": "Ajah", "Origin": "Ajah", "Origin_Long": 3.564929932, "Origin_Lat": 6.466905287, "Destination": "RCCG, Tabernacle of David", "Destination_Long": 3.56143631, "Destination_Lat": 6.463872527, "Distance_km": 0.58, "Duration_min": 7.0, "Route": "- → Mobil Estate Road" }, "geometry": { "type": "LineString", "coordinates": [ [ 3.56482, 6.4671 ], [ 3.56469, 6.46703 ], [ 3.56405, 6.46671 ], [ 3.56373, 6.46653 ], [ 3.56307, 6.46621 ], [ 3.5625, 6.46589 ], [ 3.56241, 6.46582 ], [ 3.56228, 6.46573 ], [ 3.56203, 6.46562 ], [ 3.56191, 6.46558 ], [ 3.56172, 6.4655 ], [ 3.56167, 6.46547 ], [ 3.56153, 6.46536 ], [ 3.56167, 6.46518 ], [ 3.56177, 6.46503 ], [ 3.56182, 6.46489 ], [ 3.56181, 6.46478 ], [ 3.56182, 6.46475 ], [ 3.56162, 6.4646 ], [ 3.56186, 6.46405 ] ] } },
{ "type": "Feature", "properties": { "Hub": "Ajah", "Origin": "Ajah", "Origin_Long": 3.564929932, "Origin_Lat": 6.466905287, "Destination": "Trade Fair Complex", "Destination_Long": 3.556045515, "Destination_Lat": 6.464017868, "Distance_km": 1.54, "Duration_min": 18.44, "Route": "- → Lekki-Epe Expressway → Road 5" }, "geometry": { "type": "LineString", "coordinates": [ [ 3.56482, 6.4671 ], [ 3.56469, 6.46703 ], [ 3.56405, 6.46671 ], [ 3.56373, 6.46653 ], [ 3.56307, 6.46621 ], [ 3.5625, 6.46589 ], [ 3.56241, 6.46582 ], [ 3.56228, 6.46573 ], [ 3.56203, 6.46562 ], [ 3.56191, 6.46558 ], [ 3.56198, 6.46568 ], [ 3.56254, 6.46602 ], [ 3.56232, 6.46639 ], [ 3.56288, 6.46673 ], [ 3.56302, 6.46668 ], [ 3.56179, 6.46586 ], [ 3.56159, 6.46573 ], [ 3.5605, 6.46506 ], [ 3.55997, 6.46476 ], [ 3.55916, 6.46436 ], [ 3.5591, 6.46445 ], [ 3.55906, 6.46451 ], [ 3.55824, 6.46399 ], [ 3.558, 6.46434 ], [ 3.55792, 6.46446 ], [ 3.55782, 6.46459 ], [ 3.55778, 6.46466 ], [ 3.5573, 6.46435 ], [ 3.55722, 6.46432 ], [ 3.55719, 6.46434 ], [ 3.55711, 6.46445 ], [ 3.55641, 6.464 ], [ 3.55633, 6.46412 ], [ 3.55608, 6.46396 ] ] } },
{ "type": "Feature", "properties": { "Hub": "Ajah", "Origin": "Ajah", "Origin_Long": 3.564929932, "Origin_Lat": 6.466905287, "Destination": "Lake View Park", "Destination_Long": 3.56221649, "Destination_Lat": 6.459613829, "Distance_km": 1.07, "Duration_min": 12.79, "Route": "- → Mobil Estate Road" }, "geometry": { "type": "LineString", "coordinates": [ [ 3.56482, 6.4671 ], [ 3.56469, 6.46703 ], [ 3.56405, 6.46671 ], [ 3.56373, 6.46653 ], [ 3.56307, 6.46621 ], [ 3.5625, 6.46589 ], [ 3.56241, 6.46582 ], [ 3.56228, 6.46573 ], [ 3.56203, 6.46562 ], [ 3.56191, 6.46558 ], [ 3.56172, 6.4655 ], [ 3.56167, 6.46547 ], [ 3.56153, 6.46536 ], [ 3.56167, 6.46518 ], [ 3.56177, 6.46503 ], [ 3.56182, 6.46489 ], [ 3.56181, 6.46478 ], [ 3.56182, 6.46475 ], [ 3.56189, 6.46466 ], [ 3.56197, 6.46454 ], [ 3.56212, 6.46423 ], [ 3.56213, 6.46409 ], [ 3.56214, 6.46402 ], [ 3.56234, 6.46245 ], [ 3.56253, 6.46097 ], [ 3.56271, 6.45968 ] ] } },
{ "type": "Feature", "properties": { "Hub": "Ajah", "Origin": "Ajah", "Origin_Long": 3.564929932, "Origin_Lat": 6.466905287, "Destination": "VGC, LEKKI", "Destination_Long": 3.557193205, "Destination_Lat": 6.461186693, "Distance_km": 1.17, "Duration_min": 14.1, "Route": "- → Mobil Estate Road → Lekki-Epe Expressway" }, "geometry": { "type": "LineString", "coordinates": [ [ 3.56482, 6.4671 ], [ 3.56469, 6.46703 ], [ 3.56405, 6.46671 ], [ 3.56373, 6.46653 ], [ 3.56307, 6.46621 ], [ 3.5625, 6.46589 ], [ 3.56241, 6.46582 ], [ 3.56228, 6.46573 ], [ 3.56203, 6.46562 ], [ 3.56191, 6.46558 ], [ 3.56172, 6.4655 ], [ 3.56167, 6.46547 ], [ 3.56153, 6.46536 ], [ 3.56143, 6.46551 ], [ 3.5613, 6.46542 ], [ 3.5599, 6.46453 ], [ 3.55875, 6.46371 ], [ 3.55889, 6.46353 ], [ 3.55903, 6.46334 ], [ 3.55817, 6.46282 ], [ 3.55815, 6.46277 ], [ 3.55825, 6.4626 ], [ 3.55782, 6.46234 ], [ 3.55716, 6.46191 ], [ 3.55701, 6.46182 ], [ 3.55679, 6.46162 ] ] } },
{ "type": "Feature", "properties": { "Hub": "Ajah", "Origin": "Ajah", "Origin_Long": 3.564929932, "Origin_Lat": 6.466905287, "Destination": "Our Lady Mother Of Perpetual Help", "Destination_Long": 3.567222815, "Destination_Lat": 6.474353789, "Distance_km": 1.63, "Duration_min": 19.55, "Route": "- → Addo Road" }, "geometry": { "type": "LineString", "coordinates": [ [ 3.56482, 6.4671 ], [ 3.56469, 6.46703 ], [ 3.56405, 6.46671 ], [ 3.56373, 6.46653 ], [ 3.56307, 6.46621 ], [ 3.5625, 6.46589 ], [ 3.56241, 6.46582 ], [ 3.56228, 6.46573 ], [ 3.56203, 6.46562 ], [ 3.56191, 6.46558 ], [ 3.56198, 6.46568 ], [ 3.56254, 6.46602 ], [ 3.56232, 6.46639 ], [ 3.56288, 6.46673 ], [ 3.56302, 6.46668 ], [ 3.56311, 6.46675 ], [ 3.56502, 6.46797 ], [ 3.56511, 6.46812 ], [ 3.56513, 6.46825 ], [ 3.56513, 6.46833 ], [ 3.56508, 6.46866 ], [ 3.56507, 6.46886 ], [ 3.56509, 6.46912 ], [ 3.56513, 6.46961 ], [ 3.56523, 6.47023 ], [ 3.56535, 6.47099 ], [ 3.56548, 6.47169 ], [ 3.56553, 6.47188 ], [ 3.56566, 6.47209 ], [ 3.56579, 6.47225 ], [ 3.56618, 6.47267 ], [ 3.5665, 6.47302 ], [ 3.56667, 6.47325 ], [ 3.56729, 6.4741 ], [ 3.56713, 6.4742 ] ] } }
]
}
