{
"type": "FeatureCollection",
"name": "Barracks_routes",
"crs": { "type": "name", "properties": { "name": "urn:ogc:def:crs:OGC:1.3:CRS84" } },
"features": [
{ "type": "Feature", "properties": { "Hub": "Barracks", "Origin": "Barracks", "Origin_Long": 3.363699579, "Origin_Lat": 6.506009339, "Destination": "United Evangelical Church", "Destination_Long": 3.36366426, "Destination_Lat": 6.50515759, "Distance_km": 0.1, "Duration_min": 1.23, "Route": "- → Western Avenue" }, "geometry": { "type": "LineString", "coordinates": [ [ 3.36369, 6.50604 ], [ 3.36366, 6.50603 ], [ 3.36366, 6.50601 ], [ 3.36374, 6.50572 ], [ 3.36382, 6.50536 ], [ 3.36362, 6.50531 ] ] } },
{ "type": "Feature", "properties": { "Hub": "Barracks", "Origin": "Barracks", "Origin_Long": 3.363699579, "Origin_Lat": 6.506009339, "Destination": "Wema Bank", "Destination_Long": 3.36338288, "Destination_Lat": 6.50660607, "Distance_km": 0.07, "Duration_min": 0.89, "Route": "- → Western Avenue" }, "geometry": { "type": "LineString", "coordinates": [ [ 3.36369, 6.50604 ], [ 3.36366, 6.50603 ], [ 3.36355, 6.50653 ], [ 3.36344, 6.50648 ] ] } },
{ "type": "Feature", "properties": { "Hub": "Barracks", "Origin": "Barracks", "Origin_Long": 3.363699579, "Origin_Lat": 6.506009339, "Destination": "Federal Fire Service", "Destination_Long": 3.36365323, "Destination_Lat": 6.50817091, "Distance_km": 0.42, "Duration_min": 5.01, "Route": "- → Western Avenue" }, "geometry": { "type": "LineString", "coordinates": [ [ 3.36369, 6.50604 ], [ 3.36366, 6.50603 ], [ 3.36366, 6.50601 ], [ 3.36374, 6.50572 ], [ 3.3637, 6.50564 ], [ 3.36369, 6.50552 ], [ 3.36422, 6.50565 ], [ 3.3642, 6.50575 ], [ 3.36406, 6.50585 ], [ 3.36405, 6.50588 ], [ 3.36401, 6.50606 ], [ 3.36384, 6.50652 ], [ 3.36378, 6.50674 ], [ 3.36352, 6.50781 ], [ 3.36345, 6.50812 ] ] } },
{ "type": "Feature", "properties": { "Hub": "Barracks", "Origin": "Barracks", "Origin_Long": 3.363699579, "Origin_Lat": 6.506009339, "Destination": "Area Command Nigerian Police", "Destination_Long": 3.36399291, "Destination_Lat": 6.50698266, "Distance_km": 0.3, "Duration_min": 3.55, "Route": "- → Western Avenue" }, "geometry": { "type": "LineString", "coordinates": [ [ 3.36369, 6.50604 ], [ 3.36366, 6.50603 ], [ 3.36366, 6.50601 ], [ 3.36374, 6.50572 ], [ 3.3637, 6.50564 ], [ 3.36369, 6.50552 ], [ 3.36422, 6.50565 ], [ 3.3642, 6.50575 ], [ 3.36406, 6.50585 ], [ 3.36405, 6.50588 ], [ 3.36401, 6.50606 ], [ 3.36384, 6.50652 ], [ 3.36378, 6.50674 ], [ 3.36392, 6.50678 ], [ 3.36394, 6.50681 ], [ 3.36395, 6.50685 ], [ 3.36391, 6.50696 ] ] } },
{ "type": "Feature", "properties": { "Hub": "Barracks", "Origin": "Barracks", "Origin_Long": 3.363699579, "Origin_Lat": 6.506009339, "Destination": "All Saints Anglican Church, Surulere", "Destination_Long": 3.36443613, "Destination_Lat": 6.50752968, "Distance_km": 0.68, "Duration_min": 8.17, "Route": "- → Western Avenue → Clegg Street" }, "geometry": { "type": "LineString", "coordinates": [ [ 3.36369, 6.50604 ], [ 3.36366, 6.50603 ], [ 3.36366, 6.50601 ], [ 3.36374, 6.50572 ], [ 3.3637, 6.50564 ], [ 3.36369, 6.50552 ], [ 3.36422, 6.50565 ], [ 3.3642, 6.50575 ], [ 3.36406, 6.50585 ], [ 3.36405, 6.50588 ], [ 3.36401, 6.50606 ], [ 3.36384, 6.50652 ], [ 3.36378, 6.50674 ], [ 3.36352, 6.50781 ], [ 3.36337, 6.50845 ], [ 3.36421, 6.50871 ], [ 3.36436, 6.50831 ], [ 3.36446, 6.50806 ], [ 3.36457, 6.50765 ], [ 3.36459, 6.50762 ] ] } },
{ "type": "Feature", "properties": { "Hub": "Barracks", "Origin": "Barracks", "Origin_Long": 3.363699579, "Origin_Lat": 6.506009339, "Destination": "Zenith Bank", "Destination_Long": 3.36609128, "Destination_Lat": 6.50573458, "Distance_km": 0.47, "Duration_min": 5.58, "Route": "- → Western Avenue → Tejuoso Street" }, "geometry": { "type": "LineString", "coordinates": [ [ 3.36369, 6.50604 ], [ 3.36366, 6.50603 ], [ 3.36366, 6.50601 ], [ 3.36374, 6.50572 ], [ 3.3637, 6.50564 ], [ 3.36369, 6.50552 ], [ 3.36422, 6.50565 ], [ 3.3642, 6.50575 ], [ 3.36406, 6.50585 ], [ 3.36414, 6.50534 ], [ 3.3643, 6.50525 ], [ 3.36441, 6.50528 ], [ 3.36457, 6.50533 ], [ 3.36489, 6.50544 ], [ 3.36504, 6.50549 ], [ 3.3661, 6.50589 ], [ 3.36616, 6.50591 ], [ 3.36621, 6.50579 ] ] } },
{ "type": "Feature", "properties": { "Hub": "Barracks", "Origin": "Barracks", "Origin_Long": 3.363699579, "Origin_Lat": 6.506009339, "Destination": "Paddington Mini-Stadium", "Destination_Long": 3.36502058, "Destination_Lat": 6.50335192, "Distance_km": 0.5, "Duration_min": 6.01, "Route": "- → Western Avenue → Ibukun Street" }, "geometry": { "type": "LineString", "coordinates": [ [ 3.36369, 6.50604 ], [ 3.36366, 6.50603 ], [ 3.36366, 6.50601 ], [ 3.36374, 6.50572 ], [ 3.3637, 6.50564 ], [ 3.36369, 6.50552 ], [ 3.36422, 6.50565 ], [ 3.3642, 6.50575 ], [ 3.36406, 6.50585 ], [ 3.36414, 6.50534 ], [ 3.36416, 6.50514 ], [ 3.36419, 6.50475 ], [ 3.36417, 6.50438 ], [ 3.3641, 6.50406 ], [ 3.36404, 6.50391 ], [ 3.36495, 6.50361 ], [ 3.36486, 6.50342 ] ] } },
{ "type": "Feature", "properties": { "Hub": "Barracks", "Origin": "Barracks", "Origin_Long": 3.363699579, "Origin_Lat": 6.506009339, "Destination": "Ajigbeda Girls High School", "Destination_Long": 3.36538696, "Destination_Lat": 6.50210934, "Distance_km": 0.69, "Duration_min": 8.24, "Route": "- → Western Avenue → Iyun Road" }, "geometry": { "type": "LineString", "coordinates": [ [ 3.36369, 6.50604 ], [ 3.36366, 6.50603 ], [ 3.36366, 6.50601 ], [ 3.36374, 6.50572 ], [ 3.3637, 6.50564 ], [ 3.36369, 6.50552 ], [ 3.36422, 6.50565 ], [ 3.3642, 6.50575 ], [ 3.36406, 6.50585 ], [ 3.36414, 6.50534 ], [ 3.36416, 6.50514 ], [ 3.36419, 6.50475 ], [ 3.36417, 6.50438 ], [ 3.3641, 6.50406 ], [ 3.36404, 6.50391 ], [ 3.3639, 6.50346 ], [ 3.36373, 6.50299 ], [ 3.36413, 6.50285 ], [ 3.36513, 6.50246 ], [ 3.36547, 6.50234 ] ] } },
{ "type": "Feature", "properties": { "Hub": "Barracks", "Origin": "Barracks", "Origin_Long": 3.363699579, "Origin_Lat": 6.506009339, "Destination": "Colindale Park Estate", "Destination_Long": 3.36695078, "Destination_Lat": 6.50224496, "Distance_km": 0.75, "Duration_min": 9.06, "Route": "- → Western Avenue → Ibukun Street → Iletunmi Street → Olaitan Street" }, "geometry": { "type": "LineString", "coordinates": [ [ 3.36369, 6.50604 ], [ 3.36366, 6.50603 ], [ 3.36366, 6.50601 ], [ 3.36374, 6.50572 ], [ 3.3637, 6.50564 ], [ 3.36369, 6.50552 ], [ 3.36422, 6.50565 ], [ 3.3642, 6.50575 ], [ 3.36406, 6.50585 ], [ 3.36414, 6.50534 ], [ 3.36416, 6.50514 ], [ 3.36419, 6.50475 ], [ 3.36417, 6.50438 ], [ 3.3641, 6.50406 ], [ 3.36404, 6.50391 ], [ 3.36495, 6.50361 ], [ 3.36546, 6.50339 ], [ 3.36532, 6.50297 ], [ 3.36663, 6.50245 ], [ 3.3666, 6.50237 ] ] } },
{ "type": "Feature", "properties": { "Hub": "Barracks", "Origin": "Barracks", "Origin_Long": 3.363699579, "Origin_Lat": 6.506009339, "Destination": "Femi Gbajabiamila General Hospital", "Destination_Long": 3.36499962, "Destination_Lat": 6.50270233, "Distance_km": 0.62, "Duration_min": 7.48, "Route": "- → Western Avenue → Iyun Road" }, "geometry": { "type": "LineString", "coordinates": [ [ 3.36369, 6.50604 ], [ 3.36366, 6.50603 ], [ 3.36366, 6.50601 ], [ 3.36374, 6.50572 ], [ 3.3637, 6.50564 ], [ 3.36369, 6.50552 ], [ 3.36422, 6.50565 ], [ 3.3642, 6.50575 ], [ 3.36406, 6.50585 ], [ 3.36414, 6.50534 ], [ 3.36416, 6.50514 ], [ 3.36419, 6.50475 ], [ 3.36417, 6.50438 ], [ 3.3641, 6.50406 ], [ 3.36404, 6.50391 ], [ 3.3639, 6.50346 ], [ 3.36373, 6.50299 ], [ 3.36413, 6.50285 ], [ 3.36494, 6.50254 ] ] } },
{ "type": "Feature", "properties": { "Hub": "Barracks", "Origin": "Barracks", "Origin_Long": 3.363699579, "Origin_Lat": 6.506009339, "Destination": "Onitolo Community High School", "Destination_Long": 3.36077611, "Destination_Lat": 6.50471538, "Distance_km": 0.44, "Duration_min": 5.32, "Route": "- → Western Avenue → Abimbola Shadipe Street → Olorogun Street" }, "geometry": { "type": "LineString", "coordinates": [ [ 3.36369, 6.50604 ], [ 3.36366, 6.50603 ], [ 3.36366, 6.50601 ], [ 3.36308, 6.50573 ], [ 3.36241, 6.50547 ], [ 3.36243, 6.50532 ], [ 3.36157, 6.5056 ], [ 3.36147, 6.50557 ], [ 3.36144, 6.50554 ], [ 3.3613, 6.5052 ], [ 3.36115, 6.50477 ], [ 3.36106, 6.50454 ], [ 3.36091, 6.50462 ], [ 3.36079, 6.50465 ], [ 3.36077, 6.50465 ] ] } },
{ "type": "Feature", "properties": { "Hub": "Barracks", "Origin": "Barracks", "Origin_Long": 3.363699579, "Origin_Lat": 6.506009339, "Destination": "Flyover bridge", "Destination_Long": 3.36308219, "Destination_Lat": 6.51012146, "Distance_km": 0.47, "Duration_min": 5.65, "Route": "- → Western Avenue → Ojuelegba Road" }, "geometry": { "type": "LineString", "coordinates": [ [ 3.36369, 6.50604 ], [ 3.36366, 6.50603 ], [ 3.36355, 6.50653 ], [ 3.36344, 6.50695 ], [ 3.3634, 6.50714 ], [ 3.36335, 6.50741 ], [ 3.36321, 6.50789 ], [ 3.36311, 6.5083 ], [ 3.363, 6.50885 ], [ 3.36299, 6.50905 ], [ 3.36297, 6.50939 ], [ 3.36298, 6.50962 ], [ 3.36303, 6.51005 ], [ 3.36304, 6.51011 ], [ 3.36308, 6.51011 ] ] } },
{ "type": "Feature", "properties": { "Hub": "Barracks", "Origin": "Barracks", "Origin_Long": 3.363699579, "Origin_Lat": 6.506009339, "Destination": "Access bank", "Destination_Long": 3.36335896, "Destination_Lat": 6.51192683, "Distance_km": 0.68, "Duration_min": 8.19, "Route": "- → Western Avenue → Cole Street" }, "geometry": { "type": "LineString", "coordinates": [ [ 3.36369, 6.50604 ], [ 3.36366, 6.50603 ], [ 3.36355, 6.50653 ], [ 3.36344, 6.50695 ], [ 3.3634, 6.50714 ], [ 3.36335, 6.50741 ], [ 3.36321, 6.50789 ], [ 3.36311, 6.5083 ], [ 3.363, 6.50885 ], [ 3.36299, 6.50905 ], [ 3.36297, 6.50939 ], [ 3.36298, 6.50962 ], [ 3.36303, 6.51005 ], [ 3.36304, 6.51011 ], [ 3.36312, 6.51047 ], [ 3.36343, 6.51139 ], [ 3.36353, 6.51174 ], [ 3.36338, 6.51177 ], [ 3.3633, 6.51181 ] ] } },
{ "type": "Feature", "properties": { "Hub": "Barracks", "Origin": "Barracks", "Origin_Long": 3.363699579, "Origin_Lat": 6.506009339, "Destination": "Nigerian Army Band Corp", "Destination_Long": 3.36543619, "Destination_Lat": 6.51356546, "Distance_km": 0.99, "Duration_min": 11.89, "Route": "- → Western Avenue → Ojuelegba Road" }, "geometry": { "type": "LineString", "coordinates": [ [ 3.36369, 6.50604 ], [ 3.36366, 6.50603 ], [ 3.36355, 6.50653 ], [ 3.36344, 6.50695 ], [ 3.3634, 6.50714 ], [ 3.36335, 6.50741 ], [ 3.36321, 6.50789 ], [ 3.36311, 6.5083 ], [ 3.363, 6.50885 ], [ 3.36299, 6.50905 ], [ 3.36297, 6.50939 ], [ 3.36298, 6.50962 ], [ 3.36303, 6.51005 ], [ 3.36304, 6.51011 ], [ 3.3633, 6.51007 ], [ 3.36339, 6.51043 ], [ 3.36352, 6.51083 ], [ 3.3636, 6.51105 ], [ 3.36393, 6.51205 ], [ 3.36433, 6.5133 ], [ 3.36438, 6.51346 ], [ 3.36456, 6.51344 ], [ 3.36467, 6.51345 ], [ 3.36485, 6.51341 ], [ 3.36495, 6.51362 ], [ 3.36503, 6.51356 ], [ 3.36507, 6.51348 ] ] } },
{ "type": "Feature", "properties": { "Hub": "Barracks", "Origin": "Barracks", "Origin_Long": 3.363699579, "Origin_Lat": 6.506009339, "Destination": "Teslim Balogun Stadium", "Destination_Long": 3.3608633, "Destination_Lat": 6.49996748, "Distance_km": 1.23, "Duration_min": 14.72, "Route": "- → Western Avenue" }, "geometry": { "type": "LineString", "coordinates": [ [ 3.36369, 6.50604 ], [ 3.36366, 6.50603 ], [ 3.36366, 6.50601 ], [ 3.36374, 6.50572 ], [ 3.36382, 6.50536 ], [ 3.36387, 6.50513 ], [ 3.36392, 6.50477 ], [ 3.36387, 6.50436 ], [ 3.3638, 6.50406 ], [ 3.36362, 6.50354 ], [ 3.36345, 6.50311 ], [ 3.36327, 6.50261 ], [ 3.36309, 6.50213 ], [ 3.3629, 6.50166 ], [ 3.36198, 6.49909 ], [ 3.36147, 6.49928 ], [ 3.36168, 6.49994 ], [ 3.36181, 6.5005 ], [ 3.36178, 6.50055 ], [ 3.36173, 6.50058 ], [ 3.36143, 6.50063 ], [ 3.36139, 6.50068 ], [ 3.36117, 6.50076 ], [ 3.36099, 6.50079 ], [ 3.36083, 6.50079 ], [ 3.36071, 6.50077 ], [ 3.36058, 6.50073 ], [ 3.36044, 6.50066 ], [ 3.36035, 6.5006 ], [ 3.3603, 6.50046 ], [ 3.36022, 6.50033 ] ] } },
{ "type": "Feature", "properties": { "Hub": "Barracks", "Origin": "Barracks", "Origin_Long": 3.363699579, "Origin_Lat": 6.506009339, "Destination": "St Anthony Catholic Church", "Destination_Long": 3.36020157, "Destination_Lat": 6.50377383, "Distance_km": 0.63, "Duration_min": 7.53, "Route": "- → Western Avenue → Abimbola Shadipe Street → Olorogun Street → Gbaja Street" }, "geometry": { "type": "LineString", "coordinates": [ [ 3.36369, 6.50604 ], [ 3.36366, 6.50603 ], [ 3.36366, 6.50601 ], [ 3.36308, 6.50573 ], [ 3.36241, 6.50547 ], [ 3.36243, 6.50532 ], [ 3.36157, 6.5056 ], [ 3.36147, 6.50557 ], [ 3.36144, 6.50554 ], [ 3.3613, 6.5052 ], [ 3.36115, 6.50477 ], [ 3.36106, 6.50454 ], [ 3.36091, 6.50411 ], [ 3.36072, 6.50356 ], [ 3.36061, 6.50331 ], [ 3.36034, 6.50342 ], [ 3.36023, 6.50349 ], [ 3.36012, 6.50355 ], [ 3.36005, 6.50362 ] ] } },
{ "type": "Feature", "properties": { "Hub": "Barracks", "Origin": "Barracks", "Origin_Long": 3.363699579, "Origin_Lat": 6.506009339, "Destination": "National Stadium Surulere Lagos", "Destination_Long": 3.36484827, "Destination_Lat": 6.49742375, "Distance_km": 1.3, "Duration_min": 15.59, "Route": "- → Western Avenue" }, "geometry": { "type": "LineString", "coordinates": [ [ 3.36369, 6.50604 ], [ 3.36366, 6.50603 ], [ 3.36366, 6.50601 ], [ 3.36374, 6.50572 ], [ 3.36382, 6.50536 ], [ 3.36387, 6.50513 ], [ 3.36392, 6.50477 ], [ 3.36387, 6.50436 ], [ 3.3638, 6.50406 ], [ 3.36362, 6.50354 ], [ 3.36345, 6.50311 ], [ 3.36327, 6.50261 ], [ 3.36309, 6.50213 ], [ 3.3629, 6.50166 ], [ 3.36198, 6.49909 ], [ 3.36196, 6.49903 ], [ 3.36172, 6.4984 ], [ 3.36171, 6.49832 ], [ 3.36216, 6.49823 ], [ 3.36241, 6.49818 ], [ 3.36268, 6.4981 ], [ 3.3633, 6.49797 ], [ 3.36386, 6.49783 ], [ 3.36396, 6.49818 ], [ 3.36407, 6.49819 ], [ 3.36417, 6.49823 ], [ 3.36422, 6.49829 ], [ 3.3643, 6.49846 ], [ 3.36461, 6.49807 ] ] } },
{ "type": "Feature", "properties": { "Hub": "Barracks", "Origin": "Barracks", "Origin_Long": 3.363699579, "Origin_Lat": 6.506009339, "Destination": "Tejuosho Market Yaba Lagos", "Destination_Long": 3.36919365, "Destination_Lat": 6.50823321, "Distance_km": 0.97, "Duration_min": 11.69, "Route": "- → Western Avenue → Tejuoso Street → Matthew Street → Lisabi Street → Ojuelegba Road" }, "geometry": { "type": "LineString", "coordinates": [ [ 3.36369, 6.50604 ], [ 3.36366, 6.50603 ], [ 3.36366, 6.50601 ], [ 3.36374, 6.50572 ], [ 3.3637, 6.50564 ], [ 3.36369, 6.50552 ], [ 3.36422, 6.50565 ], [ 3.3642, 6.50575 ], [ 3.36406, 6.50585 ], [ 3.36414, 6.50534 ], [ 3.3643, 6.50525 ], [ 3.36441, 6.50528 ], [ 3.36457, 6.50533 ], [ 3.36489, 6.50544 ], [ 3.36504, 6.50549 ], [ 3.36515, 6.50563 ], [ 3.36533, 6.50592 ], [ 3.36569, 6.50644 ], [ 3.3658, 6.50658 ], [ 3.36601, 6.50677 ], [ 3.36616, 6.50694 ], [ 3.36628, 6.50706 ], [ 3.36649, 6.50737 ], [ 3.36656, 6.50751 ], [ 3.36666, 6.5078 ], [ 3.36667, 6.50788 ], [ 3.36666, 6.50808 ], [ 3.36664, 6.50825 ], [ 3.36687, 6.50826 ], [ 3.36695, 6.50828 ], [ 3.36728, 6.50847 ], [ 3.36753, 6.50867 ], [ 3.36762, 6.50861 ], [ 3.36773, 6.50857 ], [ 3.36791, 6.50854 ], [ 3.36812, 6.50855 ], [ 3.36838, 6.50861 ], [ 3.36875, 6.5087 ], [ 3.36889, 6.50868 ], [ 3.36908, 6.50872 ] ] } }
]
}
