{
"type": "FeatureCollection",
"name": "Berger_routes",
"crs": { "type": "name", "properties": { "name": "urn:ogc:def:crs:OGC:1.3:CRS84" } },
"features": [
{ "type": "Feature", "properties": { "Hub": "Berger", "Origin": "Berger", "Origin_Long": 3.371020106, "Origin_Lat": 6.639445783, "Destination": "Ojodu Junior Grammar School", "Destination_Long": 3.35974187, "Destination_Lat": 6.64121197, "Distance_km": 1.85, "Duration_min": 22.14, "Route": "- → Isheri Road → Aina Street" }, "geometry": { "type": "LineString", "coordinates": [ [ 3.37101, 6.63946 ], [ 3.37098, 6.63945 ], [ 3.37079, 6.63922 ], [ 3.37065, 6.63907 ], [ 3.37037, 6.63939 ], [ 3.37053, 6.63953 ], [ 3.37052, 6.63954 ], [ 3.37051, 6.63955 ], [ 3.37021, 6.63993 ], [ 3.37006, 6.63996 ], [ 3.37005, 6.63987 ], [ 3.36994, 6.63987 ], [ 3.36948, 6.63987 ], [ 3.36926, 6.63987 ], [ 3.36918, 6.63987 ], [ 3.36868, 6.63986 ], [ 3.36843, 6.63988 ], [ 3.36815, 6.63991 ], [ 3.36803, 6.63993 ], [ 3.36788, 6.63996 ], [ 3.36732, 6.64007 ], [ 3.36717, 6.6401 ], [ 3.36676, 6.64018 ], [ 3.36661, 6.64019 ], [ 3.3664, 6.64017 ], [ 3.36621, 6.64014 ], [ 3.36568, 6.64001 ], [ 3.36527, 6.63991 ], [ 3.36499, 6.63984 ], [ 3.36493, 6.63982 ], [ 3.36416, 6.63961 ], [ 3.36351, 6.63944 ], [ 3.36313, 6.63935 ], [ 3.36293, 6.63929 ], [ 3.36279, 6.63926 ], [ 3.36246, 6.63917 ], [ 3.36206, 6.63911 ], [ 3.36184, 6.6391 ], [ 3.36175, 6.6391 ], [ 3.36099, 6.63906 ], [ 3.3602, 6.63904 ], [ 3.35988, 6.63909 ], [ 3.35956, 6.6392 ], [ 3.35906, 6.63943 ], [ 3.35847, 6.63971 ], [ 3.35821, 6.63979 ], [ 3.35792, 6.63984 ], [ 3.35794, 6.63998 ], [ 3.35796, 6.64007 ], [ 3.35802, 6.64024 ], [ 3.3581, 6.64035 ], [ 3.35926, 6.64147 ], [ 3.35937, 6.64158 ] ] } },
{ "type": "Feature", "properties": { "Hub": "Berger", "Origin": "Berger", "Origin_Long": 3.371020106, "Origin_Lat": 6.639445783, "Destination": "River Valley Estate, Ojodu", "Destination_Long": 3.37348178, "Destination_Lat": 6.64265575, "Distance_km": 0.55, "Duration_min": 6.62, "Route": "- → Isheri Road" }, "geometry": { "type": "LineString", "coordinates": [ [ 3.37101, 6.63946 ], [ 3.37116, 6.63952 ], [ 3.37187, 6.64009 ], [ 3.37196, 6.64013 ], [ 3.37226, 6.64031 ], [ 3.37245, 6.64038 ], [ 3.37239, 6.64044 ], [ 3.37209, 6.6409 ], [ 3.37205, 6.6411 ], [ 3.37205, 6.64112 ], [ 3.37204, 6.64118 ], [ 3.37201, 6.64124 ], [ 3.37196, 6.64128 ], [ 3.37211, 6.64131 ], [ 3.3728, 6.64171 ], [ 3.37312, 6.64186 ], [ 3.37316, 6.64193 ], [ 3.37323, 6.64202 ], [ 3.37335, 6.64222 ], [ 3.37352, 6.64257 ], [ 3.37346, 6.64262 ] ] } },
{ "type": "Feature", "properties": { "Hub": "Berger", "Origin": "Berger", "Origin_Long": 3.371020106, "Origin_Lat": 6.639445783, "Destination": "Rainoil Filling station", "Destination_Long": 3.37022541, "Destination_Lat": 6.63974901, "Distance_km": 0.52, "Duration_min": 6.28, "Route": "- → Isheri Road" }, "geometry": { "type": "LineString", "coordinates": [ [ 3.37101, 6.63946 ], [ 3.37116, 6.63952 ], [ 3.37187, 6.64009 ], [ 3.37196, 6.64013 ], [ 3.37226, 6.64031 ], [ 3.37245, 6.64038 ], [ 3.37239, 6.64044 ], [ 3.37209, 6.6409 ], [ 3.3719, 6.64097 ], [ 3.37184, 6.64097 ], [ 3.37178, 6.641 ], [ 3.37164, 6.64099 ], [ 3.37151, 6.64095 ], [ 3.37141, 6.64086 ], [ 3.37107, 6.64042 ], [ 3.37058, 6.63996 ], [ 3.37046, 6.63987 ], [ 3.37038, 6.63983 ], [ 3.37022, 6.6398 ] ] } },
{ "type": "Feature", "properties": { "Hub": "Berger", "Origin": "Berger", "Origin_Long": 3.371020106, "Origin_Lat": 6.639445783, "Destination": "FRSC office", "Destination_Long": 3.36299265, "Destination_Lat": 6.63970545, "Distance_km": 1.03, "Duration_min": 12.4, "Route": "- → Isheri Road" }, "geometry": { "type": "LineString", "coordinates": [ [ 3.37101, 6.63946 ], [ 3.37098, 6.63945 ], [ 3.37079, 6.63922 ], [ 3.37065, 6.63907 ], [ 3.37037, 6.63939 ], [ 3.37053, 6.63953 ], [ 3.37052, 6.63954 ], [ 3.37051, 6.63955 ], [ 3.37021, 6.63993 ], [ 3.37006, 6.63996 ], [ 3.37005, 6.63987 ], [ 3.36994, 6.63987 ], [ 3.36948, 6.63987 ], [ 3.36926, 6.63987 ], [ 3.36918, 6.63987 ], [ 3.36868, 6.63986 ], [ 3.36843, 6.63988 ], [ 3.36815, 6.63991 ], [ 3.36803, 6.63993 ], [ 3.36788, 6.63996 ], [ 3.36732, 6.64007 ], [ 3.36717, 6.6401 ], [ 3.36676, 6.64018 ], [ 3.36661, 6.64019 ], [ 3.3664, 6.64017 ], [ 3.36621, 6.64014 ], [ 3.36568, 6.64001 ], [ 3.36527, 6.63991 ], [ 3.36499, 6.63984 ], [ 3.36493, 6.63982 ], [ 3.36416, 6.63961 ], [ 3.36351, 6.63944 ], [ 3.36313, 6.63935 ], [ 3.36307, 6.63965 ], [ 3.36306, 6.63971 ] ] } },
{ "type": "Feature", "properties": { "Hub": "Berger", "Origin": "Berger", "Origin_Long": 3.371020106, "Origin_Lat": 6.639445783, "Destination": "FATGBEMS Filling Station", "Destination_Long": 3.36656177, "Destination_Lat": 6.63530442, "Distance_km": 1.64, "Duration_min": 19.7, "Route": "- → Isheri Road" }, "geometry": { "type": "LineString", "coordinates": [ [ 3.37101, 6.63946 ], [ 3.37116, 6.63952 ], [ 3.37187, 6.64009 ], [ 3.37196, 6.64013 ], [ 3.37226, 6.64031 ], [ 3.37245, 6.64038 ], [ 3.37239, 6.64044 ], [ 3.37209, 6.6409 ], [ 3.3719, 6.64097 ], [ 3.37184, 6.64097 ], [ 3.37178, 6.641 ], [ 3.37164, 6.64099 ], [ 3.37151, 6.64095 ], [ 3.37141, 6.64086 ], [ 3.37107, 6.64042 ], [ 3.37058, 6.63996 ], [ 3.37046, 6.63987 ], [ 3.37038, 6.63983 ], [ 3.37013, 6.63978 ], [ 3.36988, 6.6398 ], [ 3.36844, 6.6398 ], [ 3.36768, 6.63992 ], [ 3.36675, 6.6401 ], [ 3.36649, 6.64011 ], [ 3.36634, 6.64008 ], [ 3.36594, 6.64 ], [ 3.36546, 6.63987 ], [ 3.36553, 6.63905 ], [ 3.36553, 6.63876 ], [ 3.36553, 6.6382 ], [ 3.3655, 6.63781 ], [ 3.36542, 6.63716 ], [ 3.36538, 6.63691 ], [ 3.36526, 6.63611 ], [ 3.3654, 6.63607 ], [ 3.36594, 6.63594 ], [ 3.36609, 6.63589 ], [ 3.36618, 6.63525 ] ] } },
{ "type": "Feature", "properties": { "Hub": "Berger", "Origin": "Berger", "Origin_Long": 3.371020106, "Origin_Lat": 6.639445783, "Destination": "KFC Oando", "Destination_Long": 3.36981749, "Destination_Lat": 6.63780809, "Distance_km": 1.35, "Duration_min": 16.15, "Route": "- → Isheri Road → Somide Odujinrin Avenue → Durosimi Abokunwa Road → Admiral Oduwaiye Street" }, "geometry": { "type": "LineString", "coordinates": [ [ 3.37101, 6.63946 ], [ 3.37116, 6.63952 ], [ 3.37187, 6.64009 ], [ 3.37196, 6.64013 ], [ 3.37226, 6.64031 ], [ 3.37245, 6.64038 ], [ 3.37251, 6.64033 ], [ 3.37263, 6.64027 ], [ 3.37279, 6.64025 ], [ 3.3729, 6.64024 ], [ 3.37301, 6.64026 ], [ 3.37323, 6.64024 ], [ 3.37376, 6.64036 ], [ 3.3739, 6.64038 ], [ 3.37408, 6.64039 ], [ 3.37477, 6.64033 ], [ 3.37497, 6.64031 ], [ 3.37505, 6.6403 ], [ 3.37491, 6.63992 ], [ 3.37471, 6.63929 ], [ 3.37452, 6.63863 ], [ 3.37432, 6.63783 ], [ 3.37426, 6.63759 ], [ 3.37343, 6.6379 ], [ 3.37203, 6.63838 ], [ 3.37146, 6.63858 ], [ 3.37125, 6.63865 ], [ 3.37106, 6.63867 ], [ 3.37097, 6.63865 ], [ 3.37091, 6.63862 ], [ 3.36998, 6.63767 ], [ 3.3699, 6.63763 ] ] } },
{ "type": "Feature", "properties": { "Hub": "Berger", "Origin": "Berger", "Origin_Long": 3.371020106, "Origin_Lat": 6.639445783, "Destination": "Sherryville Arcade", "Destination_Long": 3.36694413, "Destination_Lat": 6.63927173, "Distance_km": 0.85, "Duration_min": 10.18, "Route": "- → Isheri Road" }, "geometry": { "type": "LineString", "coordinates": [ [ 3.37101, 6.63946 ], [ 3.37116, 6.63952 ], [ 3.37187, 6.64009 ], [ 3.37196, 6.64013 ], [ 3.37226, 6.64031 ], [ 3.37245, 6.64038 ], [ 3.37239, 6.64044 ], [ 3.37209, 6.6409 ], [ 3.3719, 6.64097 ], [ 3.37184, 6.64097 ], [ 3.37178, 6.641 ], [ 3.37164, 6.64099 ], [ 3.37151, 6.64095 ], [ 3.37141, 6.64086 ], [ 3.37107, 6.64042 ], [ 3.37058, 6.63996 ], [ 3.37046, 6.63987 ], [ 3.37038, 6.63983 ], [ 3.37013, 6.63978 ], [ 3.36988, 6.6398 ], [ 3.36844, 6.6398 ], [ 3.36768, 6.63992 ], [ 3.36763, 6.63953 ] ] } },
{ "type": "Feature", "properties": { "Hub": "Berger", "Origin": "Berger", "Origin_Long": 3.371020106, "Origin_Lat": 6.639445783, "Destination": "First Bank", "Destination_Long": 3.36786396, "Destination_Lat": 6.64026785, "Distance_km": 0.49, "Duration_min": 5.84, "Route": "- → Isheri Road → Alhaji Bakare Street" }, "geometry": { "type": "LineString", "coordinates": [ [ 3.37101, 6.63946 ], [ 3.37098, 6.63945 ], [ 3.37079, 6.63922 ], [ 3.37065, 6.63907 ], [ 3.37037, 6.63939 ], [ 3.37053, 6.63953 ], [ 3.37052, 6.63954 ], [ 3.37051, 6.63955 ], [ 3.37021, 6.63993 ], [ 3.37006, 6.63996 ], [ 3.37005, 6.63987 ], [ 3.36994, 6.63987 ], [ 3.36948, 6.63987 ], [ 3.36926, 6.63987 ], [ 3.36918, 6.63987 ], [ 3.36868, 6.63986 ], [ 3.36843, 6.63988 ], [ 3.36815, 6.63991 ], [ 3.36803, 6.63993 ], [ 3.36788, 6.63996 ], [ 3.36794, 6.64026 ] ] } },
{ "type": "Feature", "properties": { "Hub": "Berger", "Origin": "Berger", "Origin_Long": 3.371020106, "Origin_Lat": 6.639445783, "Destination": "Lagos State Public Works Corporation", "Destination_Long": 3.36875886, "Destination_Lat": 6.63932158, "Distance_km": 0.74, "Duration_min": 8.83, "Route": "- → Isheri Road" }, "geometry": { "type": "LineString", "coordinates": [ [ 3.37101, 6.63946 ], [ 3.37116, 6.63952 ], [ 3.37187, 6.64009 ], [ 3.37196, 6.64013 ], [ 3.37226, 6.64031 ], [ 3.37245, 6.64038 ], [ 3.37239, 6.64044 ], [ 3.37209, 6.6409 ], [ 3.3719, 6.64097 ], [ 3.37184, 6.64097 ], [ 3.37178, 6.641 ], [ 3.37164, 6.64099 ], [ 3.37151, 6.64095 ], [ 3.37141, 6.64086 ], [ 3.37107, 6.64042 ], [ 3.37058, 6.63996 ], [ 3.37046, 6.63987 ], [ 3.37038, 6.63983 ], [ 3.37013, 6.63978 ], [ 3.36988, 6.6398 ], [ 3.36844, 6.6398 ], [ 3.36843, 6.63966 ] ] } },
{ "type": "Feature", "properties": { "Hub": "Berger", "Origin": "Berger", "Origin_Long": 3.371020106, "Origin_Lat": 6.639445783, "Destination": "Ecobank", "Destination_Long": 3.3678944, "Destination_Lat": 6.63955999, "Distance_km": 0.84, "Duration_min": 10.1, "Route": "- → Isheri Road" }, "geometry": { "type": "LineString", "coordinates": [ [ 3.37101, 6.63946 ], [ 3.37116, 6.63952 ], [ 3.37187, 6.64009 ], [ 3.37196, 6.64013 ], [ 3.37226, 6.64031 ], [ 3.37245, 6.64038 ], [ 3.37239, 6.64044 ], [ 3.37209, 6.6409 ], [ 3.3719, 6.64097 ], [ 3.37184, 6.64097 ], [ 3.37178, 6.641 ], [ 3.37164, 6.64099 ], [ 3.37151, 6.64095 ], [ 3.37141, 6.64086 ], [ 3.37107, 6.64042 ], [ 3.37058, 6.63996 ], [ 3.37046, 6.63987 ], [ 3.37038, 6.63983 ], [ 3.37013, 6.63978 ], [ 3.36988, 6.6398 ], [ 3.36844, 6.6398 ], [ 3.36768, 6.63992 ], [ 3.36764, 6.63959 ] ] } },
{ "type": "Feature", "properties": { "Hub": "Berger", "Origin": "Berger", "Origin_Long": 3.371020106, "Origin_Lat": 6.639445783, "Destination": "MTN Service Centre", "Destination_Long": 3.36569985, "Destination_Lat": 6.64029823, "Distance_km": 0.73, "Duration_min": 8.79, "Route": "- → Isheri Road → Bashiru Street" }, "geometry": { "type": "LineString", "coordinates": [ [ 3.37101, 6.63946 ], [ 3.37098, 6.63945 ], [ 3.37079, 6.63922 ], [ 3.37065, 6.63907 ], [ 3.37037, 6.63939 ], [ 3.37053, 6.63953 ], [ 3.37052, 6.63954 ], [ 3.37051, 6.63955 ], [ 3.37021, 6.63993 ], [ 3.37006, 6.63996 ], [ 3.37005, 6.63987 ], [ 3.36994, 6.63987 ], [ 3.36948, 6.63987 ], [ 3.36926, 6.63987 ], [ 3.36918, 6.63987 ], [ 3.36868, 6.63986 ], [ 3.36843, 6.63988 ], [ 3.36815, 6.63991 ], [ 3.36803, 6.63993 ], [ 3.36788, 6.63996 ], [ 3.36732, 6.64007 ], [ 3.36717, 6.6401 ], [ 3.36676, 6.64018 ], [ 3.36661, 6.64019 ], [ 3.3664, 6.64017 ], [ 3.36621, 6.64014 ], [ 3.36568, 6.64001 ], [ 3.36563, 6.64029 ] ] } },
{ "type": "Feature", "properties": { "Hub": "Berger", "Origin": "Berger", "Origin_Long": 3.371020106, "Origin_Lat": 6.639445783, "Destination": "Wellspring College", "Destination_Long": 3.37176069, "Destination_Lat": 6.63231341, "Distance_km": 1.49, "Duration_min": 17.92, "Route": "- → Isheri Road → Somide Odujinrin Avenue" }, "geometry": { "type": "LineString", "coordinates": [ [ 3.37101, 6.63946 ], [ 3.37116, 6.63952 ], [ 3.37187, 6.64009 ], [ 3.37196, 6.64013 ], [ 3.37226, 6.64031 ], [ 3.37245, 6.64038 ], [ 3.37251, 6.64033 ], [ 3.37263, 6.64027 ], [ 3.37279, 6.64025 ], [ 3.3729, 6.64024 ], [ 3.37301, 6.64026 ], [ 3.37323, 6.64024 ], [ 3.37376, 6.64036 ], [ 3.3739, 6.64038 ], [ 3.37408, 6.64039 ], [ 3.37477, 6.64033 ], [ 3.37497, 6.64031 ], [ 3.37505, 6.6403 ], [ 3.37491, 6.63992 ], [ 3.37471, 6.63929 ], [ 3.37452, 6.63863 ], [ 3.37432, 6.63783 ], [ 3.37426, 6.63759 ], [ 3.37404, 6.637 ], [ 3.37399, 6.63686 ], [ 3.37378, 6.63629 ], [ 3.37317, 6.63463 ], [ 3.37288, 6.63386 ], [ 3.37251, 6.63283 ], [ 3.37229, 6.63221 ], [ 3.37179, 6.63239 ] ] } },
{ "type": "Feature", "properties": { "Hub": "Berger", "Origin": "Berger", "Origin_Long": 3.371020106, "Origin_Lat": 6.639445783, "Destination": "Kudoro Estate", "Destination_Long": 3.38056036, "Destination_Lat": 6.64155993, "Distance_km": 1.31, "Duration_min": 15.66, "Route": "- → Isheri Road" }, "geometry": { "type": "LineString", "coordinates": [ [ 3.37101, 6.63946 ], [ 3.37116, 6.63952 ], [ 3.37187, 6.64009 ], [ 3.37196, 6.64013 ], [ 3.37226, 6.64031 ], [ 3.37245, 6.64038 ], [ 3.37251, 6.64033 ], [ 3.37263, 6.64027 ], [ 3.37279, 6.64025 ], [ 3.3729, 6.64024 ], [ 3.37301, 6.64026 ], [ 3.37323, 6.64024 ], [ 3.37376, 6.64036 ], [ 3.3739, 6.64038 ], [ 3.37408, 6.64039 ], [ 3.37477, 6.64033 ], [ 3.37497, 6.64031 ], [ 3.37505, 6.6403 ], [ 3.37511, 6.64029 ], [ 3.37516, 6.64028 ], [ 3.37527, 6.64027 ], [ 3.37549, 6.64023 ], [ 3.37647, 6.63995 ], [ 3.37706, 6.63978 ], [ 3.37736, 6.63969 ], [ 3.3779, 6.63953 ], [ 3.37836, 6.63942 ], [ 3.37868, 6.63944 ], [ 3.37879, 6.63954 ], [ 3.3789, 6.63961 ], [ 3.37943, 6.63986 ], [ 3.37996, 6.64019 ], [ 3.38034, 6.64042 ], [ 3.38063, 6.64056 ], [ 3.38082, 6.64063 ], [ 3.38087, 6.64065 ], [ 3.381, 6.6407 ], [ 3.38064, 6.64156 ], [ 3.38057, 6.64154 ] ] } },
{ "type": "Feature", "properties": { "Hub": "Berger", "Origin": "Berger", "Origin_Long": 3.371020106, "Origin_Lat": 6.639445783, "Destination": "Justrite Superstore", "Destination_Long": 3.36889587, "Destination_Lat": 6.64403837, "Distance_km": 0.77, "Duration_min": 9.19, "Route": "- → Isheri Road → Kosoko Street" }, "geometry": { "type": "LineString", "coordinates": [ [ 3.37101, 6.63946 ], [ 3.37098, 6.63945 ], [ 3.37079, 6.63922 ], [ 3.37065, 6.63907 ], [ 3.37037, 6.63939 ], [ 3.37053, 6.63953 ], [ 3.37052, 6.63954 ], [ 3.37051, 6.63955 ], [ 3.37021, 6.63993 ], [ 3.37006, 6.63996 ], [ 3.37005, 6.63987 ], [ 3.36994, 6.63987 ], [ 3.36948, 6.63987 ], [ 3.36926, 6.63987 ], [ 3.36924, 6.64016 ], [ 3.3692, 6.6408 ], [ 3.3691, 6.64287 ], [ 3.36903, 6.64303 ], [ 3.36905, 6.64337 ], [ 3.36905, 6.64355 ], [ 3.36907, 6.64403 ] ] } },
{ "type": "Feature", "properties": { "Hub": "Berger", "Origin": "Berger", "Origin_Long": 3.371020106, "Origin_Lat": 6.639445783, "Destination": "Otedola Bridge", "Destination_Long": 3.36512284, "Destination_Lat": 6.63109222, "Distance_km": 2.32, "Duration_min": 27.84, "Route": "- → Isheri Road → Somide Odujinrin Avenue → Durosimi Abokunwa Road → Admiral Oduwaiye Street → Aina Akingbala Street" }, "geometry": { "type": "LineString", "coordinates": [ [ 3.37101, 6.63946 ], [ 3.37116, 6.63952 ], [ 3.37187, 6.64009 ], [ 3.37196, 6.64013 ], [ 3.37226, 6.64031 ], [ 3.37245, 6.64038 ], [ 3.37251, 6.64033 ], [ 3.37263, 6.64027 ], [ 3.37279, 6.64025 ], [ 3.3729, 6.64024 ], [ 3.37301, 6.64026 ], [ 3.37323, 6.64024 ], [ 3.37376, 6.64036 ], [ 3.3739, 6.64038 ], [ 3.37408, 6.64039 ], [ 3.37477, 6.64033 ], [ 3.37497, 6.64031 ], [ 3.37505, 6.6403 ], [ 3.37491, 6.63992 ], [ 3.37471, 6.63929 ], [ 3.37452, 6.63863 ], [ 3.37432, 6.63783 ], [ 3.37426, 6.63759 ], [ 3.37343, 6.6379 ], [ 3.37203, 6.63838 ], [ 3.37146, 6.63858 ], [ 3.37125, 6.63865 ], [ 3.37106, 6.63867 ], [ 3.37097, 6.63865 ], [ 3.37091, 6.63862 ], [ 3.36998, 6.63767 ], [ 3.36984, 6.6376 ], [ 3.36932, 6.63701 ], [ 3.36883, 6.63636 ], [ 3.36759, 6.63454 ], [ 3.36747, 6.63435 ], [ 3.36676, 6.63307 ], [ 3.36613, 6.63169 ], [ 3.36599, 6.63167 ], [ 3.36591, 6.63167 ], [ 3.36583, 6.63164 ], [ 3.36547, 6.6306 ], [ 3.36537, 6.63064 ], [ 3.36528, 6.63069 ], [ 3.3652, 6.63068 ] ] } },
{ "type": "Feature", "properties": { "Hub": "Berger", "Origin": "Berger", "Origin_Long": 3.371020106, "Origin_Lat": 6.639445783, "Destination": "LACVIS HQ", "Destination_Long": 3.36366163, "Destination_Lat": 6.63438766, "Distance_km": 2.17, "Duration_min": 26.0, "Route": "- → Isheri Road → Rasheed Baruwa Crescent → Muyibat Oyefusi Crescent" }, "geometry": { "type": "LineString", "coordinates": [ [ 3.37101, 6.63946 ], [ 3.37116, 6.63952 ], [ 3.37187, 6.64009 ], [ 3.37196, 6.64013 ], [ 3.37226, 6.64031 ], [ 3.37245, 6.64038 ], [ 3.37239, 6.64044 ], [ 3.37209, 6.6409 ], [ 3.3719, 6.64097 ], [ 3.37184, 6.64097 ], [ 3.37178, 6.641 ], [ 3.37164, 6.64099 ], [ 3.37151, 6.64095 ], [ 3.37141, 6.64086 ], [ 3.37107, 6.64042 ], [ 3.37058, 6.63996 ], [ 3.37046, 6.63987 ], [ 3.37038, 6.63983 ], [ 3.37013, 6.63978 ], [ 3.36988, 6.6398 ], [ 3.36844, 6.6398 ], [ 3.36768, 6.63992 ], [ 3.36675, 6.6401 ], [ 3.36649, 6.64011 ], [ 3.36634, 6.64008 ], [ 3.36594, 6.64 ], [ 3.36546, 6.63987 ], [ 3.36553, 6.63905 ], [ 3.36553, 6.63876 ], [ 3.36511, 6.63879 ], [ 3.36467, 6.63878 ], [ 3.36439, 6.63874 ], [ 3.3635, 6.63857 ], [ 3.36356, 6.63792 ], [ 3.36351, 6.63719 ], [ 3.36339, 6.63632 ], [ 3.3623, 6.63641 ], [ 3.36218, 6.63568 ], [ 3.36307, 6.63557 ], [ 3.36379, 6.63547 ], [ 3.36384, 6.63544 ], [ 3.36388, 6.63539 ], [ 3.3639, 6.63525 ], [ 3.3638, 6.63456 ], [ 3.36376, 6.63437 ] ] } },
{ "type": "Feature", "properties": { "Hub": "Berger", "Origin": "Berger", "Origin_Long": 3.371020106, "Origin_Lat": 6.639445783, "Destination": "Hillsprings International Schools", "Destination_Long": 3.36927104, "Destination_Lat": 6.64276932, "Distance_km": 0.62, "Duration_min": 7.47, "Route": "- → Isheri Road → Kosoko Street" }, "geometry": { "type": "LineString", "coordinates": [ [ 3.37101, 6.63946 ], [ 3.37098, 6.63945 ], [ 3.37079, 6.63922 ], [ 3.37065, 6.63907 ], [ 3.37037, 6.63939 ], [ 3.37053, 6.63953 ], [ 3.37052, 6.63954 ], [ 3.37051, 6.63955 ], [ 3.37021, 6.63993 ], [ 3.37006, 6.63996 ], [ 3.37005, 6.63987 ], [ 3.36994, 6.63987 ], [ 3.36948, 6.63987 ], [ 3.36926, 6.63987 ], [ 3.36924, 6.64016 ], [ 3.3692, 6.6408 ], [ 3.36911, 6.64276 ] ] } },
{ "type": "Feature", "properties": { "Hub": "Berger", "Origin": "Berger", "Origin_Long": 3.371020106, "Origin_Lat": 6.639445783, "Destination": "Chicken Republic", "Destination_Long": 3.37452364, "Destination_Lat": 6.63767115, "Distance_km": 0.79, "Duration_min": 9.53, "Route": "- → Isheri Road → Somide Odujinrin Avenue" }, "geometry": { "type": "LineString", "coordinates": [ [ 3.37101, 6.63946 ], [ 3.37116, 6.63952 ], [ 3.37187, 6.64009 ], [ 3.37196, 6.64013 ], [ 3.37226, 6.64031 ], [ 3.37245, 6.64038 ], [ 3.37251, 6.64033 ], [ 3.37263, 6.64027 ], [ 3.37279, 6.64025 ], [ 3.3729, 6.64024 ], [ 3.37301, 6.64026 ], [ 3.37323, 6.64024 ], [ 3.37376, 6.64036 ], [ 3.3739, 6.64038 ], [ 3.37408, 6.64039 ], [ 3.37477, 6.64033 ], [ 3.37497, 6.64031 ], [ 3.37505, 6.6403 ], [ 3.37491, 6.63992 ], [ 3.37502, 6.63988 ], [ 3.37474, 6.63901 ], [ 3.37461, 6.63852 ], [ 3.37451, 6.63803 ], [ 3.37444, 6.6378 ], [ 3.37442, 6.6377 ] ] } },
{ "type": "Feature", "properties": { "Hub": "Berger", "Origin": "Berger", "Origin_Long": 3.371020106, "Origin_Lat": 6.639445783, "Destination": "Park", "Destination_Long": 3.37331666, "Destination_Lat": 6.63882966, "Distance_km": 0.79, "Duration_min": 9.5, "Route": "- → Isheri Road → Somide Odujinrin Avenue" }, "geometry": { "type": "LineString", "coordinates": [ [ 3.37101, 6.63946 ], [ 3.37116, 6.63952 ], [ 3.37187, 6.64009 ], [ 3.37196, 6.64013 ], [ 3.37226, 6.64031 ], [ 3.37245, 6.64038 ], [ 3.37251, 6.64033 ], [ 3.37263, 6.64027 ], [ 3.37279, 6.64025 ], [ 3.3729, 6.64024 ], [ 3.37301, 6.64026 ], [ 3.37323, 6.64024 ], [ 3.37376, 6.64036 ], [ 3.3739, 6.64038 ], [ 3.37408, 6.64039 ], [ 3.37477, 6.64033 ], [ 3.37497, 6.64031 ], [ 3.37505, 6.6403 ], [ 3.37491, 6.63992 ], [ 3.37471, 6.63929 ], [ 3.37415, 6.63928 ], [ 3.3735, 6.6393 ], [ 3.37337, 6.63882 ] ] } }
]
}
