{
"type": "FeatureCollection",
"name": "Doyin_routes",
"crs": { "type": "name", "properties": { "name": "urn:ogc:def:crs:OGC:1.3:CRS84" } },
"features": [
{ "type": "Feature", "properties": { "Hub": "Doyin", "Origin": "Doyin", "Origin_Long": 3.349316161, "Origin_Lat": 6.479197389, "Destination": "Factory", "Destination_Long": 3.35633525, "Destination_Lat": 6.48220347, "Distance_km": 2.59, "Duration_min": 31.07, "Route": "Lagos-Badagry Expressway, F100 → - → Lagos-Badagry Expressway → Jimoh Odutola Street" }, "geometry": { "type": "LineString", "coordinates": [ [ 3.34932, 6.47911 ], [ 3.34916, 6.47909 ], [ 3.34793, 6.47891 ], [ 3.34731, 6.47881 ], [ 3.3472, 6.47875 ], [ 3.34684, 6.47862 ], [ 3.34621, 6.47849 ], [ 3.34543, 6.47824 ], [ 3.34528, 6.47819 ], [ 3.34445, 6.47789 ], [ 3.34376, 6.47756 ], [ 3.34359, 6.4774 ], [ 3.34342, 6.47727 ], [ 3.3433, 6.4772 ], [ 3.34318, 6.47716 ], [ 3.34318, 6.4771 ], [ 3.34294, 6.47698 ], [ 3.34276, 6.47732 ], [ 3.34273, 6.47738 ], [ 3.34257, 6.47767 ], [ 3.34275, 6.47776 ], [ 3.34291, 6.4777 ], [ 3.34301, 6.47776 ], [ 3.34336, 6.47797 ], [ 3.34427, 6.47836 ], [ 3.34449, 6.47846 ], [ 3.34479, 6.47858 ], [ 3.34659, 6.47907 ], [ 3.3467, 6.47911 ], [ 3.34732, 6.4792 ], [ 3.34761, 6.47919 ], [ 3.34797, 6.47924 ], [ 3.34812, 6.47925 ], [ 3.34902, 6.4793 ], [ 3.34918, 6.47931 ], [ 3.34969, 6.47932 ], [ 3.35, 6.47931 ], [ 3.35021, 6.4793 ], [ 3.35029, 6.4797 ], [ 3.3503, 6.48017 ], [ 3.35059, 6.48015 ], [ 3.35208, 6.48013 ], [ 3.35455, 6.48014 ], [ 3.35484, 6.48022 ], [ 3.3551, 6.48036 ], [ 3.35538, 6.48057 ], [ 3.35545, 6.48062 ], [ 3.35615, 6.48116 ], [ 3.35671, 6.48161 ], [ 3.35676, 6.48164 ] ] } },
{ "type": "Feature", "properties": { "Hub": "Doyin", "Origin": "Doyin", "Origin_Long": 3.349316161, "Origin_Lat": 6.479197389, "Destination": "Factory", "Destination_Long": 3.35452125, "Destination_Lat": 6.4825543, "Distance_km": 2.73, "Duration_min": 32.79, "Route": "Lagos-Badagry Expressway, F100 → - → Lagos-Badagry Expressway → Jimoh Odutola Street" }, "geometry": { "type": "LineString", "coordinates": [ [ 3.34932, 6.47911 ], [ 3.34916, 6.47909 ], [ 3.34793, 6.47891 ], [ 3.34731, 6.47881 ], [ 3.3472, 6.47875 ], [ 3.34684, 6.47862 ], [ 3.34621, 6.47849 ], [ 3.34543, 6.47824 ], [ 3.34528, 6.47819 ], [ 3.34445, 6.47789 ], [ 3.34376, 6.47756 ], [ 3.34359, 6.4774 ], [ 3.34342, 6.47727 ], [ 3.3433, 6.4772 ], [ 3.34318, 6.47716 ], [ 3.34318, 6.4771 ], [ 3.34294, 6.47698 ], [ 3.34276, 6.47732 ], [ 3.34273, 6.47738 ], [ 3.34257, 6.47767 ], [ 3.34275, 6.47776 ], [ 3.34291, 6.4777 ], [ 3.34301, 6.47776 ], [ 3.34336, 6.47797 ], [ 3.34427, 6.47836 ], [ 3.34449, 6.47846 ], [ 3.34479, 6.47858 ], [ 3.34659, 6.47907 ], [ 3.3467, 6.47911 ], [ 3.34732, 6.4792 ], [ 3.34761, 6.47919 ], [ 3.34797, 6.47924 ], [ 3.34812, 6.47925 ], [ 3.34902, 6.4793 ], [ 3.34918, 6.47931 ], [ 3.34969, 6.47932 ], [ 3.35, 6.47931 ], [ 3.35021, 6.4793 ], [ 3.35029, 6.4797 ], [ 3.3503, 6.48017 ], [ 3.35059, 6.48015 ], [ 3.35208, 6.48013 ], [ 3.35455, 6.48014 ], [ 3.35484, 6.48022 ], [ 3.3551, 6.48036 ], [ 3.35538, 6.48057 ], [ 3.35545, 6.48062 ], [ 3.35615, 6.48116 ], [ 3.35608, 6.48127 ], [ 3.35537, 6.48218 ], [ 3.35515, 6.48251 ], [ 3.35501, 6.4827 ], [ 3.35492, 6.48283 ] ] } },
{ "type": "Feature", "properties": { "Hub": "Doyin", "Origin": "Doyin", "Origin_Long": 3.349316161, "Origin_Lat": 6.479197389, "Destination": "Factory", "Destination_Long": 3.35525873, "Destination_Lat": 6.48379538, "Distance_km": 2.94, "Duration_min": 35.29, "Route": "Lagos-Badagry Expressway, F100 → - → Lagos-Badagry Expressway → Jimoh Odutola Street" }, "geometry": { "type": "LineString", "coordinates": [ [ 3.34932, 6.47911 ], [ 3.34916, 6.47909 ], [ 3.34793, 6.47891 ], [ 3.34731, 6.47881 ], [ 3.3472, 6.47875 ], [ 3.34684, 6.47862 ], [ 3.34621, 6.47849 ], [ 3.34543, 6.47824 ], [ 3.34528, 6.47819 ], [ 3.34445, 6.47789 ], [ 3.34376, 6.47756 ], [ 3.34359, 6.4774 ], [ 3.34342, 6.47727 ], [ 3.3433, 6.4772 ], [ 3.34318, 6.47716 ], [ 3.34318, 6.4771 ], [ 3.34294, 6.47698 ], [ 3.34276, 6.47732 ], [ 3.34273, 6.47738 ], [ 3.34257, 6.47767 ], [ 3.34275, 6.47776 ], [ 3.34291, 6.4777 ], [ 3.34301, 6.47776 ], [ 3.34336, 6.47797 ], [ 3.34427, 6.47836 ], [ 3.34449, 6.47846 ], [ 3.34479, 6.47858 ], [ 3.34659, 6.47907 ], [ 3.3467, 6.47911 ], [ 3.34732, 6.4792 ], [ 3.34761, 6.47919 ], [ 3.34797, 6.47924 ], [ 3.34812, 6.47925 ], [ 3.34902, 6.4793 ], [ 3.34918, 6.47931 ], [ 3.34969, 6.47932 ], [ 3.35, 6.47931 ], [ 3.35021, 6.4793 ], [ 3.35029, 6.4797 ], [ 3.3503, 6.48017 ], [ 3.35059, 6.48015 ], [ 3.35208, 6.48013 ], [ 3.35455, 6.48014 ], [ 3.35484, 6.48022 ], [ 3.3551, 6.48036 ], [ 3.35538, 6.48057 ], [ 3.35545, 6.48062 ], [ 3.35615, 6.48116 ], [ 3.35608, 6.48127 ], [ 3.35537, 6.48218 ], [ 3.35515, 6.48251 ], [ 3.35501, 6.4827 ], [ 3.35439, 6.48358 ], [ 3.35431, 6.48371 ], [ 3.35431, 6.48375 ], [ 3.35449, 6.48389 ], [ 3.35492, 6.48423 ] ] } },
{ "type": "Feature", "properties": { "Hub": "Doyin", "Origin": "Doyin", "Origin_Long": 3.349316161, "Origin_Lat": 6.479197389, "Destination": "Factory", "Destination_Long": 3.35399289, "Destination_Lat": 6.48095725, "Distance_km": 2.23, "Duration_min": 26.75, "Route": "Lagos-Badagry Expressway, F100 → - → Lagos-Badagry Expressway → Jimoh Odutola Street" }, "geometry": { "type": "LineString", "coordinates": [ [ 3.34932, 6.47911 ], [ 3.34916, 6.47909 ], [ 3.34793, 6.47891 ], [ 3.34731, 6.47881 ], [ 3.3472, 6.47875 ], [ 3.34684, 6.47862 ], [ 3.34621, 6.47849 ], [ 3.34543, 6.47824 ], [ 3.34528, 6.47819 ], [ 3.34445, 6.47789 ], [ 3.34376, 6.47756 ], [ 3.34359, 6.4774 ], [ 3.34342, 6.47727 ], [ 3.3433, 6.4772 ], [ 3.34318, 6.47716 ], [ 3.34318, 6.4771 ], [ 3.34294, 6.47698 ], [ 3.34276, 6.47732 ], [ 3.34273, 6.47738 ], [ 3.34257, 6.47767 ], [ 3.34275, 6.47776 ], [ 3.34291, 6.4777 ], [ 3.34301, 6.47776 ], [ 3.34336, 6.47797 ], [ 3.34427, 6.47836 ], [ 3.34449, 6.47846 ], [ 3.34479, 6.47858 ], [ 3.34659, 6.47907 ], [ 3.3467, 6.47911 ], [ 3.34732, 6.4792 ], [ 3.34761, 6.47919 ], [ 3.34797, 6.47924 ], [ 3.34812, 6.47925 ], [ 3.34902, 6.4793 ], [ 3.34918, 6.47931 ], [ 3.34969, 6.47932 ], [ 3.35, 6.47931 ], [ 3.35021, 6.4793 ], [ 3.35029, 6.4797 ], [ 3.3503, 6.48017 ], [ 3.35059, 6.48015 ], [ 3.35208, 6.48013 ], [ 3.35399, 6.48014 ] ] } },
{ "type": "Feature", "properties": { "Hub": "Doyin", "Origin": "Doyin", "Origin_Long": 3.349316161, "Origin_Lat": 6.479197389, "Destination": "Factory", "Destination_Long": 3.35526369, "Destination_Lat": 6.47981148, "Distance_km": 2.34, "Duration_min": 28.11, "Route": "Lagos-Badagry Expressway, F100 → - → Lagos-Badagry Expressway → Jimoh Odutola Street" }, "geometry": { "type": "LineString", "coordinates": [ [ 3.34932, 6.47911 ], [ 3.34916, 6.47909 ], [ 3.34793, 6.47891 ], [ 3.34731, 6.47881 ], [ 3.3472, 6.47875 ], [ 3.34684, 6.47862 ], [ 3.34621, 6.47849 ], [ 3.34543, 6.47824 ], [ 3.34528, 6.47819 ], [ 3.34445, 6.47789 ], [ 3.34376, 6.47756 ], [ 3.34359, 6.4774 ], [ 3.34342, 6.47727 ], [ 3.3433, 6.4772 ], [ 3.34318, 6.47716 ], [ 3.34318, 6.4771 ], [ 3.34294, 6.47698 ], [ 3.34276, 6.47732 ], [ 3.34273, 6.47738 ], [ 3.34257, 6.47767 ], [ 3.34275, 6.47776 ], [ 3.34291, 6.4777 ], [ 3.34301, 6.47776 ], [ 3.34336, 6.47797 ], [ 3.34427, 6.47836 ], [ 3.34449, 6.47846 ], [ 3.34479, 6.47858 ], [ 3.34659, 6.47907 ], [ 3.3467, 6.47911 ], [ 3.34732, 6.4792 ], [ 3.34761, 6.47919 ], [ 3.34797, 6.47924 ], [ 3.34812, 6.47925 ], [ 3.34902, 6.4793 ], [ 3.34918, 6.47931 ], [ 3.34969, 6.47932 ], [ 3.35, 6.47931 ], [ 3.35021, 6.4793 ], [ 3.35029, 6.4797 ], [ 3.3503, 6.48017 ], [ 3.35059, 6.48015 ], [ 3.35208, 6.48013 ], [ 3.35455, 6.48014 ], [ 3.35484, 6.48022 ], [ 3.35499, 6.4803 ] ] } },
{ "type": "Feature", "properties": { "Hub": "Doyin", "Origin": "Doyin", "Origin_Long": 3.349316161, "Origin_Lat": 6.479197389, "Destination": "CCC, Asiko Oluwa Parish", "Destination_Long": 3.348444, "Destination_Lat": 6.48376808, "Distance_km": 1.95, "Duration_min": 23.36, "Route": "Lagos-Badagry Expressway, F100 → - → Lagos-Badagry Expressway → Bale Street → Babs Animashaun Street" }, "geometry": { "type": "LineString", "coordinates": [ [ 3.34932, 6.47911 ], [ 3.34916, 6.47909 ], [ 3.34793, 6.47891 ], [ 3.34731, 6.47881 ], [ 3.3472, 6.47875 ], [ 3.34684, 6.47862 ], [ 3.34621, 6.47849 ], [ 3.34543, 6.47824 ], [ 3.34528, 6.47819 ], [ 3.34445, 6.47789 ], [ 3.34376, 6.47756 ], [ 3.34359, 6.4774 ], [ 3.34342, 6.47727 ], [ 3.3433, 6.4772 ], [ 3.34318, 6.47716 ], [ 3.34318, 6.4771 ], [ 3.34294, 6.47698 ], [ 3.34276, 6.47732 ], [ 3.34273, 6.47738 ], [ 3.34257, 6.47767 ], [ 3.34275, 6.47776 ], [ 3.34291, 6.4777 ], [ 3.34301, 6.47776 ], [ 3.34336, 6.47797 ], [ 3.34427, 6.47836 ], [ 3.34449, 6.47846 ], [ 3.34456, 6.47868 ], [ 3.34433, 6.47882 ], [ 3.34442, 6.47893 ], [ 3.34451, 6.47911 ], [ 3.34457, 6.47931 ], [ 3.34457, 6.47935 ], [ 3.34453, 6.47941 ], [ 3.34438, 6.47955 ], [ 3.34451, 6.47974 ], [ 3.34456, 6.47989 ], [ 3.3446, 6.48015 ], [ 3.34463, 6.48029 ], [ 3.34472, 6.48055 ], [ 3.34479, 6.48092 ], [ 3.34489, 6.48103 ], [ 3.34499, 6.48112 ], [ 3.34555, 6.48148 ], [ 3.34608, 6.48192 ], [ 3.3468, 6.48246 ], [ 3.34753, 6.48296 ], [ 3.3478, 6.4831 ], [ 3.34796, 6.48315 ], [ 3.34844, 6.48319 ], [ 3.34853, 6.48323 ], [ 3.34857, 6.48329 ], [ 3.34858, 6.48377 ] ] } },
{ "type": "Feature", "properties": { "Hub": "Doyin", "Origin": "Doyin", "Origin_Long": 3.349316161, "Origin_Lat": 6.479197389, "Destination": "Bokku! Mart", "Destination_Long": 3.34641053, "Destination_Lat": 6.47738149, "Distance_km": 0.43, "Duration_min": 5.12, "Route": "Lagos-Badagry Expressway, F100 → - → Cnd Road" }, "geometry": { "type": "LineString", "coordinates": [ [ 3.34932, 6.47911 ], [ 3.34916, 6.47909 ], [ 3.34793, 6.47891 ], [ 3.34798, 6.47874 ], [ 3.34755, 6.47867 ], [ 3.34729, 6.47858 ], [ 3.34717, 6.47825 ], [ 3.34709, 6.47815 ], [ 3.34706, 6.47806 ], [ 3.34703, 6.47794 ], [ 3.34697, 6.4778 ], [ 3.34686, 6.47767 ], [ 3.34663, 6.47744 ], [ 3.34645, 6.47732 ] ] } },
{ "type": "Feature", "properties": { "Hub": "Doyin", "Origin": "Doyin", "Origin_Long": 3.349316161, "Origin_Lat": 6.479197389, "Destination": "Bokku! Mart", "Destination_Long": 3.34378252, "Destination_Lat": 6.48179098, "Distance_km": 1.55, "Duration_min": 18.57, "Route": "Lagos-Badagry Expressway, F100 → - → Lagos-Badagry Expressway → Bale Street" }, "geometry": { "type": "LineString", "coordinates": [ [ 3.34932, 6.47911 ], [ 3.34916, 6.47909 ], [ 3.34793, 6.47891 ], [ 3.34731, 6.47881 ], [ 3.3472, 6.47875 ], [ 3.34684, 6.47862 ], [ 3.34621, 6.47849 ], [ 3.34543, 6.47824 ], [ 3.34528, 6.47819 ], [ 3.34445, 6.47789 ], [ 3.34376, 6.47756 ], [ 3.34359, 6.4774 ], [ 3.34342, 6.47727 ], [ 3.3433, 6.4772 ], [ 3.34318, 6.47716 ], [ 3.34318, 6.4771 ], [ 3.34294, 6.47698 ], [ 3.34276, 6.47732 ], [ 3.34273, 6.47738 ], [ 3.34257, 6.47767 ], [ 3.34275, 6.47776 ], [ 3.34291, 6.4777 ], [ 3.34301, 6.47776 ], [ 3.34336, 6.47797 ], [ 3.34427, 6.47836 ], [ 3.34449, 6.47846 ], [ 3.34456, 6.47868 ], [ 3.34433, 6.47882 ], [ 3.34442, 6.47893 ], [ 3.34451, 6.47911 ], [ 3.34457, 6.47931 ], [ 3.34457, 6.47935 ], [ 3.34453, 6.47941 ], [ 3.34438, 6.47955 ], [ 3.34451, 6.47974 ], [ 3.34456, 6.47989 ], [ 3.3446, 6.48015 ], [ 3.34463, 6.48029 ], [ 3.34472, 6.48055 ], [ 3.34479, 6.48092 ], [ 3.34424, 6.48112 ], [ 3.34411, 6.48119 ], [ 3.34402, 6.48128 ], [ 3.34368, 6.48171 ] ] } },
{ "type": "Feature", "properties": { "Hub": "Doyin", "Origin": "Doyin", "Origin_Long": 3.349316161, "Origin_Lat": 6.479197389, "Destination": "St Michael's Anglican Church, Coker Lagos", "Destination_Long": 3.3377209, "Destination_Lat": 6.47472365, "Distance_km": 1.5, "Duration_min": 17.95, "Route": "Lagos-Badagry Expressway, F100 → - → Lagos-Badagry Expressway" }, "geometry": { "type": "LineString", "coordinates": [ [ 3.34932, 6.47911 ], [ 3.34916, 6.47909 ], [ 3.34793, 6.47891 ], [ 3.34731, 6.47881 ], [ 3.3472, 6.47875 ], [ 3.34684, 6.47862 ], [ 3.34621, 6.47849 ], [ 3.34543, 6.47824 ], [ 3.34528, 6.47819 ], [ 3.34445, 6.47789 ], [ 3.34376, 6.47756 ], [ 3.34359, 6.4774 ], [ 3.34342, 6.47727 ], [ 3.3433, 6.4772 ], [ 3.34318, 6.47716 ], [ 3.34318, 6.4771 ], [ 3.34294, 6.47698 ], [ 3.34276, 6.47732 ], [ 3.34273, 6.47738 ], [ 3.34257, 6.47767 ], [ 3.34244, 6.47759 ], [ 3.34237, 6.47739 ], [ 3.34182, 6.47707 ], [ 3.34146, 6.47683 ], [ 3.34066, 6.47628 ], [ 3.33899, 6.47514 ], [ 3.33879, 6.47499 ], [ 3.33848, 6.47478 ], [ 3.33824, 6.47462 ], [ 3.33812, 6.47475 ], [ 3.33801, 6.47483 ], [ 3.33779, 6.47491 ] ] } },
{ "type": "Feature", "properties": { "Hub": "Doyin", "Origin": "Doyin", "Origin_Long": 3.349316161, "Origin_Lat": 6.479197389, "Destination": "Araromi Senior Secondary School Sari", "Destination_Long": 3.34090034, "Destination_Lat": 6.4749779, "Distance_km": 1.14, "Duration_min": 13.69, "Route": "Lagos-Badagry Expressway, F100 → -" }, "geometry": { "type": "LineString", "coordinates": [ [ 3.34932, 6.47911 ], [ 3.34916, 6.47909 ], [ 3.34793, 6.47891 ], [ 3.34731, 6.47881 ], [ 3.3472, 6.47875 ], [ 3.34684, 6.47862 ], [ 3.34621, 6.47849 ], [ 3.34543, 6.47824 ], [ 3.34528, 6.47819 ], [ 3.34445, 6.47789 ], [ 3.34376, 6.47756 ], [ 3.34319, 6.47727 ], [ 3.34293, 6.47712 ], [ 3.34267, 6.47696 ], [ 3.34254, 6.47688 ], [ 3.34228, 6.47673 ], [ 3.34135, 6.47608 ], [ 3.34025, 6.47522 ], [ 3.34044, 6.47502 ] ] } },
{ "type": "Feature", "properties": { "Hub": "Doyin", "Origin": "Doyin", "Origin_Long": 3.349316161, "Origin_Lat": 6.479197389, "Destination": "Orile Bus Station", "Destination_Long": 3.34293696, "Destination_Lat": 6.4775133, "Distance_km": 0.83, "Duration_min": 10.01, "Route": "Lagos-Badagry Expressway, F100 → -" }, "geometry": { "type": "LineString", "coordinates": [ [ 3.34932, 6.47911 ], [ 3.34916, 6.47909 ], [ 3.34793, 6.47891 ], [ 3.34731, 6.47881 ], [ 3.3472, 6.47875 ], [ 3.34684, 6.47862 ], [ 3.34621, 6.47849 ], [ 3.34543, 6.47824 ], [ 3.34528, 6.47819 ], [ 3.34445, 6.47789 ], [ 3.34376, 6.47756 ], [ 3.34359, 6.4774 ], [ 3.34342, 6.47727 ], [ 3.3433, 6.4772 ], [ 3.34318, 6.47716 ], [ 3.34318, 6.4771 ], [ 3.34294, 6.47698 ], [ 3.34276, 6.47732 ], [ 3.34273, 6.47738 ], [ 3.34295, 6.47749 ] ] } },
{ "type": "Feature", "properties": { "Hub": "Doyin", "Origin": "Doyin", "Origin_Long": 3.349316161, "Origin_Lat": 6.479197389, "Destination": "Oraukwu Community Hall", "Destination_Long": 3.34905476, "Destination_Lat": 6.4809789, "Distance_km": 1.81, "Duration_min": 21.73, "Route": "Lagos-Badagry Expressway, F100 → - → Lagos-Badagry Expressway → Babs Animashaun Street → Jimoh Odutola Street" }, "geometry": { "type": "LineString", "coordinates": [ [ 3.34932, 6.47911 ], [ 3.34916, 6.47909 ], [ 3.34793, 6.47891 ], [ 3.34731, 6.47881 ], [ 3.3472, 6.47875 ], [ 3.34684, 6.47862 ], [ 3.34621, 6.47849 ], [ 3.34543, 6.47824 ], [ 3.34528, 6.47819 ], [ 3.34445, 6.47789 ], [ 3.34376, 6.47756 ], [ 3.34359, 6.4774 ], [ 3.34342, 6.47727 ], [ 3.3433, 6.4772 ], [ 3.34318, 6.47716 ], [ 3.34318, 6.4771 ], [ 3.34294, 6.47698 ], [ 3.34276, 6.47732 ], [ 3.34273, 6.47738 ], [ 3.34257, 6.47767 ], [ 3.34275, 6.47776 ], [ 3.34291, 6.4777 ], [ 3.34301, 6.47776 ], [ 3.34336, 6.47797 ], [ 3.34427, 6.47836 ], [ 3.34449, 6.47846 ], [ 3.34479, 6.47858 ], [ 3.34659, 6.47907 ], [ 3.3467, 6.47911 ], [ 3.34732, 6.4792 ], [ 3.34761, 6.47919 ], [ 3.34797, 6.47924 ], [ 3.34812, 6.47925 ], [ 3.34902, 6.4793 ], [ 3.34918, 6.47931 ], [ 3.34926, 6.47938 ], [ 3.34933, 6.47947 ], [ 3.34936, 6.47954 ], [ 3.34937, 6.47962 ], [ 3.34935, 6.47978 ], [ 3.34921, 6.48028 ], [ 3.34927, 6.4803 ], [ 3.34892, 6.4809 ] ] } },
{ "type": "Feature", "properties": { "Hub": "Doyin", "Origin": "Doyin", "Origin_Long": 3.349316161, "Origin_Lat": 6.479197389, "Destination": "Dominion City, Surulere", "Destination_Long": 3.34774244, "Destination_Lat": 6.48623316, "Distance_km": 2.36, "Duration_min": 28.37, "Route": "Lagos-Badagry Expressway, F100 → - → Lagos-Badagry Expressway → Bale Street → Babs Animashaun Street" }, "geometry": { "type": "LineString", "coordinates": [ [ 3.34932, 6.47911 ], [ 3.34916, 6.47909 ], [ 3.34793, 6.47891 ], [ 3.34731, 6.47881 ], [ 3.3472, 6.47875 ], [ 3.34684, 6.47862 ], [ 3.34621, 6.47849 ], [ 3.34543, 6.47824 ], [ 3.34528, 6.47819 ], [ 3.34445, 6.47789 ], [ 3.34376, 6.47756 ], [ 3.34359, 6.4774 ], [ 3.34342, 6.47727 ], [ 3.3433, 6.4772 ], [ 3.34318, 6.47716 ], [ 3.34318, 6.4771 ], [ 3.34294, 6.47698 ], [ 3.34276, 6.47732 ], [ 3.34273, 6.47738 ], [ 3.34257, 6.47767 ], [ 3.34275, 6.47776 ], [ 3.34291, 6.4777 ], [ 3.34301, 6.47776 ], [ 3.34336, 6.47797 ], [ 3.34427, 6.47836 ], [ 3.34449, 6.47846 ], [ 3.34456, 6.47868 ], [ 3.34433, 6.47882 ], [ 3.34442, 6.47893 ], [ 3.34451, 6.47911 ], [ 3.34457, 6.47931 ], [ 3.34457, 6.47935 ], [ 3.34453, 6.47941 ], [ 3.34438, 6.47955 ], [ 3.34451, 6.47974 ], [ 3.34456, 6.47989 ], [ 3.3446, 6.48015 ], [ 3.34463, 6.48029 ], [ 3.34472, 6.48055 ], [ 3.34479, 6.48092 ], [ 3.34489, 6.48103 ], [ 3.34499, 6.48112 ], [ 3.34555, 6.48148 ], [ 3.34608, 6.48192 ], [ 3.3468, 6.48246 ], [ 3.34753, 6.48296 ], [ 3.3478, 6.4831 ], [ 3.34796, 6.48315 ], [ 3.34844, 6.48319 ], [ 3.34853, 6.48323 ], [ 3.34857, 6.48329 ], [ 3.34858, 6.48424 ], [ 3.34858, 6.48522 ], [ 3.34857, 6.48544 ], [ 3.34856, 6.48655 ], [ 3.34781, 6.48646 ], [ 3.34781, 6.48623 ] ] } },
{ "type": "Feature", "properties": { "Hub": "Doyin", "Origin": "Doyin", "Origin_Long": 3.349316161, "Origin_Lat": 6.479197389, "Destination": "Grammer School", "Destination_Long": 3.35166051, "Destination_Lat": 6.48600599, "Distance_km": 2.97, "Duration_min": 35.65, "Route": "Lagos-Badagry Expressway, F100 → - → Lagos-Badagry Expressway → Jimoh Odutola Street → Imam Dauda Street → Johnson Street → Itolo Street" }, "geometry": { "type": "LineString", "coordinates": [ [ 3.34932, 6.47911 ], [ 3.34916, 6.47909 ], [ 3.34793, 6.47891 ], [ 3.34731, 6.47881 ], [ 3.3472, 6.47875 ], [ 3.34684, 6.47862 ], [ 3.34621, 6.47849 ], [ 3.34543, 6.47824 ], [ 3.34528, 6.47819 ], [ 3.34445, 6.47789 ], [ 3.34376, 6.47756 ], [ 3.34359, 6.4774 ], [ 3.34342, 6.47727 ], [ 3.3433, 6.4772 ], [ 3.34318, 6.47716 ], [ 3.34318, 6.4771 ], [ 3.34294, 6.47698 ], [ 3.34276, 6.47732 ], [ 3.34273, 6.47738 ], [ 3.34257, 6.47767 ], [ 3.34275, 6.47776 ], [ 3.34291, 6.4777 ], [ 3.34301, 6.47776 ], [ 3.34336, 6.47797 ], [ 3.34427, 6.47836 ], [ 3.34449, 6.47846 ], [ 3.34479, 6.47858 ], [ 3.34659, 6.47907 ], [ 3.3467, 6.47911 ], [ 3.34732, 6.4792 ], [ 3.34761, 6.47919 ], [ 3.34797, 6.47924 ], [ 3.34812, 6.47925 ], [ 3.34902, 6.4793 ], [ 3.34918, 6.47931 ], [ 3.34969, 6.47932 ], [ 3.35, 6.47931 ], [ 3.35021, 6.4793 ], [ 3.35029, 6.4797 ], [ 3.3503, 6.48017 ], [ 3.35059, 6.48015 ], [ 3.35208, 6.48013 ], [ 3.35181, 6.48052 ], [ 3.35162, 6.48076 ], [ 3.3514, 6.48117 ], [ 3.35115, 6.48172 ], [ 3.35094, 6.48209 ], [ 3.35073, 6.48239 ], [ 3.35063, 6.48252 ], [ 3.35024, 6.483 ], [ 3.35042, 6.48312 ], [ 3.3509, 6.48345 ], [ 3.35132, 6.48376 ], [ 3.35043, 6.48437 ], [ 3.35017, 6.48456 ], [ 3.34993, 6.4849 ], [ 3.35061, 6.48544 ], [ 3.35155, 6.48615 ] ] } },
{ "type": "Feature", "properties": { "Hub": "Doyin", "Origin": "Doyin", "Origin_Long": 3.349316161, "Origin_Lat": 6.479197389, "Destination": "St. Pio Catholic Church", "Destination_Long": 3.35021744, "Destination_Lat": 6.48029917, "Distance_km": 1.81, "Duration_min": 21.75, "Route": "Lagos-Badagry Expressway, F100 → - → Lagos-Badagry Expressway → Jimoh Odutola Street" }, "geometry": { "type": "LineString", "coordinates": [ [ 3.34932, 6.47911 ], [ 3.34916, 6.47909 ], [ 3.34793, 6.47891 ], [ 3.34731, 6.47881 ], [ 3.3472, 6.47875 ], [ 3.34684, 6.47862 ], [ 3.34621, 6.47849 ], [ 3.34543, 6.47824 ], [ 3.34528, 6.47819 ], [ 3.34445, 6.47789 ], [ 3.34376, 6.47756 ], [ 3.34359, 6.4774 ], [ 3.34342, 6.47727 ], [ 3.3433, 6.4772 ], [ 3.34318, 6.47716 ], [ 3.34318, 6.4771 ], [ 3.34294, 6.47698 ], [ 3.34276, 6.47732 ], [ 3.34273, 6.47738 ], [ 3.34257, 6.47767 ], [ 3.34275, 6.47776 ], [ 3.34291, 6.4777 ], [ 3.34301, 6.47776 ], [ 3.34336, 6.47797 ], [ 3.34427, 6.47836 ], [ 3.34449, 6.47846 ], [ 3.34479, 6.47858 ], [ 3.34659, 6.47907 ], [ 3.3467, 6.47911 ], [ 3.34732, 6.4792 ], [ 3.34761, 6.47919 ], [ 3.34797, 6.47924 ], [ 3.34812, 6.47925 ], [ 3.34902, 6.4793 ], [ 3.34918, 6.47931 ], [ 3.34969, 6.47932 ], [ 3.35, 6.47931 ], [ 3.35009, 6.4797 ], [ 3.35009, 6.48021 ], [ 3.35019, 6.48019 ] ] } },
{ "type": "Feature", "properties": { "Hub": "Doyin", "Origin": "Doyin", "Origin_Long": 3.349316161, "Origin_Lat": 6.479197389, "Destination": "Sari Primary Health Centre", "Destination_Long": 3.35103372, "Destination_Lat": 6.47540516, "Distance_km": 0.76, "Duration_min": 9.15, "Route": "Lagos-Badagry Expressway, F100 → -" }, "geometry": { "type": "LineString", "coordinates": [ [ 3.34932, 6.47911 ], [ 3.34916, 6.47909 ], [ 3.34793, 6.47891 ], [ 3.34798, 6.47874 ], [ 3.34806, 6.47842 ], [ 3.34839, 6.47778 ], [ 3.3485, 6.47751 ], [ 3.34855, 6.47734 ], [ 3.34862, 6.47725 ], [ 3.34865, 6.47717 ], [ 3.34879, 6.47651 ], [ 3.34894, 6.47604 ], [ 3.34897, 6.47586 ], [ 3.34907, 6.47589 ], [ 3.34915, 6.47596 ], [ 3.34933, 6.47588 ], [ 3.34945, 6.47588 ], [ 3.34952, 6.47579 ], [ 3.34965, 6.47571 ], [ 3.35001, 6.47557 ], [ 3.35013, 6.47556 ], [ 3.35031, 6.47563 ], [ 3.35043, 6.47572 ], [ 3.35061, 6.47579 ], [ 3.35099, 6.47583 ] ] } },
{ "type": "Feature", "properties": { "Hub": "Doyin", "Origin": "Doyin", "Origin_Long": 3.349316161, "Origin_Lat": 6.479197389, "Destination": "Ladipo Primary School", "Destination_Long": 3.35000457, "Destination_Lat": 6.47173543, "Distance_km": 1.15, "Duration_min": 13.83, "Route": "Lagos-Badagry Expressway, F100 → - → Iganmu Road" }, "geometry": { "type": "LineString", "coordinates": [ [ 3.34932, 6.47911 ], [ 3.34916, 6.47909 ], [ 3.34793, 6.47891 ], [ 3.34798, 6.47874 ], [ 3.34806, 6.47842 ], [ 3.34839, 6.47778 ], [ 3.3485, 6.47751 ], [ 3.34855, 6.47734 ], [ 3.34862, 6.47725 ], [ 3.34865, 6.47717 ], [ 3.34879, 6.47651 ], [ 3.34894, 6.47604 ], [ 3.34897, 6.47586 ], [ 3.34902, 6.4757 ], [ 3.34904, 6.47554 ], [ 3.34908, 6.47534 ], [ 3.34911, 6.47529 ], [ 3.34923, 6.47516 ], [ 3.34938, 6.47509 ], [ 3.34941, 6.47504 ], [ 3.34943, 6.47495 ], [ 3.34935, 6.47486 ], [ 3.34933, 6.47476 ], [ 3.3493, 6.4747 ], [ 3.34958, 6.47455 ], [ 3.34983, 6.47438 ], [ 3.34993, 6.47429 ], [ 3.3501, 6.47409 ], [ 3.35021, 6.47394 ], [ 3.35035, 6.4736 ], [ 3.35038, 6.47344 ], [ 3.35039, 6.47324 ], [ 3.35039, 6.47314 ], [ 3.35041, 6.47265 ], [ 3.35045, 6.47223 ], [ 3.35065, 6.47146 ], [ 3.35045, 6.47138 ], [ 3.35005, 6.47133 ] ] } },
{ "type": "Feature", "properties": { "Hub": "Doyin", "Origin": "Doyin", "Origin_Long": 3.349316161, "Origin_Lat": 6.479197389, "Destination": "Government College Lagos", "Destination_Long": 3.35390089, "Destination_Lat": 6.48665874, "Distance_km": 3.22, "Duration_min": 38.69, "Route": "Lagos-Badagry Expressway, F100 → - → Lagos-Badagry Expressway → Jimoh Odutola Street → Imam Dauda Street → Eric Moore Road" }, "geometry": { "type": "LineString", "coordinates": [ [ 3.34932, 6.47911 ], [ 3.34916, 6.47909 ], [ 3.34793, 6.47891 ], [ 3.34731, 6.47881 ], [ 3.3472, 6.47875 ], [ 3.34684, 6.47862 ], [ 3.34621, 6.47849 ], [ 3.34543, 6.47824 ], [ 3.34528, 6.47819 ], [ 3.34445, 6.47789 ], [ 3.34376, 6.47756 ], [ 3.34359, 6.4774 ], [ 3.34342, 6.47727 ], [ 3.3433, 6.4772 ], [ 3.34318, 6.47716 ], [ 3.34318, 6.4771 ], [ 3.34294, 6.47698 ], [ 3.34276, 6.47732 ], [ 3.34273, 6.47738 ], [ 3.34257, 6.47767 ], [ 3.34275, 6.47776 ], [ 3.34291, 6.4777 ], [ 3.34301, 6.47776 ], [ 3.34336, 6.47797 ], [ 3.34427, 6.47836 ], [ 3.34449, 6.47846 ], [ 3.34479, 6.47858 ], [ 3.34659, 6.47907 ], [ 3.3467, 6.47911 ], [ 3.34732, 6.4792 ], [ 3.34761, 6.47919 ], [ 3.34797, 6.47924 ], [ 3.34812, 6.47925 ], [ 3.34902, 6.4793 ], [ 3.34918, 6.47931 ], [ 3.34969, 6.47932 ], [ 3.35, 6.47931 ], [ 3.35021, 6.4793 ], [ 3.35029, 6.4797 ], [ 3.3503, 6.48017 ], [ 3.35059, 6.48015 ], [ 3.35208, 6.48013 ], [ 3.35181, 6.48052 ], [ 3.35162, 6.48076 ], [ 3.3514, 6.48117 ], [ 3.35115, 6.48172 ], [ 3.35094, 6.48209 ], [ 3.35073, 6.48239 ], [ 3.35063, 6.48252 ], [ 3.35024, 6.483 ], [ 3.35042, 6.48312 ], [ 3.3509, 6.48345 ], [ 3.35132, 6.48376 ], [ 3.35249, 6.48462 ], [ 3.35289, 6.48492 ], [ 3.35514, 6.48662 ], [ 3.35483, 6.48704 ], [ 3.35463, 6.48693 ], [ 3.3545, 6.48689 ], [ 3.35425, 6.48693 ], [ 3.35421, 6.48692 ], [ 3.35403, 6.48681 ] ] } },
{ "type": "Feature", "properties": { "Hub": "Doyin", "Origin": "Doyin", "Origin_Long": 3.349316161, "Origin_Lat": 6.479197389, "Destination": "Indomie Centre", "Destination_Long": 3.35772484, "Destination_Lat": 6.48094193, "Distance_km": 2.71, "Duration_min": 32.5, "Route": "Lagos-Badagry Expressway, F100 → - → Lagos-Badagry Expressway → Jimoh Odutola Street" }, "geometry": { "type": "LineString", "coordinates": [ [ 3.34932, 6.47911 ], [ 3.34916, 6.47909 ], [ 3.34793, 6.47891 ], [ 3.34731, 6.47881 ], [ 3.3472, 6.47875 ], [ 3.34684, 6.47862 ], [ 3.34621, 6.47849 ], [ 3.34543, 6.47824 ], [ 3.34528, 6.47819 ], [ 3.34445, 6.47789 ], [ 3.34376, 6.47756 ], [ 3.34359, 6.4774 ], [ 3.34342, 6.47727 ], [ 3.3433, 6.4772 ], [ 3.34318, 6.47716 ], [ 3.34318, 6.4771 ], [ 3.34294, 6.47698 ], [ 3.34276, 6.47732 ], [ 3.34273, 6.47738 ], [ 3.34257, 6.47767 ], [ 3.34275, 6.47776 ], [ 3.34291, 6.4777 ], [ 3.34301, 6.47776 ], [ 3.34336, 6.47797 ], [ 3.34427, 6.47836 ], [ 3.34449, 6.47846 ], [ 3.34479, 6.47858 ], [ 3.34659, 6.47907 ], [ 3.3467, 6.47911 ], [ 3.34732, 6.4792 ], [ 3.34761, 6.47919 ], [ 3.34797, 6.47924 ], [ 3.34812, 6.47925 ], [ 3.34902, 6.4793 ], [ 3.34918, 6.47931 ], [ 3.34969, 6.47932 ], [ 3.35, 6.47931 ], [ 3.35021, 6.4793 ], [ 3.35029, 6.4797 ], [ 3.3503, 6.48017 ], [ 3.35059, 6.48015 ], [ 3.35208, 6.48013 ], [ 3.35455, 6.48014 ], [ 3.35484, 6.48022 ], [ 3.3551, 6.48036 ], [ 3.35538, 6.48057 ], [ 3.35545, 6.48062 ], [ 3.35615, 6.48116 ], [ 3.35671, 6.48161 ], [ 3.35689, 6.48134 ], [ 3.35738, 6.48069 ] ] } },
{ "type": "Feature", "properties": { "Hub": "Doyin", "Origin": "Doyin", "Origin_Long": 3.349316161, "Origin_Lat": 6.479197389, "Destination": "ABAT Truck Terminal", "Destination_Long": 3.35811034, "Destination_Lat": 6.47787249, "Distance_km": 0.99, "Duration_min": 11.89, "Route": "Lagos-Badagry Expressway, F100 → -" }, "geometry": { "type": "LineString", "coordinates": [ [ 3.34932, 6.47911 ], [ 3.34976, 6.47914 ], [ 3.35017, 6.47912 ], [ 3.35033, 6.47901 ], [ 3.35046, 6.47898 ], [ 3.35283, 6.47887 ], [ 3.35666, 6.47865 ], [ 3.358, 6.47846 ], [ 3.35822, 6.47842 ] ] } },
{ "type": "Feature", "properties": { "Hub": "Doyin", "Origin": "Doyin", "Origin_Long": 3.349316161, "Origin_Lat": 6.479197389, "Destination": "Lagos State Fire Service Station", "Destination_Long": 3.35955634, "Destination_Lat": 6.47748804, "Distance_km": 1.73, "Duration_min": 20.78, "Route": "Lagos-Badagry Expressway, F100 → -" }, "geometry": { "type": "LineString", "coordinates": [ [ 3.34932, 6.47911 ], [ 3.34976, 6.47914 ], [ 3.35017, 6.47912 ], [ 3.35609, 6.47886 ], [ 3.35705, 6.47879 ], [ 3.35798, 6.47867 ], [ 3.35896, 6.47847 ], [ 3.35985, 6.47824 ], [ 3.36052, 6.47801 ], [ 3.36147, 6.47766 ], [ 3.36178, 6.47743 ], [ 3.36202, 6.4772 ], [ 3.36173, 6.47698 ], [ 3.36163, 6.47696 ], [ 3.36112, 6.47696 ], [ 3.36049, 6.47693 ], [ 3.35966, 6.47698 ], [ 3.35946, 6.47701 ] ] } },
{ "type": "Feature", "properties": { "Hub": "Doyin", "Origin": "Doyin", "Origin_Long": 3.349316161, "Origin_Lat": 6.479197389, "Destination": "Viprone Integrated Limited (Warehouse)", "Destination_Long": 3.35332323, "Destination_Lat": 6.47972574, "Distance_km": 2.15, "Duration_min": 25.85, "Route": "Lagos-Badagry Expressway, F100 → - → Lagos-Badagry Expressway → Jimoh Odutola Street" }, "geometry": { "type": "LineString", "coordinates": [ [ 3.34932, 6.47911 ], [ 3.34916, 6.47909 ], [ 3.34793, 6.47891 ], [ 3.34731, 6.47881 ], [ 3.3472, 6.47875 ], [ 3.34684, 6.47862 ], [ 3.34621, 6.47849 ], [ 3.34543, 6.47824 ], [ 3.34528, 6.47819 ], [ 3.34445, 6.47789 ], [ 3.34376, 6.47756 ], [ 3.34359, 6.4774 ], [ 3.34342, 6.47727 ], [ 3.3433, 6.4772 ], [ 3.34318, 6.47716 ], [ 3.34318, 6.4771 ], [ 3.34294, 6.47698 ], [ 3.34276, 6.47732 ], [ 3.34273, 6.47738 ], [ 3.34257, 6.47767 ], [ 3.34275, 6.47776 ], [ 3.34291, 6.4777 ], [ 3.34301, 6.47776 ], [ 3.34336, 6.47797 ], [ 3.34427, 6.47836 ], [ 3.34449, 6.47846 ], [ 3.34479, 6.47858 ], [ 3.34659, 6.47907 ], [ 3.3467, 6.47911 ], [ 3.34732, 6.4792 ], [ 3.34761, 6.47919 ], [ 3.34797, 6.47924 ], [ 3.34812, 6.47925 ], [ 3.34902, 6.4793 ], [ 3.34918, 6.47931 ], [ 3.34969, 6.47932 ], [ 3.35, 6.47931 ], [ 3.35021, 6.4793 ], [ 3.35029, 6.4797 ], [ 3.3503, 6.48017 ], [ 3.35059, 6.48015 ], [ 3.35208, 6.48013 ], [ 3.35332, 6.48013 ] ] } },
{ "type": "Feature", "properties": { "Hub": "Doyin", "Origin": "Doyin", "Origin_Long": 3.349316161, "Origin_Lat": 6.479197389, "Destination": "Federal Inland Revenue (FIRS) MSTO AGUDA", "Destination_Long": 3.35072917, "Destination_Lat": 6.48261841, "Distance_km": 2.33, "Duration_min": 27.96, "Route": "Lagos-Badagry Expressway, F100 → - → Lagos-Badagry Expressway → Jimoh Odutola Street → Imam Dauda Street" }, "geometry": { "type": "LineString", "coordinates": [ [ 3.34932, 6.47911 ], [ 3.34916, 6.47909 ], [ 3.34793, 6.47891 ], [ 3.34731, 6.47881 ], [ 3.3472, 6.47875 ], [ 3.34684, 6.47862 ], [ 3.34621, 6.47849 ], [ 3.34543, 6.47824 ], [ 3.34528, 6.47819 ], [ 3.34445, 6.47789 ], [ 3.34376, 6.47756 ], [ 3.34359, 6.4774 ], [ 3.34342, 6.47727 ], [ 3.3433, 6.4772 ], [ 3.34318, 6.47716 ], [ 3.34318, 6.4771 ], [ 3.34294, 6.47698 ], [ 3.34276, 6.47732 ], [ 3.34273, 6.47738 ], [ 3.34257, 6.47767 ], [ 3.34275, 6.47776 ], [ 3.34291, 6.4777 ], [ 3.34301, 6.47776 ], [ 3.34336, 6.47797 ], [ 3.34427, 6.47836 ], [ 3.34449, 6.47846 ], [ 3.34479, 6.47858 ], [ 3.34659, 6.47907 ], [ 3.3467, 6.47911 ], [ 3.34732, 6.4792 ], [ 3.34761, 6.47919 ], [ 3.34797, 6.47924 ], [ 3.34812, 6.47925 ], [ 3.34902, 6.4793 ], [ 3.34918, 6.47931 ], [ 3.34969, 6.47932 ], [ 3.35, 6.47931 ], [ 3.35021, 6.4793 ], [ 3.35029, 6.4797 ], [ 3.3503, 6.48017 ], [ 3.35059, 6.48015 ], [ 3.35208, 6.48013 ], [ 3.35181, 6.48052 ], [ 3.35162, 6.48076 ], [ 3.3514, 6.48117 ], [ 3.35115, 6.48172 ], [ 3.35094, 6.48209 ], [ 3.35073, 6.48239 ], [ 3.35063, 6.48252 ], [ 3.35062, 6.48253 ] ] } },
{ "type": "Feature", "properties": { "Hub": "Doyin", "Origin": "Doyin", "Origin_Long": 3.349316161, "Origin_Lat": 6.479197389, "Destination": "Origin Tech Group Nigeria Limited", "Destination_Long": 3.35215512, "Destination_Lat": 6.48233995, "Distance_km": 2.3, "Duration_min": 27.63, "Route": "Lagos-Badagry Expressway, F100 → - → Lagos-Badagry Expressway → Jimoh Odutola Street → Imam Dauda Street" }, "geometry": { "type": "LineString", "coordinates": [ [ 3.34932, 6.47911 ], [ 3.34916, 6.47909 ], [ 3.34793, 6.47891 ], [ 3.34731, 6.47881 ], [ 3.3472, 6.47875 ], [ 3.34684, 6.47862 ], [ 3.34621, 6.47849 ], [ 3.34543, 6.47824 ], [ 3.34528, 6.47819 ], [ 3.34445, 6.47789 ], [ 3.34376, 6.47756 ], [ 3.34359, 6.4774 ], [ 3.34342, 6.47727 ], [ 3.3433, 6.4772 ], [ 3.34318, 6.47716 ], [ 3.34318, 6.4771 ], [ 3.34294, 6.47698 ], [ 3.34276, 6.47732 ], [ 3.34273, 6.47738 ], [ 3.34257, 6.47767 ], [ 3.34275, 6.47776 ], [ 3.34291, 6.4777 ], [ 3.34301, 6.47776 ], [ 3.34336, 6.47797 ], [ 3.34427, 6.47836 ], [ 3.34449, 6.47846 ], [ 3.34479, 6.47858 ], [ 3.34659, 6.47907 ], [ 3.3467, 6.47911 ], [ 3.34732, 6.4792 ], [ 3.34761, 6.47919 ], [ 3.34797, 6.47924 ], [ 3.34812, 6.47925 ], [ 3.34902, 6.4793 ], [ 3.34918, 6.47931 ], [ 3.34969, 6.47932 ], [ 3.35, 6.47931 ], [ 3.35021, 6.4793 ], [ 3.35029, 6.4797 ], [ 3.3503, 6.48017 ], [ 3.35059, 6.48015 ], [ 3.35208, 6.48013 ], [ 3.35181, 6.48052 ], [ 3.35162, 6.48076 ], [ 3.3514, 6.48117 ], [ 3.35115, 6.48172 ], [ 3.35173, 6.48215 ] ] } },
{ "type": "Feature", "properties": { "Hub": "Doyin", "Origin": "Doyin", "Origin_Long": 3.349316161, "Origin_Lat": 6.479197389, "Destination": "St Thomas of Villanova Catholic Church", "Destination_Long": 3.34620067, "Destination_Lat": 6.48451245, "Distance_km": 1.89, "Duration_min": 22.72, "Route": "Lagos-Badagry Expressway, F100 → - → Lagos-Badagry Expressway → Bale Street" }, "geometry": { "type": "LineString", "coordinates": [ [ 3.34932, 6.47911 ], [ 3.34916, 6.47909 ], [ 3.34793, 6.47891 ], [ 3.34731, 6.47881 ], [ 3.3472, 6.47875 ], [ 3.34684, 6.47862 ], [ 3.34621, 6.47849 ], [ 3.34543, 6.47824 ], [ 3.34528, 6.47819 ], [ 3.34445, 6.47789 ], [ 3.34376, 6.47756 ], [ 3.34359, 6.4774 ], [ 3.34342, 6.47727 ], [ 3.3433, 6.4772 ], [ 3.34318, 6.47716 ], [ 3.34318, 6.4771 ], [ 3.34294, 6.47698 ], [ 3.34276, 6.47732 ], [ 3.34273, 6.47738 ], [ 3.34257, 6.47767 ], [ 3.34275, 6.47776 ], [ 3.34291, 6.4777 ], [ 3.34301, 6.47776 ], [ 3.34336, 6.47797 ], [ 3.34427, 6.47836 ], [ 3.34449, 6.47846 ], [ 3.34456, 6.47868 ], [ 3.34433, 6.47882 ], [ 3.34442, 6.47893 ], [ 3.34451, 6.47911 ], [ 3.34457, 6.47931 ], [ 3.34457, 6.47935 ], [ 3.34453, 6.47941 ], [ 3.34438, 6.47955 ], [ 3.34451, 6.47974 ], [ 3.34456, 6.47989 ], [ 3.3446, 6.48015 ], [ 3.34463, 6.48029 ], [ 3.34472, 6.48055 ], [ 3.34479, 6.48092 ], [ 3.34489, 6.48103 ], [ 3.34499, 6.48112 ], [ 3.34555, 6.48148 ], [ 3.34529, 6.48177 ], [ 3.34507, 6.482 ], [ 3.34505, 6.48203 ], [ 3.34505, 6.48207 ], [ 3.34516, 6.4823 ], [ 3.34519, 6.48247 ], [ 3.34527, 6.48307 ], [ 3.34529, 6.48316 ], [ 3.34579, 6.48442 ], [ 3.34608, 6.48428 ] ] } }
]
}
