{
"type": "FeatureCollection",
"name": "Egbeda_routes",
"crs": { "type": "name", "properties": { "name": "urn:ogc:def:crs:OGC:1.3:CRS84" } },
"features": [
{ "type": "Feature", "properties": { "Hub": "Egbeda", "Origin": "Egbeda", "Origin_Long": 3.291428808, "Origin_Lat": 6.599221347, "Destination": "Egbeda Central Mosque", "Destination_Long": 3.29266178, "Destination_Lat": 6.59956422, "Distance_km": 0.15, "Duration_min": 1.75, "Route": "Egbeda-Idimu Road → Akowonjo Road → -" }, "geometry": { "type": "LineString", "coordinates": [ [ 3.29145, 6.59921 ], [ 3.29144, 6.59918 ], [ 3.29152, 6.59918 ], [ 3.2917, 6.59922 ], [ 3.29267, 6.59955 ] ] } },
{ "type": "Feature", "properties": { "Hub": "Egbeda", "Origin": "Egbeda", "Origin_Long": 3.291428808, "Origin_Lat": 6.599221347, "Destination": "Olugbede Model Market", "Destination_Long": 3.28906471, "Destination_Lat": 6.5955452, "Distance_km": 0.59, "Duration_min": 7.03, "Route": "Egbeda-Idimu Road → -" }, "geometry": { "type": "LineString", "coordinates": [ [ 3.29145, 6.59921 ], [ 3.29144, 6.59918 ], [ 3.29139, 6.59911 ], [ 3.29126, 6.59885 ], [ 3.29091, 6.59836 ], [ 3.2905, 6.59798 ], [ 3.29035, 6.59786 ], [ 3.29007, 6.59766 ], [ 3.28929, 6.59712 ], [ 3.28904, 6.59685 ], [ 3.28886, 6.59656 ], [ 3.2887, 6.59623 ], [ 3.28866, 6.59613 ], [ 3.28858, 6.59597 ], [ 3.28848, 6.59573 ], [ 3.28854, 6.59571 ], [ 3.289, 6.59544 ] ] } },
{ "type": "Feature", "properties": { "Hub": "Egbeda", "Origin": "Egbeda", "Origin_Long": 3.291428808, "Origin_Lat": 6.599221347, "Destination": "Custom Mosque", "Destination_Long": 3.28785829, "Destination_Lat": 6.60088953, "Distance_km": 0.64, "Duration_min": 7.67, "Route": "Egbeda-Idimu Road → Akowonjo Road → -" }, "geometry": { "type": "LineString", "coordinates": [ [ 3.29145, 6.59921 ], [ 3.29144, 6.59918 ], [ 3.29133, 6.5992 ], [ 3.29142, 6.59938 ], [ 3.29077, 6.59958 ], [ 3.29052, 6.59963 ], [ 3.28968, 6.59982 ], [ 3.28945, 6.59986 ], [ 3.28924, 6.59982 ], [ 3.28807, 6.59953 ], [ 3.28765, 6.59948 ], [ 3.28762, 6.59967 ], [ 3.28758, 6.60049 ], [ 3.28758, 6.60057 ], [ 3.28778, 6.60059 ], [ 3.28777, 6.60077 ], [ 3.28774, 6.60083 ] ] } },
{ "type": "Feature", "properties": { "Hub": "Egbeda", "Origin": "Egbeda", "Origin_Long": 3.291428808, "Origin_Lat": 6.599221347, "Destination": "Iceland Civic Centre", "Destination_Long": 3.29222066, "Destination_Lat": 6.60290692, "Distance_km": 0.59, "Duration_min": 7.11, "Route": "Egbeda-Idimu Road → Akowonjo Road → -" }, "geometry": { "type": "LineString", "coordinates": [ [ 3.29145, 6.59921 ], [ 3.29144, 6.59918 ], [ 3.29133, 6.5992 ], [ 3.29142, 6.59938 ], [ 3.29169, 6.59996 ], [ 3.29183, 6.60038 ], [ 3.29183, 6.60078 ], [ 3.29136, 6.60074 ], [ 3.29099, 6.60074 ], [ 3.29111, 6.60096 ], [ 3.29133, 6.60119 ], [ 3.29205, 6.6023 ], [ 3.29234, 6.60274 ], [ 3.29218, 6.60284 ], [ 3.29223, 6.6029 ] ] } },
{ "type": "Feature", "properties": { "Hub": "Egbeda", "Origin": "Egbeda", "Origin_Long": 3.291428808, "Origin_Lat": 6.599221347, "Destination": "Lyta Signature Hotel", "Destination_Long": 3.2866641, "Destination_Lat": 6.60512514, "Distance_km": 1.22, "Duration_min": 14.58, "Route": "Egbeda-Idimu Road → Akowonjo Road → -" }, "geometry": { "type": "LineString", "coordinates": [ [ 3.29145, 6.59921 ], [ 3.29144, 6.59918 ], [ 3.29133, 6.5992 ], [ 3.29142, 6.59938 ], [ 3.29169, 6.59996 ], [ 3.29183, 6.60038 ], [ 3.29183, 6.60078 ], [ 3.29136, 6.60074 ], [ 3.29099, 6.60074 ], [ 3.29085, 6.60078 ], [ 3.29076, 6.60079 ], [ 3.29076, 6.60092 ], [ 3.29082, 6.60116 ], [ 3.29084, 6.60129 ], [ 3.29053, 6.60146 ], [ 3.2905, 6.6015 ], [ 3.29061, 6.60177 ], [ 3.29052, 6.60186 ], [ 3.29017, 6.60203 ], [ 3.28989, 6.60216 ], [ 3.28962, 6.60228 ], [ 3.28947, 6.60243 ], [ 3.28935, 6.60248 ], [ 3.28878, 6.60274 ], [ 3.28864, 6.60279 ], [ 3.28743, 6.6033 ], [ 3.28662, 6.60368 ], [ 3.28599, 6.60394 ], [ 3.28583, 6.60403 ], [ 3.28589, 6.6041 ], [ 3.28637, 6.60519 ], [ 3.28662, 6.60504 ] ] } },
{ "type": "Feature", "properties": { "Hub": "Egbeda", "Origin": "Egbeda", "Origin_Long": 3.291428808, "Origin_Lat": 6.599221347, "Destination": "UBA", "Destination_Long": 3.29523406, "Destination_Lat": 6.59985373, "Distance_km": 0.47, "Duration_min": 5.65, "Route": "Egbeda-Idimu Road → Akowonjo Road → -" }, "geometry": { "type": "LineString", "coordinates": [ [ 3.29145, 6.59921 ], [ 3.29144, 6.59918 ], [ 3.29152, 6.59918 ], [ 3.2917, 6.59922 ], [ 3.29274, 6.59957 ], [ 3.29288, 6.59959 ], [ 3.29311, 6.59958 ], [ 3.29349, 6.59949 ], [ 3.29389, 6.59936 ], [ 3.29423, 6.59926 ], [ 3.29446, 6.59922 ], [ 3.29457, 6.59922 ], [ 3.29474, 6.59925 ], [ 3.29484, 6.59931 ], [ 3.29526, 6.59966 ], [ 3.29515, 6.59975 ] ] } },
{ "type": "Feature", "properties": { "Hub": "Egbeda", "Origin": "Egbeda", "Origin_Long": 3.291428808, "Origin_Lat": 6.599221347, "Destination": "Gowon Estate Market", "Destination_Long": 3.29141756, "Destination_Lat": 6.60090903, "Distance_km": 0.25, "Duration_min": 2.96, "Route": "Egbeda-Idimu Road → Akowonjo Road → -" }, "geometry": { "type": "LineString", "coordinates": [ [ 3.29145, 6.59921 ], [ 3.29144, 6.59918 ], [ 3.29133, 6.5992 ], [ 3.29142, 6.59938 ], [ 3.29169, 6.59996 ], [ 3.29183, 6.60038 ], [ 3.29183, 6.60078 ], [ 3.29143, 6.60074 ] ] } },
{ "type": "Feature", "properties": { "Hub": "Egbeda", "Origin": "Egbeda", "Origin_Long": 3.291428808, "Origin_Lat": 6.599221347, "Destination": "Community Area Central Mosque", "Destination_Long": 3.29029564, "Destination_Lat": 6.60578552, "Distance_km": 1.06, "Duration_min": 12.75, "Route": "Egbeda-Idimu Road → Akowonjo Road → -" }, "geometry": { "type": "LineString", "coordinates": [ [ 3.29145, 6.59921 ], [ 3.29144, 6.59918 ], [ 3.29133, 6.5992 ], [ 3.29142, 6.59938 ], [ 3.29169, 6.59996 ], [ 3.29183, 6.60038 ], [ 3.29183, 6.60078 ], [ 3.29136, 6.60074 ], [ 3.29099, 6.60074 ], [ 3.29085, 6.60078 ], [ 3.29076, 6.60079 ], [ 3.29076, 6.60092 ], [ 3.29082, 6.60116 ], [ 3.29084, 6.60129 ], [ 3.29053, 6.60146 ], [ 3.2905, 6.6015 ], [ 3.29061, 6.60177 ], [ 3.29052, 6.60186 ], [ 3.29017, 6.60203 ], [ 3.28989, 6.60216 ], [ 3.28962, 6.60228 ], [ 3.28947, 6.60243 ], [ 3.28979, 6.6031 ], [ 3.28982, 6.6032 ], [ 3.28975, 6.6033 ], [ 3.28914, 6.60355 ], [ 3.28928, 6.60386 ], [ 3.28957, 6.60449 ], [ 3.28981, 6.60504 ], [ 3.28992, 6.60531 ], [ 3.29017, 6.60584 ] ] } },
{ "type": "Feature", "properties": { "Hub": "Egbeda", "Origin": "Egbeda", "Origin_Long": 3.291428808, "Origin_Lat": 6.599221347, "Destination": "St Joseph Catholic Church", "Destination_Long": 3.29233019, "Destination_Lat": 6.60763979, "Distance_km": 1.18, "Duration_min": 14.21, "Route": "Egbeda-Idimu Road → -" }, "geometry": { "type": "LineString", "coordinates": [ [ 3.29145, 6.59921 ], [ 3.29152, 6.59941 ], [ 3.29175, 6.59989 ], [ 3.29192, 6.60039 ], [ 3.29193, 6.60059 ], [ 3.29189, 6.60091 ], [ 3.2918, 6.6009 ], [ 3.29176, 6.60107 ], [ 3.29175, 6.60126 ], [ 3.29175, 6.6014 ], [ 3.29191, 6.60184 ], [ 3.29279, 6.60319 ], [ 3.29269, 6.60326 ], [ 3.2932, 6.60404 ], [ 3.29344, 6.60444 ], [ 3.29351, 6.6046 ], [ 3.2927, 6.60498 ], [ 3.29166, 6.60545 ], [ 3.2917, 6.60553 ], [ 3.29197, 6.60611 ], [ 3.29226, 6.6067 ], [ 3.29237, 6.60693 ], [ 3.29258, 6.60743 ], [ 3.29229, 6.60753 ] ] } },
{ "type": "Feature", "properties": { "Hub": "Egbeda", "Origin": "Egbeda", "Origin_Long": 3.291428808, "Origin_Lat": 6.599221347, "Destination": "Assemblies of God Church Alimosho", "Destination_Long": 3.29678462, "Destination_Lat": 6.60400099, "Distance_km": 1.13, "Duration_min": 13.53, "Route": "Egbeda-Idimu Road → Ishola Makinde Street → Fajumobi Street → -" }, "geometry": { "type": "LineString", "coordinates": [ [ 3.29145, 6.59921 ], [ 3.29152, 6.59941 ], [ 3.29175, 6.59989 ], [ 3.29192, 6.60039 ], [ 3.29193, 6.60059 ], [ 3.29189, 6.60091 ], [ 3.29184, 6.6011 ], [ 3.29185, 6.60137 ], [ 3.29189, 6.60155 ], [ 3.29198, 6.6018 ], [ 3.29218, 6.60211 ], [ 3.2926, 6.60271 ], [ 3.29288, 6.60315 ], [ 3.29309, 6.60346 ], [ 3.29332, 6.60381 ], [ 3.29343, 6.60397 ], [ 3.29358, 6.60419 ], [ 3.29373, 6.60444 ], [ 3.29379, 6.60462 ], [ 3.29396, 6.60506 ], [ 3.29404, 6.60535 ], [ 3.29458, 6.60507 ], [ 3.29617, 6.60406 ], [ 3.29648, 6.60393 ], [ 3.29687, 6.60389 ], [ 3.29688, 6.60399 ] ] } },
{ "type": "Feature", "properties": { "Hub": "Egbeda", "Origin": "Egbeda", "Origin_Long": 3.291428808, "Origin_Lat": 6.599221347, "Destination": "Hajj Camp", "Destination_Long": 3.29779772, "Destination_Lat": 6.59536947, "Distance_km": 1.02, "Duration_min": 12.25, "Route": "Egbeda-Idimu Road → Akowonjo Road → - → Akinsanya Ogunlana Street → Goddylove Avenue" }, "geometry": { "type": "LineString", "coordinates": [ [ 3.29145, 6.59921 ], [ 3.29144, 6.59918 ], [ 3.29152, 6.59918 ], [ 3.2917, 6.59922 ], [ 3.29274, 6.59957 ], [ 3.29275, 6.59951 ], [ 3.29288, 6.59907 ], [ 3.2932, 6.59819 ], [ 3.29339, 6.59787 ], [ 3.2935, 6.59778 ], [ 3.29362, 6.59769 ], [ 3.29374, 6.59761 ], [ 3.29394, 6.59734 ], [ 3.29435, 6.59699 ], [ 3.29479, 6.59668 ], [ 3.29488, 6.59662 ], [ 3.29534, 6.59618 ], [ 3.29551, 6.59603 ], [ 3.29593, 6.59559 ], [ 3.29618, 6.5953 ], [ 3.29684, 6.59567 ], [ 3.29747, 6.59598 ], [ 3.29769, 6.59615 ], [ 3.29785, 6.59574 ] ] } },
{ "type": "Feature", "properties": { "Hub": "Egbeda", "Origin": "Egbeda", "Origin_Long": 3.291428808, "Origin_Lat": 6.599221347, "Destination": "CAC", "Destination_Long": 3.29412279, "Destination_Lat": 6.59828529, "Distance_km": 0.54, "Duration_min": 6.51, "Route": "Egbeda-Idimu Road → Akowonjo Road → - → Akinsanya Ogunlana Street" }, "geometry": { "type": "LineString", "coordinates": [ [ 3.29145, 6.59921 ], [ 3.29144, 6.59918 ], [ 3.29152, 6.59918 ], [ 3.2917, 6.59922 ], [ 3.29274, 6.59957 ], [ 3.29275, 6.59951 ], [ 3.29288, 6.59907 ], [ 3.2932, 6.59819 ], [ 3.29339, 6.59787 ], [ 3.2935, 6.59778 ], [ 3.29362, 6.59769 ], [ 3.29374, 6.59761 ], [ 3.29394, 6.59734 ], [ 3.2943, 6.59765 ], [ 3.29454, 6.598 ] ] } },
{ "type": "Feature", "properties": { "Hub": "Egbeda", "Origin": "Egbeda", "Origin_Long": 3.291428808, "Origin_Lat": 6.599221347, "Destination": "Westcare Specialist Hospital", "Destination_Long": 3.29961727, "Destination_Lat": 6.5974731, "Distance_km": 1.32, "Duration_min": 15.79, "Route": "Egbeda-Idimu Road → Akowonjo Road → - → Akinsanya Ogunlana Street → Goddylove Avenue → Samuel Street" }, "geometry": { "type": "LineString", "coordinates": [ [ 3.29145, 6.59921 ], [ 3.29144, 6.59918 ], [ 3.29152, 6.59918 ], [ 3.2917, 6.59922 ], [ 3.29274, 6.59957 ], [ 3.29275, 6.59951 ], [ 3.29288, 6.59907 ], [ 3.2932, 6.59819 ], [ 3.29339, 6.59787 ], [ 3.2935, 6.59778 ], [ 3.29362, 6.59769 ], [ 3.29374, 6.59761 ], [ 3.29394, 6.59734 ], [ 3.29435, 6.59699 ], [ 3.29479, 6.59668 ], [ 3.29488, 6.59662 ], [ 3.29534, 6.59618 ], [ 3.29551, 6.59603 ], [ 3.29593, 6.59559 ], [ 3.29618, 6.5953 ], [ 3.29684, 6.59567 ], [ 3.29747, 6.59598 ], [ 3.29769, 6.59615 ], [ 3.29782, 6.59627 ], [ 3.29799, 6.59636 ], [ 3.29817, 6.5964 ], [ 3.29853, 6.59645 ], [ 3.29876, 6.59647 ], [ 3.29885, 6.59646 ], [ 3.29943, 6.59638 ], [ 3.29965, 6.59639 ], [ 3.2997, 6.59693 ], [ 3.29981, 6.59743 ] ] } },
{ "type": "Feature", "properties": { "Hub": "Egbeda", "Origin": "Egbeda", "Origin_Long": 3.291428808, "Origin_Lat": 6.599221347, "Destination": "Golden Garden Estate", "Destination_Long": 3.29535825, "Destination_Lat": 6.60291069, "Distance_km": 1.0, "Duration_min": 11.96, "Route": "Egbeda-Idimu Road → Ponle Street → -" }, "geometry": { "type": "LineString", "coordinates": [ [ 3.29145, 6.59921 ], [ 3.29152, 6.59941 ], [ 3.29175, 6.59989 ], [ 3.29192, 6.60039 ], [ 3.29193, 6.60059 ], [ 3.29189, 6.60091 ], [ 3.29184, 6.6011 ], [ 3.29185, 6.60137 ], [ 3.29189, 6.60155 ], [ 3.29198, 6.6018 ], [ 3.29218, 6.60211 ], [ 3.2926, 6.60271 ], [ 3.29288, 6.60315 ], [ 3.29309, 6.60346 ], [ 3.29332, 6.60381 ], [ 3.29343, 6.60397 ], [ 3.29358, 6.60419 ], [ 3.29373, 6.60444 ], [ 3.29379, 6.60462 ], [ 3.29426, 6.60439 ], [ 3.29473, 6.60413 ], [ 3.29565, 6.60353 ], [ 3.29541, 6.60309 ], [ 3.29543, 6.60289 ], [ 3.29539, 6.60286 ] ] } },
{ "type": "Feature", "properties": { "Hub": "Egbeda", "Origin": "Egbeda", "Origin_Long": 3.291428808, "Origin_Lat": 6.599221347, "Destination": "RCCG, Destiny Sanctuary", "Destination_Long": 3.29280619, "Destination_Lat": 6.59649776, "Distance_km": 0.4, "Duration_min": 4.78, "Route": "Egbeda-Idimu Road → Akowonjo Road → -" }, "geometry": { "type": "LineString", "coordinates": [ [ 3.29145, 6.59921 ], [ 3.29144, 6.59918 ], [ 3.29139, 6.59911 ], [ 3.29126, 6.59885 ], [ 3.29132, 6.59891 ], [ 3.29151, 6.59859 ], [ 3.29164, 6.5984 ], [ 3.29187, 6.59787 ], [ 3.29207, 6.59789 ], [ 3.29224, 6.59787 ], [ 3.29222, 6.5977 ], [ 3.29223, 6.59751 ], [ 3.29234, 6.59719 ], [ 3.29259, 6.59663 ], [ 3.29266, 6.59644 ] ] } }
]
}
