{
"type": "FeatureCollection",
"name": "Fadeyi_routes",
"crs": { "type": "name", "properties": { "name": "urn:ogc:def:crs:OGC:1.3:CRS84" } },
"features": [
{ "type": "Feature", "properties": { "Hub": "Fadeyi", "Origin": "Fadeyi", "Origin_Long": 3.367493403, "Origin_Lat": 6.524324045, "Destination": "Nigerian Army College Of Nursin", "Destination_Long": 3.37280808, "Destination_Lat": 6.52341713, "Distance_km": 1.53, "Duration_min": 18.4, "Route": "Ikorodu Road → - → Oyebajo Street → Isaac John Street → Bajulaye Road" }, "geometry": { "type": "LineString", "coordinates": [ [ 3.36732, 6.52432 ], [ 3.36731, 6.5244 ], [ 3.36732, 6.52464 ], [ 3.3673, 6.52522 ], [ 3.36726, 6.5272 ], [ 3.36726, 6.52746 ], [ 3.36726, 6.52793 ], [ 3.36726, 6.52816 ], [ 3.3673, 6.52807 ], [ 3.36729, 6.52771 ], [ 3.36758, 6.52771 ], [ 3.36757, 6.52808 ], [ 3.36762, 6.52812 ], [ 3.36762, 6.52832 ], [ 3.36803, 6.52826 ], [ 3.36824, 6.5282 ], [ 3.36848, 6.52814 ], [ 3.36877, 6.52809 ], [ 3.36935, 6.52802 ], [ 3.36976, 6.52809 ], [ 3.36998, 6.52763 ], [ 3.37018, 6.52717 ], [ 3.3704, 6.52666 ], [ 3.37046, 6.52658 ], [ 3.37054, 6.52646 ], [ 3.37064, 6.52636 ], [ 3.37093, 6.52619 ], [ 3.37171, 6.52582 ], [ 3.37203, 6.52565 ], [ 3.37234, 6.5255 ], [ 3.37224, 6.52527 ], [ 3.3724, 6.52485 ], [ 3.3727, 6.52415 ], [ 3.37291, 6.52369 ], [ 3.37308, 6.52332 ], [ 3.37289, 6.52323 ] ] } },
{ "type": "Feature", "properties": { "Hub": "Fadeyi", "Origin": "Fadeyi", "Origin_Long": 3.367493403, "Origin_Lat": 6.524324045, "Destination": "Caritas Inn", "Destination_Long": 3.37104414, "Destination_Lat": 6.52121366, "Distance_km": 1.03, "Duration_min": 12.37, "Route": "Ikorodu Road → - → Ikorodu Road, F266 → Igbobi Sabe Street → Ijaoye Street → Bajulaye Road" }, "geometry": { "type": "LineString", "coordinates": [ [ 3.36732, 6.52432 ], [ 3.36733, 6.52362 ], [ 3.36732, 6.5233 ], [ 3.36732, 6.52283 ], [ 3.36735, 6.52236 ], [ 3.36737, 6.52196 ], [ 3.36739, 6.52068 ], [ 3.36742, 6.52001 ], [ 3.36742, 6.51999 ], [ 3.36744, 6.51975 ], [ 3.36747, 6.51983 ], [ 3.36761, 6.51983 ], [ 3.36768, 6.51979 ], [ 3.36773, 6.51967 ], [ 3.36775, 6.51942 ], [ 3.36823, 6.51978 ], [ 3.36869, 6.52014 ], [ 3.36881, 6.52018 ], [ 3.36922, 6.52019 ], [ 3.36944, 6.5202 ], [ 3.36966, 6.52028 ], [ 3.36981, 6.52036 ], [ 3.37059, 6.52083 ], [ 3.37071, 6.52089 ], [ 3.37078, 6.52087 ], [ 3.37078, 6.52092 ], [ 3.37079, 6.52096 ], [ 3.37088, 6.52122 ], [ 3.37093, 6.52133 ], [ 3.37099, 6.52134 ] ] } },
{ "type": "Feature", "properties": { "Hub": "Fadeyi", "Origin": "Fadeyi", "Origin_Long": 3.367493403, "Origin_Lat": 6.524324045, "Destination": "St. Jude's Anglican Church", "Destination_Long": 3.36606035, "Destination_Lat": 6.52722526, "Distance_km": 0.42, "Duration_min": 5.09, "Route": "Ikorodu Road → Ogunjobi Street → -" }, "geometry": { "type": "LineString", "coordinates": [ [ 3.36732, 6.52432 ], [ 3.36731, 6.5244 ], [ 3.36732, 6.52464 ], [ 3.3673, 6.52522 ], [ 3.36674, 6.525 ], [ 3.3665, 6.52559 ], [ 3.36607, 6.52673 ], [ 3.36592, 6.52712 ], [ 3.3659, 6.52716 ] ] } },
{ "type": "Feature", "properties": { "Hub": "Fadeyi", "Origin": "Fadeyi", "Origin_Long": 3.367493403, "Origin_Lat": 6.524324045, "Destination": "Nawair Ud Deen Comprehensive College", "Destination_Long": 3.36317543, "Destination_Lat": 6.52594255, "Distance_km": 0.8, "Duration_min": 9.59, "Route": "Ikorodu Road → Ogunjobi Street → -" }, "geometry": { "type": "LineString", "coordinates": [ [ 3.36732, 6.52432 ], [ 3.36731, 6.5244 ], [ 3.36732, 6.52464 ], [ 3.3673, 6.52522 ], [ 3.36674, 6.525 ], [ 3.3665, 6.52559 ], [ 3.36603, 6.5254 ], [ 3.36593, 6.52548 ], [ 3.3658, 6.52565 ], [ 3.36567, 6.52577 ], [ 3.36556, 6.5259 ], [ 3.3655, 6.5259 ], [ 3.36524, 6.52641 ], [ 3.36519, 6.52657 ], [ 3.36511, 6.5267 ], [ 3.36501, 6.52699 ], [ 3.36433, 6.52669 ], [ 3.36407, 6.52658 ], [ 3.36404, 6.52652 ], [ 3.36411, 6.52631 ], [ 3.36408, 6.5263 ], [ 3.36394, 6.52625 ], [ 3.36388, 6.52636 ], [ 3.36386, 6.52638 ], [ 3.36393, 6.52623 ], [ 3.36352, 6.52608 ], [ 3.36339, 6.52602 ], [ 3.36329, 6.52595 ], [ 3.36323, 6.52589 ] ] } },
{ "type": "Feature", "properties": { "Hub": "Fadeyi", "Origin": "Fadeyi", "Origin_Long": 3.367493403, "Origin_Lat": 6.524324045, "Destination": "Primary Health Care Clinic", "Destination_Long": 3.36544104, "Destination_Lat": 6.5269961, "Distance_km": 0.5, "Duration_min": 5.98, "Route": "Ikorodu Road → Ogunjobi Street → -" }, "geometry": { "type": "LineString", "coordinates": [ [ 3.36732, 6.52432 ], [ 3.36731, 6.5244 ], [ 3.36732, 6.52464 ], [ 3.3673, 6.52522 ], [ 3.36674, 6.525 ], [ 3.3665, 6.52559 ], [ 3.36607, 6.52673 ], [ 3.36592, 6.52712 ], [ 3.36584, 6.52733 ], [ 3.36538, 6.52714 ] ] } },
{ "type": "Feature", "properties": { "Hub": "Fadeyi", "Origin": "Fadeyi", "Origin_Long": 3.367493403, "Origin_Lat": 6.524324045, "Destination": "WHITE HOUSE GENTS CLUB", "Destination_Long": 3.365577, "Destination_Lat": 6.52827447, "Distance_km": 0.55, "Duration_min": 6.64, "Route": "Ikorodu Road → Ogunjobi Street → -" }, "geometry": { "type": "LineString", "coordinates": [ [ 3.36732, 6.52432 ], [ 3.36731, 6.5244 ], [ 3.36732, 6.52464 ], [ 3.3673, 6.52522 ], [ 3.36674, 6.525 ], [ 3.3665, 6.52559 ], [ 3.36607, 6.52673 ], [ 3.36592, 6.52712 ], [ 3.36584, 6.52733 ], [ 3.36577, 6.52755 ], [ 3.36569, 6.52769 ], [ 3.36565, 6.5278 ], [ 3.36549, 6.52824 ] ] } },
{ "type": "Feature", "properties": { "Hub": "Fadeyi", "Origin": "Fadeyi", "Origin_Long": 3.367493403, "Origin_Lat": 6.524324045, "Destination": "Nipco Filling Station", "Destination_Long": 3.36715642, "Destination_Lat": 6.5291966, "Distance_km": 0.54, "Duration_min": 6.51, "Route": "Ikorodu Road → -" }, "geometry": { "type": "LineString", "coordinates": [ [ 3.36732, 6.52432 ], [ 3.36731, 6.5244 ], [ 3.36732, 6.52464 ], [ 3.3673, 6.52522 ], [ 3.36726, 6.5272 ], [ 3.36726, 6.52746 ], [ 3.36726, 6.52793 ], [ 3.36726, 6.52816 ], [ 3.36726, 6.5284 ], [ 3.36722, 6.52912 ], [ 3.36722, 6.5292 ] ] } },
{ "type": "Feature", "properties": { "Hub": "Fadeyi", "Origin": "Fadeyi", "Origin_Long": 3.367493403, "Origin_Lat": 6.524324045, "Destination": "Shomolu Business Unit IKEDC", "Destination_Long": 3.36781458, "Destination_Lat": 6.53065226, "Distance_km": 0.84, "Duration_min": 10.06, "Route": "Ikorodu Road → -" }, "geometry": { "type": "LineString", "coordinates": [ [ 3.36732, 6.52432 ], [ 3.36731, 6.5244 ], [ 3.36732, 6.52464 ], [ 3.3673, 6.52522 ], [ 3.36726, 6.5272 ], [ 3.36726, 6.52746 ], [ 3.36726, 6.52793 ], [ 3.36726, 6.52816 ], [ 3.3673, 6.52807 ], [ 3.36729, 6.52771 ], [ 3.36758, 6.52771 ], [ 3.36757, 6.52808 ], [ 3.36762, 6.52812 ], [ 3.36762, 6.52832 ], [ 3.3676, 6.52899 ], [ 3.3676, 6.52953 ], [ 3.3676, 6.53007 ], [ 3.36758, 6.53064 ] ] } },
{ "type": "Feature", "properties": { "Hub": "Fadeyi", "Origin": "Fadeyi", "Origin_Long": 3.367493403, "Origin_Lat": 6.524324045, "Destination": "Total Energies", "Destination_Long": 3.36766911, "Destination_Lat": 6.53179367, "Distance_km": 0.97, "Duration_min": 11.68, "Route": "Ikorodu Road → -" }, "geometry": { "type": "LineString", "coordinates": [ [ 3.36732, 6.52432 ], [ 3.36731, 6.5244 ], [ 3.36732, 6.52464 ], [ 3.3673, 6.52522 ], [ 3.36726, 6.5272 ], [ 3.36726, 6.52746 ], [ 3.36726, 6.52793 ], [ 3.36726, 6.52816 ], [ 3.3673, 6.52807 ], [ 3.36729, 6.52771 ], [ 3.36758, 6.52771 ], [ 3.36757, 6.52808 ], [ 3.36762, 6.52812 ], [ 3.36762, 6.52832 ], [ 3.3676, 6.52899 ], [ 3.3676, 6.52953 ], [ 3.3676, 6.53007 ], [ 3.36754, 6.53171 ], [ 3.36768, 6.53174 ] ] } },
{ "type": "Feature", "properties": { "Hub": "Fadeyi", "Origin": "Fadeyi", "Origin_Long": 3.367493403, "Origin_Lat": 6.524324045, "Destination": "Fidelity Bank Plc", "Destination_Long": 3.36779772, "Destination_Lat": 6.52593913, "Distance_km": 0.8, "Duration_min": 9.6, "Route": "Ikorodu Road → -" }, "geometry": { "type": "LineString", "coordinates": [ [ 3.36732, 6.52432 ], [ 3.36731, 6.5244 ], [ 3.36732, 6.52464 ], [ 3.3673, 6.52522 ], [ 3.36726, 6.5272 ], [ 3.36726, 6.52746 ], [ 3.36726, 6.52793 ], [ 3.36726, 6.52816 ], [ 3.3673, 6.52807 ], [ 3.36729, 6.52771 ], [ 3.36758, 6.52771 ], [ 3.36757, 6.52808 ], [ 3.36762, 6.52812 ], [ 3.36765, 6.52724 ], [ 3.36767, 6.52594 ] ] } },
{ "type": "Feature", "properties": { "Hub": "Fadeyi", "Origin": "Fadeyi", "Origin_Long": 3.367493403, "Origin_Lat": 6.524324045, "Destination": "Iyare Motors NIG LTD", "Destination_Long": 3.36722453, "Destination_Lat": 6.52308746, "Distance_km": 0.14, "Duration_min": 1.65, "Route": "Ikorodu Road → -" }, "geometry": { "type": "LineString", "coordinates": [ [ 3.36732, 6.52432 ], [ 3.36733, 6.52362 ], [ 3.36732, 6.5233 ], [ 3.36732, 6.52309 ] ] } },
{ "type": "Feature", "properties": { "Hub": "Fadeyi", "Origin": "Fadeyi", "Origin_Long": 3.367493403, "Origin_Lat": 6.524324045, "Destination": "Mainland Senior High School", "Destination_Long": 3.36875322, "Destination_Lat": 6.52314881, "Distance_km": 0.95, "Duration_min": 11.4, "Route": "Ikorodu Road → - → Ikorodu Road, F266 → Onoyade Street" }, "geometry": { "type": "LineString", "coordinates": [ [ 3.36732, 6.52432 ], [ 3.36733, 6.52362 ], [ 3.36732, 6.5233 ], [ 3.36732, 6.52283 ], [ 3.36735, 6.52236 ], [ 3.36737, 6.52196 ], [ 3.36739, 6.52068 ], [ 3.36742, 6.52001 ], [ 3.36745, 6.51994 ], [ 3.36751, 6.5199 ], [ 3.36763, 6.51991 ], [ 3.36769, 6.51997 ], [ 3.36775, 6.52006 ], [ 3.36774, 6.52049 ], [ 3.36773, 6.52092 ], [ 3.36772, 6.52134 ], [ 3.36772, 6.52163 ], [ 3.36844, 6.52167 ], [ 3.36846, 6.52235 ], [ 3.36841, 6.52272 ], [ 3.3684, 6.52314 ] ] } },
{ "type": "Feature", "properties": { "Hub": "Fadeyi", "Origin": "Fadeyi", "Origin_Long": 3.367493403, "Origin_Lat": 6.524324045, "Destination": "St Stephen Anglican Church", "Destination_Long": 3.36977386, "Destination_Lat": 6.52334296, "Distance_km": 1.19, "Duration_min": 14.26, "Route": "Ikorodu Road → - → Ikorodu Road, F266 → Onoyade Street → Oweh Street" }, "geometry": { "type": "LineString", "coordinates": [ [ 3.36732, 6.52432 ], [ 3.36733, 6.52362 ], [ 3.36732, 6.5233 ], [ 3.36732, 6.52283 ], [ 3.36735, 6.52236 ], [ 3.36737, 6.52196 ], [ 3.36739, 6.52068 ], [ 3.36742, 6.52001 ], [ 3.36745, 6.51994 ], [ 3.36751, 6.5199 ], [ 3.36763, 6.51991 ], [ 3.36769, 6.51997 ], [ 3.36775, 6.52006 ], [ 3.36774, 6.52049 ], [ 3.36773, 6.52092 ], [ 3.36772, 6.52134 ], [ 3.36772, 6.52163 ], [ 3.36844, 6.52167 ], [ 3.36846, 6.52235 ], [ 3.36841, 6.52272 ], [ 3.36906, 6.52262 ], [ 3.36953, 6.52257 ], [ 3.36961, 6.52258 ], [ 3.36982, 6.52262 ], [ 3.37024, 6.52283 ], [ 3.3702, 6.52291 ], [ 3.36996, 6.52337 ], [ 3.36992, 6.52344 ] ] } },
{ "type": "Feature", "properties": { "Hub": "Fadeyi", "Origin": "Fadeyi", "Origin_Long": 3.367493403, "Origin_Lat": 6.524324045, "Destination": "The Palace of the Oba of Igbobi-Sabe", "Destination_Long": 3.37083081, "Destination_Lat": 6.52310286, "Distance_km": 1.2, "Duration_min": 14.34, "Route": "Ikorodu Road → - → Ikorodu Road, F266 → Onoyade Street → Oweh Street" }, "geometry": { "type": "LineString", "coordinates": [ [ 3.36732, 6.52432 ], [ 3.36733, 6.52362 ], [ 3.36732, 6.5233 ], [ 3.36732, 6.52283 ], [ 3.36735, 6.52236 ], [ 3.36737, 6.52196 ], [ 3.36739, 6.52068 ], [ 3.36742, 6.52001 ], [ 3.36745, 6.51994 ], [ 3.36751, 6.5199 ], [ 3.36763, 6.51991 ], [ 3.36769, 6.51997 ], [ 3.36775, 6.52006 ], [ 3.36774, 6.52049 ], [ 3.36773, 6.52092 ], [ 3.36772, 6.52134 ], [ 3.36772, 6.52163 ], [ 3.36844, 6.52167 ], [ 3.36846, 6.52235 ], [ 3.36841, 6.52272 ], [ 3.36906, 6.52262 ], [ 3.36953, 6.52257 ], [ 3.36961, 6.52258 ], [ 3.36982, 6.52262 ], [ 3.37024, 6.52283 ], [ 3.3702, 6.52291 ], [ 3.37048, 6.52308 ], [ 3.37078, 6.52321 ] ] } },
{ "type": "Feature", "properties": { "Hub": "Fadeyi", "Origin": "Fadeyi", "Origin_Long": 3.367493403, "Origin_Lat": 6.524324045, "Destination": "ABC Transport", "Destination_Long": 3.36795114, "Destination_Lat": 6.52123394, "Distance_km": 0.7, "Duration_min": 8.38, "Route": "Ikorodu Road → - → Ikorodu Road, F266" }, "geometry": { "type": "LineString", "coordinates": [ [ 3.36732, 6.52432 ], [ 3.36733, 6.52362 ], [ 3.36732, 6.5233 ], [ 3.36732, 6.52283 ], [ 3.36735, 6.52236 ], [ 3.36737, 6.52196 ], [ 3.36739, 6.52068 ], [ 3.36742, 6.52001 ], [ 3.36745, 6.51994 ], [ 3.36751, 6.5199 ], [ 3.36763, 6.51991 ], [ 3.36769, 6.51997 ], [ 3.36775, 6.52006 ], [ 3.36774, 6.52049 ], [ 3.36773, 6.52092 ], [ 3.36772, 6.52134 ], [ 3.36794, 6.52136 ] ] } }
]
}
