{
"type": "FeatureCollection",
"name": "Idimu_routes",
"crs": { "type": "name", "properties": { "name": "urn:ogc:def:crs:OGC:1.3:CRS84" } },
"features": [
{ "type": "Feature", "properties": { "Hub": "Idimu", "Origin": "Idimu", "Origin_Long": 3.283712119, "Origin_Lat": 6.572924874, "Destination": "Idimu Central Mosque", "Destination_Long": 3.28396789, "Destination_Lat": 6.5724502, "Distance_km": 0.09, "Duration_min": 1.04, "Route": "Idimu-Ejibo Road → Idimu-Ikotun Road → -" }, "geometry": { "type": "LineString", "coordinates": [ [ 3.28371, 6.57298 ], [ 3.28355, 6.57299 ], [ 3.28367, 6.57284 ], [ 3.28373, 6.5727 ], [ 3.28379, 6.57251 ], [ 3.28379, 6.57243 ] ] } },
{ "type": "Feature", "properties": { "Hub": "Idimu", "Origin": "Idimu", "Origin_Long": 3.283712119, "Origin_Lat": 6.572924874, "Destination": "The Mechanic Place", "Destination_Long": 3.28327729, "Destination_Lat": 6.56963979, "Distance_km": 0.41, "Duration_min": 4.94, "Route": "Idimu-Ejibo Road → Idimu-Ikotun Road → -" }, "geometry": { "type": "LineString", "coordinates": [ [ 3.28371, 6.57298 ], [ 3.28355, 6.57299 ], [ 3.28367, 6.57284 ], [ 3.28373, 6.5727 ], [ 3.28379, 6.57251 ], [ 3.28381, 6.57229 ], [ 3.28381, 6.57206 ], [ 3.28371, 6.5715 ], [ 3.28358, 6.57099 ], [ 3.28345, 6.57049 ], [ 3.28328, 6.57008 ], [ 3.28312, 6.56982 ], [ 3.2832, 6.56977 ], [ 3.28321, 6.56973 ], [ 3.28319, 6.56967 ] ] } },
{ "type": "Feature", "properties": { "Hub": "Idimu", "Origin": "Idimu", "Origin_Long": 3.283712119, "Origin_Lat": 6.572924874, "Destination": "Lantern Books", "Destination_Long": 3.28206118, "Destination_Lat": 6.57396661, "Distance_km": 0.8, "Duration_min": 9.65, "Route": "Idimu-Ejibo Road → Idimu-Ikotun Road → -" }, "geometry": { "type": "LineString", "coordinates": [ [ 3.28371, 6.57298 ], [ 3.28355, 6.57299 ], [ 3.28328, 6.57327 ], [ 3.28301, 6.57358 ], [ 3.28277, 6.57391 ], [ 3.28214, 6.57483 ], [ 3.28191, 6.57511 ], [ 3.28154, 6.57554 ], [ 3.28145, 6.57571 ], [ 3.28141, 6.57584 ], [ 3.2814, 6.57598 ], [ 3.28145, 6.5762 ], [ 3.28139, 6.57612 ], [ 3.28132, 6.57606 ], [ 3.28123, 6.57602 ], [ 3.28113, 6.57602 ], [ 3.28103, 6.57604 ], [ 3.2813, 6.5757 ], [ 3.28184, 6.57508 ], [ 3.28208, 6.57476 ], [ 3.28222, 6.57455 ], [ 3.28238, 6.57434 ], [ 3.28206, 6.57405 ], [ 3.28202, 6.57402 ] ] } },
{ "type": "Feature", "properties": { "Hub": "Idimu", "Origin": "Idimu", "Origin_Long": 3.283712119, "Origin_Lat": 6.572924874, "Destination": "Vita Christi Catholic College", "Destination_Long": 3.29178913, "Destination_Lat": 6.5741854, "Distance_km": 1.37, "Duration_min": 16.43, "Route": "Idimu-Ejibo Road → Ogunrombi Street → -" }, "geometry": { "type": "LineString", "coordinates": [ [ 3.28371, 6.57298 ], [ 3.28387, 6.57298 ], [ 3.28406, 6.57297 ], [ 3.28429, 6.57291 ], [ 3.28453, 6.57278 ], [ 3.28504, 6.57239 ], [ 3.28536, 6.5721 ], [ 3.28567, 6.57186 ], [ 3.28615, 6.57153 ], [ 3.28648, 6.57137 ], [ 3.28663, 6.57132 ], [ 3.28682, 6.57128 ], [ 3.28712, 6.57121 ], [ 3.28748, 6.57102 ], [ 3.28818, 6.57063 ], [ 3.28828, 6.57061 ], [ 3.28847, 6.5706 ], [ 3.28879, 6.57054 ], [ 3.2888, 6.57056 ], [ 3.28886, 6.57059 ], [ 3.28893, 6.57056 ], [ 3.28966, 6.57079 ], [ 3.29, 6.57095 ], [ 3.29043, 6.5712 ], [ 3.29066, 6.57133 ], [ 3.29117, 6.57158 ], [ 3.29087, 6.57222 ], [ 3.29054, 6.57296 ], [ 3.29125, 6.57326 ], [ 3.29092, 6.57401 ], [ 3.29169, 6.57438 ] ] } },
{ "type": "Feature", "properties": { "Hub": "Idimu", "Origin": "Idimu", "Origin_Long": 3.283712119, "Origin_Lat": 6.572924874, "Destination": "University Of Amala", "Destination_Long": 3.28860642, "Destination_Lat": 6.57102146, "Distance_km": 0.7, "Duration_min": 8.37, "Route": "Idimu-Ejibo Road → -" }, "geometry": { "type": "LineString", "coordinates": [ [ 3.28371, 6.57298 ], [ 3.28387, 6.57298 ], [ 3.28406, 6.57297 ], [ 3.28429, 6.57291 ], [ 3.28453, 6.57278 ], [ 3.28504, 6.57239 ], [ 3.28536, 6.5721 ], [ 3.28567, 6.57186 ], [ 3.28615, 6.57153 ], [ 3.28648, 6.57137 ], [ 3.28663, 6.57132 ], [ 3.28682, 6.57128 ], [ 3.28712, 6.57121 ], [ 3.28748, 6.57102 ], [ 3.28818, 6.57063 ], [ 3.28828, 6.57061 ], [ 3.28847, 6.5706 ], [ 3.28879, 6.57054 ], [ 3.2888, 6.57056 ], [ 3.28874, 6.57059 ], [ 3.2887, 6.57063 ], [ 3.28854, 6.57098 ], [ 3.28853, 6.57098 ] ] } },
{ "type": "Feature", "properties": { "Hub": "Idimu", "Origin": "Idimu", "Origin_Long": 3.283712119, "Origin_Lat": 6.572924874, "Destination": "Chrisland College", "Destination_Long": 3.28954195, "Destination_Lat": 6.56650547, "Distance_km": 1.23, "Duration_min": 14.8, "Route": "Idimu-Ejibo Road → -" }, "geometry": { "type": "LineString", "coordinates": [ [ 3.28371, 6.57298 ], [ 3.28387, 6.57298 ], [ 3.28406, 6.57297 ], [ 3.28429, 6.57291 ], [ 3.28453, 6.57278 ], [ 3.28504, 6.57239 ], [ 3.28536, 6.5721 ], [ 3.28567, 6.57186 ], [ 3.28615, 6.57153 ], [ 3.28648, 6.57137 ], [ 3.28663, 6.57132 ], [ 3.28682, 6.57128 ], [ 3.28712, 6.57121 ], [ 3.28748, 6.57102 ], [ 3.28818, 6.57063 ], [ 3.28828, 6.57061 ], [ 3.28847, 6.5706 ], [ 3.28879, 6.57054 ], [ 3.28879, 6.57048 ], [ 3.28882, 6.57045 ], [ 3.28886, 6.57043 ], [ 3.28903, 6.57005 ], [ 3.28934, 6.56936 ], [ 3.28954, 6.569 ], [ 3.2902, 6.56788 ], [ 3.29047, 6.56755 ], [ 3.2908, 6.56719 ], [ 3.29025, 6.56689 ], [ 3.29019, 6.56686 ], [ 3.28952, 6.56656 ] ] } },
{ "type": "Feature", "properties": { "Hub": "Idimu", "Origin": "Idimu", "Origin_Long": 3.283712119, "Origin_Lat": 6.572924874, "Destination": "Standardlane International School", "Destination_Long": 3.28589285, "Destination_Lat": 6.56489902, "Distance_km": 1.26, "Duration_min": 15.11, "Route": "Idimu-Ejibo Road → Idimu-Ikotun Road → -" }, "geometry": { "type": "LineString", "coordinates": [ [ 3.28371, 6.57298 ], [ 3.28355, 6.57299 ], [ 3.28367, 6.57284 ], [ 3.28373, 6.5727 ], [ 3.28379, 6.57251 ], [ 3.28381, 6.57229 ], [ 3.28381, 6.57206 ], [ 3.28371, 6.5715 ], [ 3.28358, 6.57099 ], [ 3.28345, 6.57049 ], [ 3.28328, 6.57008 ], [ 3.28312, 6.56982 ], [ 3.28301, 6.56966 ], [ 3.28277, 6.56931 ], [ 3.28259, 6.56906 ], [ 3.28243, 6.56889 ], [ 3.28216, 6.56872 ], [ 3.28267, 6.5679 ], [ 3.28303, 6.56751 ], [ 3.2832, 6.56726 ], [ 3.28321, 6.56724 ], [ 3.28327, 6.5671 ], [ 3.28342, 6.5668 ], [ 3.28358, 6.56658 ], [ 3.28362, 6.56654 ], [ 3.28382, 6.56635 ], [ 3.2839, 6.56625 ], [ 3.28419, 6.56585 ], [ 3.28428, 6.5657 ], [ 3.28437, 6.56557 ], [ 3.28458, 6.5653 ], [ 3.28541, 6.56586 ], [ 3.28546, 6.56588 ], [ 3.2855, 6.56586 ], [ 3.28553, 6.56583 ], [ 3.28569, 6.56561 ], [ 3.28603, 6.56497 ] ] } },
{ "type": "Feature", "properties": { "Hub": "Idimu", "Origin": "Idimu", "Origin_Long": 3.283712119, "Origin_Lat": 6.572924874, "Destination": "Amala Ibadan HQ", "Destination_Long": 3.27786004, "Destination_Lat": 6.56644979, "Distance_km": 1.1, "Duration_min": 13.24, "Route": "Idimu-Ejibo Road → Idimu-Ikotun Road → -" }, "geometry": { "type": "LineString", "coordinates": [ [ 3.28371, 6.57298 ], [ 3.28355, 6.57299 ], [ 3.28367, 6.57284 ], [ 3.28373, 6.5727 ], [ 3.28379, 6.57251 ], [ 3.28381, 6.57229 ], [ 3.28381, 6.57206 ], [ 3.28371, 6.5715 ], [ 3.28358, 6.57099 ], [ 3.28345, 6.57049 ], [ 3.28328, 6.57008 ], [ 3.28312, 6.56982 ], [ 3.28301, 6.56966 ], [ 3.28277, 6.56931 ], [ 3.28259, 6.56906 ], [ 3.28243, 6.56889 ], [ 3.28216, 6.56872 ], [ 3.28136, 6.56852 ], [ 3.28075, 6.56839 ], [ 3.28043, 6.56832 ], [ 3.28002, 6.56816 ], [ 3.2796, 6.5679 ], [ 3.27951, 6.56782 ], [ 3.2795, 6.5678 ], [ 3.27948, 6.56776 ], [ 3.27944, 6.56775 ], [ 3.27941, 6.56774 ], [ 3.27902, 6.56747 ], [ 3.2786, 6.56721 ], [ 3.27772, 6.5667 ] ] } },
{ "type": "Feature", "properties": { "Hub": "Idimu", "Origin": "Idimu", "Origin_Long": 3.283712119, "Origin_Lat": 6.572924874, "Destination": "Subol Hospital Limited", "Destination_Long": 3.27478266, "Destination_Lat": 6.56600976, "Distance_km": 1.6, "Duration_min": 19.15, "Route": "Idimu-Ejibo Road → Idimu-Ikotun Road → oladun street → -" }, "geometry": { "type": "LineString", "coordinates": [ [ 3.28371, 6.57298 ], [ 3.28355, 6.57299 ], [ 3.28367, 6.57284 ], [ 3.28373, 6.5727 ], [ 3.28379, 6.57251 ], [ 3.28381, 6.57229 ], [ 3.28381, 6.57206 ], [ 3.28371, 6.5715 ], [ 3.28358, 6.57099 ], [ 3.28345, 6.57049 ], [ 3.28328, 6.57008 ], [ 3.28312, 6.56982 ], [ 3.28301, 6.56966 ], [ 3.28277, 6.56931 ], [ 3.28259, 6.56906 ], [ 3.28243, 6.56889 ], [ 3.28216, 6.56872 ], [ 3.28136, 6.56852 ], [ 3.28075, 6.56839 ], [ 3.28043, 6.56832 ], [ 3.28002, 6.56816 ], [ 3.2796, 6.5679 ], [ 3.27951, 6.56782 ], [ 3.27949, 6.56789 ], [ 3.27944, 6.56792 ], [ 3.27938, 6.56791 ], [ 3.27936, 6.5679 ], [ 3.2791, 6.56825 ], [ 3.27886, 6.56856 ], [ 3.27851, 6.56827 ], [ 3.2783, 6.56808 ], [ 3.27781, 6.5678 ], [ 3.27689, 6.5673 ], [ 3.27681, 6.56737 ], [ 3.27664, 6.56749 ], [ 3.27655, 6.56753 ], [ 3.27646, 6.56756 ], [ 3.2761, 6.56761 ], [ 3.27561, 6.56766 ], [ 3.2755, 6.56739 ], [ 3.27545, 6.5673 ], [ 3.2753, 6.56707 ], [ 3.27511, 6.56681 ], [ 3.27481, 6.5665 ], [ 3.27456, 6.5662 ] ] } },
{ "type": "Feature", "properties": { "Hub": "Idimu", "Origin": "Idimu", "Origin_Long": 3.283712119, "Origin_Lat": 6.572924874, "Destination": "St. Peters Anglican Church", "Destination_Long": 3.28254546, "Destination_Lat": 6.5753147, "Distance_km": 0.5, "Duration_min": 5.95, "Route": "Idimu-Ejibo Road → Idimu-Ikotun Road → -" }, "geometry": { "type": "LineString", "coordinates": [ [ 3.28371, 6.57298 ], [ 3.28355, 6.57299 ], [ 3.28328, 6.57327 ], [ 3.28301, 6.57358 ], [ 3.28277, 6.57391 ], [ 3.28214, 6.57483 ], [ 3.28191, 6.57511 ], [ 3.28201, 6.57519 ], [ 3.28233, 6.57551 ], [ 3.28257, 6.57572 ], [ 3.28286, 6.57545 ], [ 3.28285, 6.57541 ], [ 3.28265, 6.57522 ] ] } },
{ "type": "Feature", "properties": { "Hub": "Idimu", "Origin": "Idimu", "Origin_Long": 3.283712119, "Origin_Lat": 6.572924874, "Destination": "Federal Peace Estate", "Destination_Long": 3.27824656, "Destination_Lat": 6.57744706, "Distance_km": 0.9, "Duration_min": 10.78, "Route": "Idimu-Ejibo Road → Idimu-Ikotun Road → Lasu-Isheri Road → -" }, "geometry": { "type": "LineString", "coordinates": [ [ 3.28371, 6.57298 ], [ 3.28355, 6.57299 ], [ 3.28328, 6.57327 ], [ 3.28301, 6.57358 ], [ 3.28277, 6.57391 ], [ 3.28214, 6.57483 ], [ 3.28191, 6.57511 ], [ 3.28154, 6.57554 ], [ 3.28145, 6.57571 ], [ 3.28141, 6.57584 ], [ 3.2814, 6.57598 ], [ 3.28145, 6.5762 ], [ 3.28148, 6.57631 ], [ 3.28147, 6.57643 ], [ 3.2814, 6.57654 ], [ 3.28131, 6.57662 ], [ 3.28119, 6.57666 ], [ 3.28106, 6.57664 ], [ 3.28095, 6.57658 ], [ 3.2808, 6.57653 ], [ 3.28065, 6.57652 ], [ 3.28052, 6.57653 ], [ 3.28027, 6.57664 ], [ 3.27988, 6.57684 ], [ 3.27953, 6.57697 ], [ 3.27907, 6.57704 ], [ 3.2783, 6.57708 ], [ 3.2783, 6.57745 ] ] } },
{ "type": "Feature", "properties": { "Hub": "Idimu", "Origin": "Idimu", "Origin_Long": 3.283712119, "Origin_Lat": 6.572924874, "Destination": "St. Luke Catholic Church", "Destination_Long": 3.28146118, "Destination_Lat": 6.58144365, "Distance_km": 1.39, "Duration_min": 16.63, "Route": "Idimu-Ejibo Road → Idimu-Ikotun Road → - → Egbeda-Idimu Road" }, "geometry": { "type": "LineString", "coordinates": [ [ 3.28371, 6.57298 ], [ 3.28355, 6.57299 ], [ 3.28328, 6.57327 ], [ 3.28301, 6.57358 ], [ 3.28277, 6.57391 ], [ 3.28339, 6.57434 ], [ 3.28338, 6.57438 ], [ 3.28339, 6.57444 ], [ 3.2837, 6.57563 ], [ 3.2835, 6.57588 ], [ 3.28324, 6.57631 ], [ 3.28309, 6.57663 ], [ 3.28285, 6.57696 ], [ 3.28269, 6.57726 ], [ 3.28254, 6.57749 ], [ 3.28287, 6.5776 ], [ 3.28305, 6.57771 ], [ 3.28321, 6.57788 ], [ 3.28331, 6.57802 ], [ 3.28336, 6.57813 ], [ 3.28354, 6.5786 ], [ 3.28345, 6.57863 ], [ 3.28363, 6.57918 ], [ 3.28372, 6.57952 ], [ 3.28379, 6.57999 ], [ 3.28378, 6.58031 ], [ 3.28275, 6.58036 ], [ 3.28278, 6.5809 ], [ 3.28275, 6.5815 ], [ 3.28214, 6.58152 ], [ 3.28149, 6.58163 ] ] } },
{ "type": "Feature", "properties": { "Hub": "Idimu", "Origin": "Idimu", "Origin_Long": 3.283712119, "Origin_Lat": 6.572924874, "Destination": "Jubilee Event Center", "Destination_Long": 3.28693645, "Destination_Lat": 6.56946239, "Distance_km": 0.8, "Duration_min": 9.56, "Route": "Idimu-Ejibo Road → Idimu-Ikotun Road → Lawrence Street → -" }, "geometry": { "type": "LineString", "coordinates": [ [ 3.28371, 6.57298 ], [ 3.28355, 6.57299 ], [ 3.28367, 6.57284 ], [ 3.28373, 6.5727 ], [ 3.28377, 6.5728 ], [ 3.28387, 6.57289 ], [ 3.28405, 6.57291 ], [ 3.28428, 6.57283 ], [ 3.28448, 6.57275 ], [ 3.28472, 6.57257 ], [ 3.28531, 6.57205 ], [ 3.28562, 6.57181 ], [ 3.28612, 6.57147 ], [ 3.28627, 6.57139 ], [ 3.28648, 6.57129 ], [ 3.28709, 6.57115 ], [ 3.28741, 6.571 ], [ 3.28805, 6.57062 ], [ 3.2878, 6.57018 ], [ 3.2876, 6.56992 ], [ 3.28735, 6.56963 ], [ 3.28711, 6.56933 ] ] } },
{ "type": "Feature", "properties": { "Hub": "Idimu", "Origin": "Idimu", "Origin_Long": 3.283712119, "Origin_Lat": 6.572924874, "Destination": "Police Post Station - Idimu Area M command", "Destination_Long": 3.28332705, "Destination_Lat": 6.57896208, "Distance_km": 0.85, "Duration_min": 10.15, "Route": "Idimu-Ejibo Road → Idimu-Ikotun Road → - → Egbeda-Idimu Road" }, "geometry": { "type": "LineString", "coordinates": [ [ 3.28371, 6.57298 ], [ 3.28355, 6.57299 ], [ 3.28328, 6.57327 ], [ 3.28301, 6.57358 ], [ 3.28277, 6.57391 ], [ 3.28339, 6.57434 ], [ 3.28338, 6.57438 ], [ 3.28339, 6.57444 ], [ 3.2837, 6.57563 ], [ 3.2835, 6.57588 ], [ 3.28324, 6.57631 ], [ 3.28309, 6.57663 ], [ 3.28285, 6.57696 ], [ 3.28269, 6.57726 ], [ 3.28254, 6.57749 ], [ 3.28287, 6.5776 ], [ 3.28305, 6.57771 ], [ 3.28321, 6.57788 ], [ 3.28331, 6.57802 ], [ 3.28336, 6.57813 ], [ 3.28354, 6.5786 ], [ 3.28345, 6.57863 ], [ 3.28354, 6.5789 ] ] } }
]
}
