{
"type": "FeatureCollection",
"name": "Ikorodu_routes",
"crs": { "type": "name", "properties": { "name": "urn:ogc:def:crs:OGC:1.3:CRS84" } },
"features": [
{ "type": "Feature", "properties": { "Hub": "Ikorodu", "Origin": "Ikorodu", "Origin_Long": 3.503460168, "Origin_Lat": 6.62041604, "Destination": "BRT Terminal", "Destination_Long": 3.50235819, "Destination_Lat": 6.62106811, "Distance_km": 0.2, "Duration_min": 2.46, "Route": "Ikorodu Road, A1 → Laketu Street → -" }, "geometry": { "type": "LineString", "coordinates": [ [ 3.50348, 6.62029 ], [ 3.50344, 6.62029 ], [ 3.50339, 6.6203 ], [ 3.50331, 6.62037 ], [ 3.50329, 6.62043 ], [ 3.5033, 6.62051 ], [ 3.50333, 6.62056 ], [ 3.50338, 6.62059 ], [ 3.50313, 6.6206 ], [ 3.50288, 6.62069 ], [ 3.50298, 6.62092 ], [ 3.5024, 6.62117 ] ] } },
{ "type": "Feature", "properties": { "Hub": "Ikorodu", "Origin": "Ikorodu", "Origin_Long": 3.503460168, "Origin_Lat": 6.62041604, "Destination": "Market", "Destination_Long": 3.50244335, "Destination_Lat": 6.6196796, "Distance_km": 0.2, "Duration_min": 2.37, "Route": "Ikorodu Road, A1 → -" }, "geometry": { "type": "LineString", "coordinates": [ [ 3.50348, 6.62029 ], [ 3.50344, 6.62029 ], [ 3.50339, 6.6203 ], [ 3.50331, 6.62037 ], [ 3.50323, 6.62042 ], [ 3.50276, 6.62061 ], [ 3.50255, 6.62 ], [ 3.50245, 6.61968 ] ] } },
{ "type": "Feature", "properties": { "Hub": "Ikorodu", "Origin": "Ikorodu", "Origin_Long": 3.503460168, "Origin_Lat": 6.62041604, "Destination": "Oriwu Central Mosque", "Destination_Long": 3.50418673, "Destination_Lat": 6.62071155, "Distance_km": 0.09, "Duration_min": 1.13, "Route": "Sagamu Road, A1 → -" }, "geometry": { "type": "LineString", "coordinates": [ [ 3.50348, 6.62029 ], [ 3.5035, 6.6203 ], [ 3.50355, 6.62032 ], [ 3.50359, 6.62036 ], [ 3.5036, 6.6204 ], [ 3.50361, 6.62048 ], [ 3.50363, 6.62054 ], [ 3.50364, 6.62059 ], [ 3.50376, 6.62056 ], [ 3.50409, 6.62044 ] ] } },
{ "type": "Feature", "properties": { "Hub": "Ikorodu", "Origin": "Ikorodu", "Origin_Long": 3.503460168, "Origin_Lat": 6.62041604, "Destination": "Sabo Police Station", "Destination_Long": 3.50481287, "Destination_Lat": 6.62256275, "Distance_km": 0.3, "Duration_min": 3.59, "Route": "Sagamu Road, A1 → -" }, "geometry": { "type": "LineString", "coordinates": [ [ 3.50348, 6.62029 ], [ 3.5035, 6.6203 ], [ 3.50355, 6.62032 ], [ 3.50359, 6.62036 ], [ 3.5036, 6.6204 ], [ 3.50361, 6.62048 ], [ 3.50363, 6.62054 ], [ 3.50364, 6.62059 ], [ 3.50392, 6.62114 ], [ 3.50445, 6.62243 ], [ 3.5045, 6.62257 ], [ 3.50452, 6.62264 ], [ 3.50458, 6.62263 ], [ 3.50461, 6.62266 ] ] } },
{ "type": "Feature", "properties": { "Hub": "Ikorodu", "Origin": "Ikorodu", "Origin_Long": 3.503460168, "Origin_Lat": 6.62041604, "Destination": "Sabo Market", "Destination_Long": 3.50813657, "Destination_Lat": 6.62623891, "Distance_km": 1.07, "Duration_min": 12.89, "Route": "Sagamu Road, A1 → -" }, "geometry": { "type": "LineString", "coordinates": [ [ 3.50348, 6.62029 ], [ 3.5035, 6.6203 ], [ 3.50355, 6.62032 ], [ 3.50359, 6.62036 ], [ 3.5036, 6.6204 ], [ 3.50361, 6.62048 ], [ 3.50363, 6.62054 ], [ 3.50364, 6.62059 ], [ 3.50392, 6.62114 ], [ 3.50445, 6.62243 ], [ 3.5045, 6.62257 ], [ 3.50452, 6.62264 ], [ 3.50498, 6.62393 ], [ 3.50504, 6.62407 ], [ 3.50514, 6.62406 ], [ 3.50517, 6.62407 ], [ 3.50533, 6.62438 ], [ 3.50537, 6.62441 ], [ 3.50541, 6.62441 ], [ 3.50628, 6.62409 ], [ 3.50634, 6.62405 ], [ 3.50659, 6.62395 ], [ 3.50668, 6.62393 ], [ 3.50675, 6.62395 ], [ 3.50663, 6.62479 ], [ 3.50679, 6.62487 ], [ 3.50722, 6.62508 ], [ 3.50768, 6.62537 ], [ 3.50855, 6.62588 ], [ 3.50836, 6.62633 ] ] } },
{ "type": "Feature", "properties": { "Hub": "Ikorodu", "Origin": "Ikorodu", "Origin_Long": 3.503460168, "Origin_Lat": 6.62041604, "Destination": "Sabo Roundabout", "Destination_Long": 3.50613841, "Destination_Lat": 6.62636539, "Distance_km": 0.74, "Duration_min": 8.92, "Route": "Sagamu Road, A1 → A1 → -" }, "geometry": { "type": "LineString", "coordinates": [ [ 3.50348, 6.62029 ], [ 3.5035, 6.6203 ], [ 3.50355, 6.62032 ], [ 3.50359, 6.62036 ], [ 3.5036, 6.6204 ], [ 3.50361, 6.62048 ], [ 3.50363, 6.62054 ], [ 3.50364, 6.62059 ], [ 3.50392, 6.62114 ], [ 3.50445, 6.62243 ], [ 3.5045, 6.62257 ], [ 3.50452, 6.62264 ], [ 3.50498, 6.62393 ], [ 3.50504, 6.62407 ], [ 3.50537, 6.62487 ], [ 3.50576, 6.62569 ], [ 3.50602, 6.62619 ], [ 3.5061, 6.62629 ], [ 3.50616, 6.62632 ], [ 3.50617, 6.62635 ] ] } },
{ "type": "Feature", "properties": { "Hub": "Ikorodu", "Origin": "Ikorodu", "Origin_Long": 3.503460168, "Origin_Lat": 6.62041604, "Destination": "Bus Park", "Destination_Long": 3.50793307, "Destination_Lat": 6.62756486, "Distance_km": 0.99, "Duration_min": 11.91, "Route": "Sagamu Road, A1 → Old Lagos Road, F101 → -" }, "geometry": { "type": "LineString", "coordinates": [ [ 3.50348, 6.62029 ], [ 3.5035, 6.6203 ], [ 3.50355, 6.62032 ], [ 3.50359, 6.62036 ], [ 3.5036, 6.6204 ], [ 3.50361, 6.62048 ], [ 3.50363, 6.62054 ], [ 3.50364, 6.62059 ], [ 3.50392, 6.62114 ], [ 3.50445, 6.62243 ], [ 3.5045, 6.62257 ], [ 3.50452, 6.62264 ], [ 3.50498, 6.62393 ], [ 3.50504, 6.62407 ], [ 3.50537, 6.62487 ], [ 3.50576, 6.62569 ], [ 3.50602, 6.62619 ], [ 3.5061, 6.62629 ], [ 3.50616, 6.62632 ], [ 3.50618, 6.62637 ], [ 3.50631, 6.62639 ], [ 3.50665, 6.62658 ], [ 3.507, 6.6268 ], [ 3.50712, 6.62687 ], [ 3.50753, 6.62714 ], [ 3.50775, 6.62727 ], [ 3.50772, 6.62737 ], [ 3.50772, 6.62745 ], [ 3.50774, 6.62749 ], [ 3.50778, 6.62752 ], [ 3.50784, 6.62754 ], [ 3.50791, 6.62752 ] ] } },
{ "type": "Feature", "properties": { "Hub": "Ikorodu", "Origin": "Ikorodu", "Origin_Long": 3.503460168, "Origin_Lat": 6.62041604, "Destination": "United Junior High School", "Destination_Long": 3.50151135, "Destination_Lat": 6.61894856, "Distance_km": 0.33, "Duration_min": 4.0, "Route": "Ikorodu Road, A1 → -" }, "geometry": { "type": "LineString", "coordinates": [ [ 3.50348, 6.62029 ], [ 3.50344, 6.62029 ], [ 3.50339, 6.6203 ], [ 3.50331, 6.62037 ], [ 3.50323, 6.62042 ], [ 3.50276, 6.62061 ], [ 3.50255, 6.62 ], [ 3.50225, 6.61899 ], [ 3.50182, 6.61926 ] ] } },
{ "type": "Feature", "properties": { "Hub": "Ikorodu", "Origin": "Ikorodu", "Origin_Long": 3.503460168, "Origin_Lat": 6.62041604, "Destination": "Ikorodu Town Hall", "Destination_Long": 3.50336663, "Destination_Lat": 6.61411736, "Distance_km": 0.91, "Duration_min": 10.91, "Route": "F270 → Owolowo way → -" }, "geometry": { "type": "LineString", "coordinates": [ [ 3.50348, 6.62029 ], [ 3.5035, 6.6203 ], [ 3.50355, 6.62032 ], [ 3.50359, 6.62036 ], [ 3.50347, 6.62009 ], [ 3.50343, 6.61995 ], [ 3.50338, 6.61956 ], [ 3.50319, 6.61867 ], [ 3.50303, 6.61812 ], [ 3.50295, 6.61787 ], [ 3.50303, 6.61766 ], [ 3.50318, 6.61735 ], [ 3.50322, 6.61724 ], [ 3.50322, 6.61625 ], [ 3.50324, 6.61588 ], [ 3.50333, 6.61549 ], [ 3.50345, 6.61509 ], [ 3.50353, 6.61488 ], [ 3.50386, 6.6142 ], [ 3.5041, 6.61373 ], [ 3.50345, 6.61367 ], [ 3.5034, 6.61412 ] ] } },
{ "type": "Feature", "properties": { "Hub": "Ikorodu", "Origin": "Ikorodu", "Origin_Long": 3.503460168, "Origin_Lat": 6.62041604, "Destination": "GT Bank", "Destination_Long": 3.49795637, "Destination_Lat": 6.62257648, "Distance_km": 0.66, "Duration_min": 7.96, "Route": "Ikorodu Road, A1 → -" }, "geometry": { "type": "LineString", "coordinates": [ [ 3.50348, 6.62029 ], [ 3.50344, 6.62029 ], [ 3.50339, 6.6203 ], [ 3.50331, 6.62037 ], [ 3.50323, 6.62042 ], [ 3.50276, 6.62061 ], [ 3.50166, 6.62106 ], [ 3.50139, 6.6212 ], [ 3.50082, 6.62154 ], [ 3.49973, 6.622 ], [ 3.49865, 6.62248 ], [ 3.49841, 6.62258 ], [ 3.49802, 6.62273 ] ] } },
{ "type": "Feature", "properties": { "Hub": "Ikorodu", "Origin": "Ikorodu", "Origin_Long": 3.503460168, "Origin_Lat": 6.62041604, "Destination": "Union Bank", "Destination_Long": 3.49873867, "Destination_Lat": 6.62285289, "Distance_km": 0.65, "Duration_min": 7.8, "Route": "Ikorodu Road, A1 → -" }, "geometry": { "type": "LineString", "coordinates": [ [ 3.50348, 6.62029 ], [ 3.50344, 6.62029 ], [ 3.50339, 6.6203 ], [ 3.50331, 6.62037 ], [ 3.50329, 6.62043 ], [ 3.5033, 6.62051 ], [ 3.50333, 6.62056 ], [ 3.50338, 6.62059 ], [ 3.50313, 6.6206 ], [ 3.50288, 6.62069 ], [ 3.50149, 6.62127 ], [ 3.50126, 6.62142 ], [ 3.50102, 6.62161 ], [ 3.50074, 6.62175 ], [ 3.49968, 6.6222 ], [ 3.4995, 6.62228 ], [ 3.49873, 6.62261 ], [ 3.49864, 6.62265 ], [ 3.49873, 6.62286 ] ] } },
{ "type": "Feature", "properties": { "Hub": "Ikorodu", "Origin": "Ikorodu", "Origin_Long": 3.503460168, "Origin_Lat": 6.62041604, "Destination": "Benson Bustop", "Destination_Long": 3.49967648, "Destination_Lat": 6.62229416, "Distance_km": 0.51, "Duration_min": 6.11, "Route": "Ikorodu Road, A1 → Abdul Benson Street → -" }, "geometry": { "type": "LineString", "coordinates": [ [ 3.50348, 6.62029 ], [ 3.50344, 6.62029 ], [ 3.50339, 6.6203 ], [ 3.50331, 6.62037 ], [ 3.50329, 6.62043 ], [ 3.5033, 6.62051 ], [ 3.50333, 6.62056 ], [ 3.50338, 6.62059 ], [ 3.50313, 6.6206 ], [ 3.50288, 6.62069 ], [ 3.50149, 6.62127 ], [ 3.50126, 6.62142 ], [ 3.50102, 6.62161 ], [ 3.50074, 6.62175 ], [ 3.49968, 6.6222 ], [ 3.49971, 6.62228 ] ] } },
{ "type": "Feature", "properties": { "Hub": "Ikorodu", "Origin": "Ikorodu", "Origin_Long": 3.503460168, "Origin_Lat": 6.62041604, "Destination": "Deeper Life Bible Church", "Destination_Long": 3.50372384, "Destination_Lat": 6.62428631, "Distance_km": 0.59, "Duration_min": 7.03, "Route": "Sagamu Road, A1 → - → Muniratu Alaje Street" }, "geometry": { "type": "LineString", "coordinates": [ [ 3.50348, 6.62029 ], [ 3.5035, 6.6203 ], [ 3.50355, 6.62032 ], [ 3.50359, 6.62036 ], [ 3.5036, 6.6204 ], [ 3.50361, 6.62048 ], [ 3.50363, 6.62054 ], [ 3.50364, 6.62059 ], [ 3.50392, 6.62114 ], [ 3.50445, 6.62243 ], [ 3.5045, 6.62257 ], [ 3.50441, 6.62261 ], [ 3.50463, 6.62323 ], [ 3.50467, 6.62332 ], [ 3.50479, 6.6237 ], [ 3.50489, 6.62396 ], [ 3.50443, 6.62415 ], [ 3.50402, 6.62429 ], [ 3.50374, 6.62436 ] ] } },
{ "type": "Feature", "properties": { "Hub": "Ikorodu", "Origin": "Ikorodu", "Origin_Long": 3.503460168, "Origin_Lat": 6.62041604, "Destination": "Newgate Hospital", "Destination_Long": 3.49672448, "Destination_Lat": 6.62295527, "Distance_km": 0.82, "Duration_min": 9.85, "Route": "Ikorodu Road, A1 → -" }, "geometry": { "type": "LineString", "coordinates": [ [ 3.50348, 6.62029 ], [ 3.50344, 6.62029 ], [ 3.50339, 6.6203 ], [ 3.50331, 6.62037 ], [ 3.50323, 6.62042 ], [ 3.50276, 6.62061 ], [ 3.50166, 6.62106 ], [ 3.50139, 6.6212 ], [ 3.50082, 6.62154 ], [ 3.49973, 6.622 ], [ 3.49865, 6.62248 ], [ 3.49841, 6.62258 ], [ 3.49767, 6.62286 ], [ 3.49734, 6.62299 ], [ 3.49699, 6.62317 ], [ 3.49695, 6.62307 ], [ 3.49693, 6.62305 ], [ 3.49687, 6.62298 ], [ 3.49684, 6.62291 ] ] } },
{ "type": "Feature", "properties": { "Hub": "Ikorodu", "Origin": "Ikorodu", "Origin_Long": 3.503460168, "Origin_Lat": 6.62041604, "Destination": "Haruna Bus stop", "Destination_Long": 3.49555257, "Destination_Lat": 6.62378002, "Distance_km": 0.96, "Duration_min": 11.52, "Route": "Ikorodu Road, A1 → -" }, "geometry": { "type": "LineString", "coordinates": [ [ 3.50348, 6.62029 ], [ 3.50344, 6.62029 ], [ 3.50339, 6.6203 ], [ 3.50331, 6.62037 ], [ 3.50323, 6.62042 ], [ 3.50276, 6.62061 ], [ 3.50166, 6.62106 ], [ 3.50139, 6.6212 ], [ 3.50082, 6.62154 ], [ 3.49973, 6.622 ], [ 3.49865, 6.62248 ], [ 3.49841, 6.62258 ], [ 3.49767, 6.62286 ], [ 3.49734, 6.62299 ], [ 3.49699, 6.62317 ], [ 3.4966, 6.62337 ], [ 3.49572, 6.62374 ], [ 3.49557, 6.62381 ] ] } },
{ "type": "Feature", "properties": { "Hub": "Ikorodu", "Origin": "Ikorodu", "Origin_Long": 3.503460168, "Origin_Lat": 6.62041604, "Destination": "Oriwu Junction", "Destination_Long": 3.50119415, "Destination_Lat": 6.61284647, "Distance_km": 0.89, "Duration_min": 10.73, "Route": "F270 → -" }, "geometry": { "type": "LineString", "coordinates": [ [ 3.50348, 6.62029 ], [ 3.5035, 6.6203 ], [ 3.50355, 6.62032 ], [ 3.50359, 6.62036 ], [ 3.50347, 6.62009 ], [ 3.50343, 6.61995 ], [ 3.50338, 6.61956 ], [ 3.50319, 6.61867 ], [ 3.50303, 6.61812 ], [ 3.50295, 6.61787 ], [ 3.50269, 6.61705 ], [ 3.50264, 6.61697 ], [ 3.50235, 6.61596 ], [ 3.5021, 6.6152 ], [ 3.50205, 6.61504 ], [ 3.50204, 6.615 ], [ 3.50189, 6.61459 ], [ 3.50162, 6.61383 ], [ 3.50131, 6.61313 ], [ 3.50123, 6.61296 ], [ 3.50118, 6.61285 ] ] } }
]
}
