{
"type": "FeatureCollection",
"name": "Ikotun_routes",
"crs": { "type": "name", "properties": { "name": "urn:ogc:def:crs:OGC:1.3:CRS84" } },
"features": [
{ "type": "Feature", "properties": { "Hub": "Ikotun", "Origin": "Ikotun", "Origin_Long": 3.268055067, "Origin_Lat": 6.548437195, "Destination": "Interstate Motor Park", "Destination_Long": 3.26572316, "Destination_Lat": 6.54569513, "Distance_km": 0.54, "Duration_min": 6.42, "Route": "- → Idimu-Ikotun Road" }, "geometry": { "type": "LineString", "coordinates": [ [ 3.26815, 6.54846 ], [ 3.26813, 6.54854 ], [ 3.26802, 6.54873 ], [ 3.26789, 6.54825 ], [ 3.2678, 6.54805 ], [ 3.26764, 6.54786 ], [ 3.2674, 6.54763 ], [ 3.26706, 6.54734 ], [ 3.2665, 6.54675 ], [ 3.26616, 6.54642 ], [ 3.26589, 6.54619 ], [ 3.26536, 6.54568 ], [ 3.2654, 6.54562 ], [ 3.26545, 6.54557 ], [ 3.26571, 6.54553 ] ] } },
{ "type": "Feature", "properties": { "Hub": "Ikotun", "Origin": "Ikotun", "Origin_Long": 3.268055067, "Origin_Lat": 6.548437195, "Destination": "Inec Office Alimosho", "Destination_Long": 3.27011565, "Destination_Lat": 6.55128529, "Distance_km": 0.53, "Duration_min": 6.36, "Route": "- → Idimu-Ikotun Road" }, "geometry": { "type": "LineString", "coordinates": [ [ 3.26815, 6.54846 ], [ 3.26813, 6.54854 ], [ 3.26802, 6.54873 ], [ 3.26809, 6.54906 ], [ 3.26838, 6.55007 ], [ 3.2685, 6.55056 ], [ 3.26918, 6.55038 ], [ 3.2696, 6.55026 ], [ 3.26986, 6.5502 ], [ 3.26993, 6.55038 ], [ 3.27002, 6.55092 ], [ 3.27001, 6.55104 ], [ 3.26992, 6.55106 ], [ 3.26989, 6.55109 ], [ 3.26988, 6.55126 ] ] } },
{ "type": "Feature", "properties": { "Hub": "Ikotun", "Origin": "Ikotun", "Origin_Long": 3.268055067, "Origin_Lat": 6.548437195, "Destination": "Ikotun Market", "Destination_Long": 3.26900063, "Destination_Lat": 6.54848595, "Distance_km": 0.17, "Duration_min": 2.05, "Route": "- → Idimu-Ikotun Road" }, "geometry": { "type": "LineString", "coordinates": [ [ 3.26815, 6.54846 ], [ 3.26813, 6.54854 ], [ 3.26802, 6.54873 ], [ 3.26809, 6.54906 ], [ 3.26848, 6.549 ], [ 3.26885, 6.54907 ], [ 3.26898, 6.54907 ] ] } },
{ "type": "Feature", "properties": { "Hub": "Ikotun", "Origin": "Ikotun", "Origin_Long": 3.268055067, "Origin_Lat": 6.548437195, "Destination": "Ikotun Local Government office", "Destination_Long": 3.26945813, "Destination_Lat": 6.55072509, "Distance_km": 0.38, "Duration_min": 4.51, "Route": "- → Idimu-Ikotun Road" }, "geometry": { "type": "LineString", "coordinates": [ [ 3.26815, 6.54846 ], [ 3.26813, 6.54854 ], [ 3.26802, 6.54873 ], [ 3.26809, 6.54906 ], [ 3.26838, 6.55007 ], [ 3.2685, 6.55056 ], [ 3.26918, 6.55038 ], [ 3.26922, 6.55046 ], [ 3.26936, 6.55052 ], [ 3.26941, 6.5507 ], [ 3.26945, 6.55073 ], [ 3.26946, 6.55074 ] ] } },
{ "type": "Feature", "properties": { "Hub": "Ikotun", "Origin": "Ikotun", "Origin_Long": 3.268055067, "Origin_Lat": 6.548437195, "Destination": "Ologunfe Bus stop", "Destination_Long": 3.2634455, "Destination_Lat": 6.54754855, "Distance_km": 0.7, "Duration_min": 8.36, "Route": "- → Idimu-Ikotun Road → Ikotun - Ejigbo Road" }, "geometry": { "type": "LineString", "coordinates": [ [ 3.26815, 6.54846 ], [ 3.26813, 6.54854 ], [ 3.26802, 6.54873 ], [ 3.26794, 6.54845 ], [ 3.26789, 6.54825 ], [ 3.26783, 6.54812 ], [ 3.26776, 6.54814 ], [ 3.26769, 6.54813 ], [ 3.26748, 6.54816 ], [ 3.26708, 6.5483 ], [ 3.26702, 6.54828 ], [ 3.26635, 6.5479 ], [ 3.26569, 6.54758 ], [ 3.26555, 6.5475 ], [ 3.26524, 6.54711 ], [ 3.26513, 6.5469 ], [ 3.26502, 6.54663 ], [ 3.26439, 6.54701 ], [ 3.26394, 6.54724 ], [ 3.26346, 6.54744 ], [ 3.26341, 6.54746 ] ] } },
{ "type": "Feature", "properties": { "Hub": "Ikotun", "Origin": "Ikotun", "Origin_Long": 3.268055067, "Origin_Lat": 6.548437195, "Destination": "AP Filling Station", "Destination_Long": 3.2682242, "Destination_Lat": 6.54832464, "Distance_km": 0.02, "Duration_min": 0.19, "Route": "-" }, "geometry": { "type": "LineString", "coordinates": [ [ 3.26815, 6.54846 ], [ 3.26818, 6.54832 ] ] } },
{ "type": "Feature", "properties": { "Hub": "Ikotun", "Origin": "Ikotun", "Origin_Long": 3.268055067, "Origin_Lat": 6.548437195, "Destination": "The Apostolic Church Nigeria", "Destination_Long": 3.26791234, "Destination_Lat": 6.54773783, "Distance_km": 0.17, "Duration_min": 1.98, "Route": "- → Idimu-Ikotun Road → Ikotun - Ejigbo Road" }, "geometry": { "type": "LineString", "coordinates": [ [ 3.26815, 6.54846 ], [ 3.26813, 6.54854 ], [ 3.26802, 6.54873 ], [ 3.26794, 6.54845 ], [ 3.26789, 6.54825 ], [ 3.26783, 6.54812 ], [ 3.2678, 6.54805 ], [ 3.26807, 6.54793 ], [ 3.2679, 6.54791 ] ] } },
{ "type": "Feature", "properties": { "Hub": "Ikotun", "Origin": "Ikotun", "Origin_Long": 3.268055067, "Origin_Lat": 6.548437195, "Destination": "KD Bakery", "Destination_Long": 3.26824157, "Destination_Lat": 6.54770202, "Distance_km": 0.18, "Duration_min": 2.2, "Route": "- → Idimu-Ikotun Road → Ikotun - Ejigbo Road" }, "geometry": { "type": "LineString", "coordinates": [ [ 3.26815, 6.54846 ], [ 3.26813, 6.54854 ], [ 3.26802, 6.54873 ], [ 3.26794, 6.54845 ], [ 3.26789, 6.54825 ], [ 3.26783, 6.54812 ], [ 3.2678, 6.54805 ], [ 3.26807, 6.54793 ], [ 3.26825, 6.54785 ], [ 3.26821, 6.54771 ] ] } },
{ "type": "Feature", "properties": { "Hub": "Ikotun", "Origin": "Ikotun", "Origin_Long": 3.268055067, "Origin_Lat": 6.548437195, "Destination": "LPV Technologies Factory", "Destination_Long": 3.27131255, "Destination_Lat": 6.54779071, "Distance_km": 0.4, "Duration_min": 4.83, "Route": "- → Ikotun - Ejigbo Road" }, "geometry": { "type": "LineString", "coordinates": [ [ 3.26815, 6.54846 ], [ 3.26822, 6.54812 ], [ 3.26828, 6.54793 ], [ 3.26923, 6.54766 ], [ 3.26985, 6.54752 ], [ 3.27033, 6.5474 ], [ 3.27033, 6.54747 ], [ 3.27036, 6.54754 ], [ 3.27039, 6.54757 ], [ 3.27044, 6.54754 ], [ 3.27049, 6.54763 ], [ 3.27054, 6.54765 ], [ 3.27065, 6.54755 ], [ 3.27063, 6.54753 ], [ 3.27094, 6.5473 ] ] } },
{ "type": "Feature", "properties": { "Hub": "Ikotun", "Origin": "Ikotun", "Origin_Long": 3.268055067, "Origin_Lat": 6.548437195, "Destination": "Synagogue Bus Stop", "Destination_Long": 3.27217352, "Destination_Lat": 6.54621303, "Distance_km": 0.55, "Duration_min": 6.57, "Route": "- → Ikotun - Ejigbo Road → Iseoluwapo Street" }, "geometry": { "type": "LineString", "coordinates": [ [ 3.26815, 6.54846 ], [ 3.26822, 6.54812 ], [ 3.26828, 6.54793 ], [ 3.26923, 6.54766 ], [ 3.26985, 6.54752 ], [ 3.27033, 6.5474 ], [ 3.27059, 6.5473 ], [ 3.27076, 6.54722 ], [ 3.27126, 6.54695 ], [ 3.27145, 6.54683 ], [ 3.27158, 6.54674 ], [ 3.27214, 6.54633 ], [ 3.2721, 6.54626 ], [ 3.27217, 6.54621 ] ] } },
{ "type": "Feature", "properties": { "Hub": "Ikotun", "Origin": "Ikotun", "Origin_Long": 3.268055067, "Origin_Lat": 6.548437195, "Destination": "Synagogue Church", "Destination_Long": 3.27293515, "Destination_Lat": 6.5466409, "Distance_km": 0.61, "Duration_min": 7.33, "Route": "- → Ikotun - Ejigbo Road → Iseoluwapo Street" }, "geometry": { "type": "LineString", "coordinates": [ [ 3.26815, 6.54846 ], [ 3.26822, 6.54812 ], [ 3.26828, 6.54793 ], [ 3.26923, 6.54766 ], [ 3.26985, 6.54752 ], [ 3.27033, 6.5474 ], [ 3.27059, 6.5473 ], [ 3.27076, 6.54722 ], [ 3.27126, 6.54695 ], [ 3.27145, 6.54683 ], [ 3.27158, 6.54674 ], [ 3.27214, 6.54633 ], [ 3.2726, 6.5469 ] ] } },
{ "type": "Feature", "properties": { "Hub": "Ikotun", "Origin": "Ikotun", "Origin_Long": 3.268055067, "Origin_Lat": 6.548437195, "Destination": "IPI Factory", "Destination_Long": 3.26999578, "Destination_Lat": 6.54665478, "Distance_km": 0.59, "Duration_min": 7.04, "Route": "- → Ikotun - Ejigbo Road → Nik Chuks Street" }, "geometry": { "type": "LineString", "coordinates": [ [ 3.26815, 6.54846 ], [ 3.26822, 6.54812 ], [ 3.26828, 6.54793 ], [ 3.26923, 6.54766 ], [ 3.26985, 6.54752 ], [ 3.27033, 6.5474 ], [ 3.27059, 6.5473 ], [ 3.27076, 6.54722 ], [ 3.27126, 6.54695 ], [ 3.27121, 6.54687 ], [ 3.27128, 6.54683 ], [ 3.2714, 6.54675 ], [ 3.27099, 6.54606 ], [ 3.27058, 6.54631 ] ] } },
{ "type": "Feature", "properties": { "Hub": "Ikotun", "Origin": "Ikotun", "Origin_Long": 3.268055067, "Origin_Lat": 6.548437195, "Destination": "Bolowupelu", "Destination_Long": 3.2736753, "Destination_Lat": 6.5453024, "Distance_km": 0.73, "Duration_min": 8.8, "Route": "- → Ikotun - Ejigbo Road" }, "geometry": { "type": "LineString", "coordinates": [ [ 3.26815, 6.54846 ], [ 3.26822, 6.54812 ], [ 3.26828, 6.54793 ], [ 3.26923, 6.54766 ], [ 3.26985, 6.54752 ], [ 3.27033, 6.5474 ], [ 3.27059, 6.5473 ], [ 3.27076, 6.54722 ], [ 3.27126, 6.54695 ], [ 3.27145, 6.54683 ], [ 3.27158, 6.54674 ], [ 3.27214, 6.54633 ], [ 3.27316, 6.5456 ], [ 3.27363, 6.54526 ], [ 3.27365, 6.54525 ] ] } },
{ "type": "Feature", "properties": { "Hub": "Ikotun", "Origin": "Ikotun", "Origin_Long": 3.268055067, "Origin_Lat": 6.548437195, "Destination": "Bokku! Mart", "Destination_Long": 3.26244398, "Destination_Lat": 6.54806208, "Distance_km": 0.87, "Duration_min": 10.45, "Route": "- → Idimu-Ikotun Road → Ikotun - Ejigbo Road" }, "geometry": { "type": "LineString", "coordinates": [ [ 3.26815, 6.54846 ], [ 3.26813, 6.54854 ], [ 3.26802, 6.54873 ], [ 3.26794, 6.54845 ], [ 3.26789, 6.54825 ], [ 3.26783, 6.54812 ], [ 3.26776, 6.54814 ], [ 3.26769, 6.54813 ], [ 3.26748, 6.54816 ], [ 3.26708, 6.5483 ], [ 3.26702, 6.54828 ], [ 3.26635, 6.5479 ], [ 3.26569, 6.54758 ], [ 3.26555, 6.5475 ], [ 3.26524, 6.54711 ], [ 3.26513, 6.5469 ], [ 3.26502, 6.54663 ], [ 3.26439, 6.54701 ], [ 3.26394, 6.54724 ], [ 3.26346, 6.54744 ], [ 3.26293, 6.54763 ], [ 3.2622, 6.54786 ], [ 3.26235, 6.54812 ] ] } },
{ "type": "Feature", "properties": { "Hub": "Ikotun", "Origin": "Ikotun", "Origin_Long": 3.268055067, "Origin_Lat": 6.548437195, "Destination": "Lagos State Fire Services", "Destination_Long": 3.26924814, "Destination_Lat": 6.55278476, "Distance_km": 0.51, "Duration_min": 6.07, "Route": "- → Idimu-Ikotun Road" }, "geometry": { "type": "LineString", "coordinates": [ [ 3.26815, 6.54846 ], [ 3.26813, 6.54854 ], [ 3.26802, 6.54873 ], [ 3.26809, 6.54906 ], [ 3.26838, 6.55007 ], [ 3.2685, 6.55056 ], [ 3.26869, 6.55135 ], [ 3.26874, 6.55157 ], [ 3.26883, 6.55194 ], [ 3.26888, 6.55212 ], [ 3.26892, 6.55231 ], [ 3.26905, 6.55276 ], [ 3.26908, 6.55284 ] ] } },
{ "type": "Feature", "properties": { "Hub": "Ikotun", "Origin": "Ikotun", "Origin_Long": 3.268055067, "Origin_Lat": 6.548437195, "Destination": "Elf Foundation Primary Health Center", "Destination_Long": 3.26935044, "Destination_Lat": 6.55253664, "Distance_km": 0.48, "Duration_min": 5.79, "Route": "- → Idimu-Ikotun Road" }, "geometry": { "type": "LineString", "coordinates": [ [ 3.26815, 6.54846 ], [ 3.26813, 6.54854 ], [ 3.26802, 6.54873 ], [ 3.26809, 6.54906 ], [ 3.26838, 6.55007 ], [ 3.2685, 6.55056 ], [ 3.26869, 6.55135 ], [ 3.26874, 6.55157 ], [ 3.26883, 6.55194 ], [ 3.26888, 6.55212 ], [ 3.26892, 6.55231 ], [ 3.26925, 6.55221 ] ] } },
{ "type": "Feature", "properties": { "Hub": "Ikotun", "Origin": "Ikotun", "Origin_Long": 3.268055067, "Origin_Lat": 6.548437195, "Destination": "Community Senior Grammar School", "Destination_Long": 3.27016283, "Destination_Lat": 6.55332436, "Distance_km": 0.69, "Duration_min": 8.29, "Route": "- → Idimu-Ikotun Road → Olusesi Street" }, "geometry": { "type": "LineString", "coordinates": [ [ 3.26815, 6.54846 ], [ 3.26813, 6.54854 ], [ 3.26802, 6.54873 ], [ 3.26809, 6.54906 ], [ 3.26838, 6.55007 ], [ 3.2685, 6.55056 ], [ 3.26869, 6.55135 ], [ 3.26874, 6.55157 ], [ 3.26883, 6.55194 ], [ 3.26888, 6.55212 ], [ 3.26892, 6.55231 ], [ 3.26905, 6.55276 ], [ 3.26932, 6.55359 ], [ 3.27018, 6.55339 ] ] } },
{ "type": "Feature", "properties": { "Hub": "Ikotun", "Origin": "Ikotun", "Origin_Long": 3.268055067, "Origin_Lat": 6.548437195, "Destination": "Chicken Republic", "Destination_Long": 3.26982739, "Destination_Lat": 6.55716972, "Distance_km": 1.01, "Duration_min": 12.07, "Route": "- → Idimu-Ikotun Road → Idimu - Ikotun Road" }, "geometry": { "type": "LineString", "coordinates": [ [ 3.26815, 6.54846 ], [ 3.26813, 6.54854 ], [ 3.26802, 6.54873 ], [ 3.26809, 6.54906 ], [ 3.26838, 6.55007 ], [ 3.2685, 6.55056 ], [ 3.26869, 6.55135 ], [ 3.26862, 6.55137 ], [ 3.26886, 6.55233 ], [ 3.26896, 6.55272 ], [ 3.2691, 6.55317 ], [ 3.26925, 6.55362 ], [ 3.26946, 6.55425 ], [ 3.26952, 6.5544 ], [ 3.26961, 6.5546 ], [ 3.26969, 6.55487 ], [ 3.26973, 6.55506 ], [ 3.26976, 6.55547 ], [ 3.26977, 6.55572 ], [ 3.26979, 6.55595 ], [ 3.26989, 6.55717 ] ] } },
{ "type": "Feature", "properties": { "Hub": "Ikotun", "Origin": "Ikotun", "Origin_Long": 3.268055067, "Origin_Lat": 6.548437195, "Destination": "Government Technical College Ikotun", "Destination_Long": 3.26815828, "Destination_Lat": 6.55322693, "Distance_km": 0.65, "Duration_min": 7.81, "Route": "- → Idimu-Ikotun Road → Idimu - Ikotun Road" }, "geometry": { "type": "LineString", "coordinates": [ [ 3.26815, 6.54846 ], [ 3.26813, 6.54854 ], [ 3.26802, 6.54873 ], [ 3.26809, 6.54906 ], [ 3.26838, 6.55007 ], [ 3.2685, 6.55056 ], [ 3.26869, 6.55135 ], [ 3.26862, 6.55137 ], [ 3.26886, 6.55233 ], [ 3.26896, 6.55272 ], [ 3.2691, 6.55317 ], [ 3.269, 6.55319 ], [ 3.26821, 6.55341 ] ] } },
{ "type": "Feature", "properties": { "Hub": "Ikotun", "Origin": "Ikotun", "Origin_Long": 3.268055067, "Origin_Lat": 6.548437195, "Destination": "College Bus Stop", "Destination_Long": 3.2696057, "Destination_Lat": 6.55489587, "Distance_km": 0.76, "Duration_min": 9.12, "Route": "- → Idimu-Ikotun Road → Idimu - Ikotun Road" }, "geometry": { "type": "LineString", "coordinates": [ [ 3.26815, 6.54846 ], [ 3.26813, 6.54854 ], [ 3.26802, 6.54873 ], [ 3.26809, 6.54906 ], [ 3.26838, 6.55007 ], [ 3.2685, 6.55056 ], [ 3.26869, 6.55135 ], [ 3.26862, 6.55137 ], [ 3.26886, 6.55233 ], [ 3.26896, 6.55272 ], [ 3.2691, 6.55317 ], [ 3.26925, 6.55362 ], [ 3.26946, 6.55425 ], [ 3.26952, 6.5544 ], [ 3.26961, 6.5546 ], [ 3.26969, 6.55487 ], [ 3.2696, 6.55489 ] ] } },
{ "type": "Feature", "properties": { "Hub": "Ikotun", "Origin": "Ikotun", "Origin_Long": 3.268055067, "Origin_Lat": 6.548437195, "Destination": "Apostle Obadare Comprehensive College", "Destination_Long": 3.27518918, "Destination_Lat": 6.55049985, "Distance_km": 1.13, "Duration_min": 13.53, "Route": "- → Ikotun - Ejigbo Road → Iseoluwapo Street" }, "geometry": { "type": "LineString", "coordinates": [ [ 3.26815, 6.54846 ], [ 3.26822, 6.54812 ], [ 3.26828, 6.54793 ], [ 3.26923, 6.54766 ], [ 3.26985, 6.54752 ], [ 3.27033, 6.5474 ], [ 3.27059, 6.5473 ], [ 3.27076, 6.54722 ], [ 3.27126, 6.54695 ], [ 3.27145, 6.54683 ], [ 3.27158, 6.54674 ], [ 3.27214, 6.54633 ], [ 3.27345, 6.54796 ], [ 3.27367, 6.54823 ], [ 3.27433, 6.54909 ], [ 3.27442, 6.54921 ], [ 3.27532, 6.55033 ], [ 3.27537, 6.5504 ], [ 3.27522, 6.55054 ] ] } },
{ "type": "Feature", "properties": { "Hub": "Ikotun", "Origin": "Ikotun", "Origin_Long": 3.268055067, "Origin_Lat": 6.548437195, "Destination": "Iron Product Ltd Assembly Plant", "Destination_Long": 3.27346636, "Destination_Lat": 6.55268901, "Distance_km": 1.28, "Duration_min": 15.3, "Route": "- → Idimu-Ikotun Road → Olusesi Street" }, "geometry": { "type": "LineString", "coordinates": [ [ 3.26815, 6.54846 ], [ 3.26813, 6.54854 ], [ 3.26802, 6.54873 ], [ 3.26809, 6.54906 ], [ 3.26838, 6.55007 ], [ 3.2685, 6.55056 ], [ 3.26869, 6.55135 ], [ 3.26874, 6.55157 ], [ 3.26883, 6.55194 ], [ 3.26888, 6.55212 ], [ 3.26892, 6.55231 ], [ 3.26905, 6.55276 ], [ 3.26932, 6.55359 ], [ 3.27028, 6.55336 ], [ 3.2708, 6.55325 ], [ 3.27255, 6.55298 ], [ 3.27259, 6.55315 ], [ 3.27262, 6.5532 ], [ 3.27268, 6.55325 ], [ 3.27369, 6.55364 ], [ 3.27375, 6.5536 ], [ 3.27365, 6.55351 ], [ 3.27407, 6.55315 ], [ 3.27406, 6.5531 ], [ 3.27376, 6.55272 ], [ 3.27365, 6.55256 ] ] } },
{ "type": "Feature", "properties": { "Hub": "Ikotun", "Origin": "Ikotun", "Origin_Long": 3.268055067, "Origin_Lat": 6.548437195, "Destination": "Glorious Hotels", "Destination_Long": 3.2759811, "Destination_Lat": 6.55083106, "Distance_km": 1.18, "Duration_min": 14.22, "Route": "- → Ikotun - Ejigbo Road → Iseoluwapo Street" }, "geometry": { "type": "LineString", "coordinates": [ [ 3.26815, 6.54846 ], [ 3.26822, 6.54812 ], [ 3.26828, 6.54793 ], [ 3.26923, 6.54766 ], [ 3.26985, 6.54752 ], [ 3.27033, 6.5474 ], [ 3.27059, 6.5473 ], [ 3.27076, 6.54722 ], [ 3.27126, 6.54695 ], [ 3.27145, 6.54683 ], [ 3.27158, 6.54674 ], [ 3.27214, 6.54633 ], [ 3.27345, 6.54796 ], [ 3.27367, 6.54823 ], [ 3.27433, 6.54909 ], [ 3.27442, 6.54921 ], [ 3.27532, 6.55033 ], [ 3.27537, 6.5504 ], [ 3.27582, 6.55096 ] ] } },
{ "type": "Feature", "properties": { "Hub": "Ikotun", "Origin": "Ikotun", "Origin_Long": 3.268055067, "Origin_Lat": 6.548437195, "Destination": "Qingqi motocycle Manufacturing Company", "Destination_Long": 3.27377737, "Destination_Lat": 6.54812626, "Distance_km": 0.82, "Duration_min": 9.79, "Route": "- → Ikotun - Ejigbo Road → Iseoluwapo Street" }, "geometry": { "type": "LineString", "coordinates": [ [ 3.26815, 6.54846 ], [ 3.26822, 6.54812 ], [ 3.26828, 6.54793 ], [ 3.26923, 6.54766 ], [ 3.26985, 6.54752 ], [ 3.27033, 6.5474 ], [ 3.27059, 6.5473 ], [ 3.27076, 6.54722 ], [ 3.27126, 6.54695 ], [ 3.27145, 6.54683 ], [ 3.27158, 6.54674 ], [ 3.27214, 6.54633 ], [ 3.27345, 6.54796 ], [ 3.27367, 6.54823 ], [ 3.27378, 6.54813 ] ] } },
{ "type": "Feature", "properties": { "Hub": "Ikotun", "Origin": "Ikotun", "Origin_Long": 3.268055067, "Origin_Lat": 6.548437195, "Destination": "Ikotun Wharehouse", "Destination_Long": 3.27451829, "Destination_Lat": 6.54844909, "Distance_km": 0.99, "Duration_min": 11.85, "Route": "- → Ikotun - Ejigbo Road → Iseoluwapo Street" }, "geometry": { "type": "LineString", "coordinates": [ [ 3.26815, 6.54846 ], [ 3.26822, 6.54812 ], [ 3.26828, 6.54793 ], [ 3.26923, 6.54766 ], [ 3.26985, 6.54752 ], [ 3.27033, 6.5474 ], [ 3.27059, 6.5473 ], [ 3.27076, 6.54722 ], [ 3.27126, 6.54695 ], [ 3.27145, 6.54683 ], [ 3.27158, 6.54674 ], [ 3.27214, 6.54633 ], [ 3.27345, 6.54796 ], [ 3.27367, 6.54823 ], [ 3.27433, 6.54909 ], [ 3.27453, 6.54892 ], [ 3.27429, 6.54866 ] ] } }
]
}
