{
"type": "FeatureCollection",
"name": "Marina_routes",
"crs": { "type": "name", "properties": { "name": "urn:ogc:def:crs:OGC:1.3:CRS84" } },
"features": [
{ "type": "Feature", "properties": { "Origin": "Marina Hub", "Origin_Lon": 3.38957, "Origin_Lat": 6.4509, "Destination": "Tinubu Square", "Destination_Lon": 3.38940995, "Destination_Lat": 6.45384076, "Distance_km": 0.37, "Duration_min": 4.42, "Route": "Old Marina Street, F262 → Odunlami Street → Balabina Street → Custom Street → Broad Street" }, "geometry": { "type": "LineString", "coordinates": [ [ 3.38957, 6.45089 ], [ 3.3897, 6.45081 ], [ 3.38973, 6.45086 ], [ 3.38946, 6.45188 ], [ 3.38931, 6.45239 ], [ 3.38913, 6.45354 ], [ 3.38941, 6.45363 ], [ 3.38936, 6.45364 ] ] } },
{ "type": "Feature", "properties": { "Origin": "Marina Hub", "Origin_Lon": 3.38957, "Origin_Lat": 6.4509, "Destination": "Union Bank Head Office", "Destination_Lon": 3.38778659, "Destination_Lat": 6.45216456, "Distance_km": 0.24, "Duration_min": 2.91, "Route": "Old Marina Street, F262" }, "geometry": { "type": "LineString", "coordinates": [ [ 3.38957, 6.45089 ], [ 3.38911, 6.45119 ], [ 3.3884, 6.45165 ], [ 3.38816, 6.45179 ], [ 3.38804, 6.45188 ], [ 3.38782, 6.45203 ], [ 3.38774, 6.4521 ] ] } },
{ "type": "Feature", "properties": { "Origin": "Marina Hub", "Origin_Lon": 3.38957, "Origin_Lat": 6.4509, "Destination": "Church Missionary Society", "Destination_Lon": 3.3895197, "Destination_Lat": 6.45183864, "Distance_km": 0.14, "Duration_min": 1.63, "Route": "Old Marina Street, F262 → Odunlami Street → Balabina Street" }, "geometry": { "type": "LineString", "coordinates": [ [ 3.38957, 6.45089 ], [ 3.3897, 6.45081 ], [ 3.38973, 6.45086 ], [ 3.38947, 6.45183 ] ] } },
{ "type": "Feature", "properties": { "Origin": "Marina Hub", "Origin_Lon": 3.38957, "Origin_Lat": 6.4509, "Destination": "Lagos Central Mosque", "Destination_Lon": 3.38801009, "Destination_Lat": 6.45735825, "Distance_km": 0.86, "Duration_min": 10.26, "Route": "Old Marina Street, F262 → Odunlami Street → Balabina Street → Broad Street → Nnamdi Azikiwe Street" }, "geometry": { "type": "LineString", "coordinates": [ [ 3.38957, 6.45089 ], [ 3.3897, 6.45081 ], [ 3.38973, 6.45086 ], [ 3.38946, 6.45188 ], [ 3.38931, 6.45239 ], [ 3.38913, 6.45354 ], [ 3.38913, 6.4538 ], [ 3.38904, 6.45391 ], [ 3.38894, 6.45397 ], [ 3.38871, 6.45407 ], [ 3.38919, 6.45417 ], [ 3.38905, 6.45427 ], [ 3.38894, 6.45439 ], [ 3.38886, 6.45451 ], [ 3.38869, 6.45494 ], [ 3.38852, 6.45538 ], [ 3.38833, 6.45582 ], [ 3.38824, 6.45608 ], [ 3.38812, 6.45633 ], [ 3.388, 6.45657 ], [ 3.3879, 6.45683 ], [ 3.38781, 6.45716 ], [ 3.38777, 6.45729 ] ] } },
{ "type": "Feature", "properties": { "Origin": "Marina Hub", "Origin_Lon": 3.38957, "Origin_Lat": 6.4509, "Destination": "St. John's Anglican Church", "Destination_Lon": 3.39025907, "Destination_Lat": 6.45670515, "Distance_km": 0.81, "Duration_min": 9.69, "Route": "Old Marina Street, F262 → Odunlami Street → Broad Street → Ali Street → Alli Street → Onikepo → Palm Church Street" }, "geometry": { "type": "LineString", "coordinates": [ [ 3.38957, 6.45089 ], [ 3.3897, 6.45081 ], [ 3.38973, 6.45086 ], [ 3.39071, 6.45171 ], [ 3.39033, 6.45248 ], [ 3.39026, 6.45261 ], [ 3.38985, 6.45339 ], [ 3.38975, 6.45393 ], [ 3.38997, 6.45402 ], [ 3.39005, 6.45428 ], [ 3.39012, 6.45452 ], [ 3.3902, 6.45475 ], [ 3.39025, 6.45489 ], [ 3.39044, 6.45534 ], [ 3.39054, 6.45552 ], [ 3.3908, 6.45571 ], [ 3.39073, 6.45581 ], [ 3.39051, 6.45607 ], [ 3.39042, 6.45624 ], [ 3.39038, 6.45636 ], [ 3.39036, 6.45649 ], [ 3.39026, 6.4566 ], [ 3.39021, 6.45666 ] ] } },
{ "type": "Feature", "properties": { "Origin": "Marina Hub", "Origin_Lon": 3.38957, "Origin_Lat": 6.4509, "Destination": "Campos Memorial Mini Stadium", "Destination_Lon": 3.39469167, "Destination_Lat": 6.45101585, "Distance_km": 0.67, "Duration_min": 8.03, "Route": "Old Marina Street, F262 → Odunlami Street → Broad Street → Ajele Street → Campbell Street" }, "geometry": { "type": "LineString", "coordinates": [ [ 3.38957, 6.45089 ], [ 3.3897, 6.45081 ], [ 3.38973, 6.45086 ], [ 3.39071, 6.45171 ], [ 3.39117, 6.4514 ], [ 3.39141, 6.45124 ], [ 3.39178, 6.45099 ], [ 3.39212, 6.45076 ], [ 3.3925, 6.45097 ], [ 3.39336, 6.45149 ], [ 3.3936, 6.45129 ], [ 3.39369, 6.45124 ], [ 3.39455, 6.45076 ] ] } },
{ "type": "Feature", "properties": { "Origin": "Marina Hub", "Origin_Lon": 3.38957, "Origin_Lat": 6.4509, "Destination": "Freedom Park Lagos", "Destination_Lon": 3.3965999, "Destination_Lat": 6.44890366, "Distance_km": 0.93, "Duration_min": 11.15, "Route": "Old Marina Street, F262 → Odunlami Street → Broad Street" }, "geometry": { "type": "LineString", "coordinates": [ [ 3.38957, 6.45089 ], [ 3.3897, 6.45081 ], [ 3.38973, 6.45086 ], [ 3.39071, 6.45171 ], [ 3.39117, 6.4514 ], [ 3.39141, 6.45124 ], [ 3.39178, 6.45099 ], [ 3.39212, 6.45076 ], [ 3.39314, 6.45017 ], [ 3.39364, 6.44988 ], [ 3.39444, 6.44942 ], [ 3.39524, 6.44893 ], [ 3.39577, 6.4486 ], [ 3.39612, 6.44842 ], [ 3.39637, 6.4489 ] ] } },
{ "type": "Feature", "properties": { "Origin": "Marina Hub", "Origin_Lon": 3.38957, "Origin_Lat": 6.4509, "Destination": "General Hospital Odan Lagos", "Destination_Lon": 3.39713323, "Destination_Lat": 6.44751416, "Distance_km": 1.02, "Duration_min": 12.24, "Route": "Old Marina Street, F262 → Odunlami Street → Broad Street" }, "geometry": { "type": "LineString", "coordinates": [ [ 3.38957, 6.45089 ], [ 3.3897, 6.45081 ], [ 3.38973, 6.45086 ], [ 3.39071, 6.45171 ], [ 3.39117, 6.4514 ], [ 3.39141, 6.45124 ], [ 3.39178, 6.45099 ], [ 3.39212, 6.45076 ], [ 3.39314, 6.45017 ], [ 3.39364, 6.44988 ], [ 3.39444, 6.44942 ], [ 3.39524, 6.44893 ], [ 3.39577, 6.4486 ], [ 3.39612, 6.44842 ], [ 3.39668, 6.44815 ], [ 3.39728, 6.44771 ] ] } },
{ "type": "Feature", "properties": { "Origin": "Marina Hub", "Origin_Lon": 3.38957, "Origin_Lat": 6.4509, "Destination": "Marina Train Station", "Destination_Lon": 3.39475904, "Destination_Lat": 6.44626083, "Distance_km": 0.85, "Duration_min": 10.21, "Route": "Old Marina Street, F262 → New Marina Road, F264" }, "geometry": { "type": "LineString", "coordinates": [ [ 3.38957, 6.45089 ], [ 3.3897, 6.45081 ], [ 3.38953, 6.45069 ], [ 3.38944, 6.4506 ], [ 3.38934, 6.45041 ], [ 3.38931, 6.45032 ], [ 3.38934, 6.45023 ], [ 3.3894, 6.45013 ], [ 3.38969, 6.44985 ], [ 3.38996, 6.44968 ], [ 3.38993, 6.44963 ], [ 3.39026, 6.44943 ], [ 3.39186, 6.44843 ], [ 3.39336, 6.44742 ], [ 3.39485, 6.44639 ] ] } },
{ "type": "Feature", "properties": { "Origin": "Marina Hub", "Origin_Lon": 3.38957, "Origin_Lat": 6.4509, "Destination": "Marina/CMS Ferry terminal", "Destination_Lon": 3.38995578, "Destination_Lat": 6.44910165, "Distance_km": 0.36, "Duration_min": 4.31, "Route": "Old Marina Street, F262" }, "geometry": { "type": "LineString", "coordinates": [ [ 3.38957, 6.45089 ], [ 3.3897, 6.45081 ], [ 3.38953, 6.45069 ], [ 3.38944, 6.4506 ], [ 3.38934, 6.45041 ], [ 3.38931, 6.45032 ], [ 3.38934, 6.45023 ], [ 3.3894, 6.45013 ], [ 3.38969, 6.44985 ], [ 3.38996, 6.44968 ], [ 3.39007, 6.44965 ], [ 3.39023, 6.44956 ], [ 3.39013, 6.44939 ], [ 3.38994, 6.44949 ], [ 3.38986, 6.44935 ], [ 3.39002, 6.44925 ], [ 3.38995, 6.44913 ], [ 3.3898, 6.44915 ], [ 3.38994, 6.44908 ] ] } },
{ "type": "Feature", "properties": { "Origin": "Marina Hub", "Origin_Lon": 3.38957, "Origin_Lat": 6.4509, "Destination": "UBA House", "Destination_Lon": 3.38338837, "Destination_Lat": 6.45557705, "Distance_km": 0.89, "Duration_min": 10.72, "Route": "Old Marina Street, F262 → Balogun Street" }, "geometry": { "type": "LineString", "coordinates": [ [ 3.38957, 6.45089 ], [ 3.38911, 6.45119 ], [ 3.3884, 6.45165 ], [ 3.38816, 6.45179 ], [ 3.38804, 6.45188 ], [ 3.38782, 6.45203 ], [ 3.38764, 6.45217 ], [ 3.38762, 6.45219 ], [ 3.38737, 6.45237 ], [ 3.38699, 6.45265 ], [ 3.38679, 6.4528 ], [ 3.38677, 6.45281 ], [ 3.3865, 6.45299 ], [ 3.38628, 6.45314 ], [ 3.38619, 6.45321 ], [ 3.38609, 6.45327 ], [ 3.38588, 6.45343 ], [ 3.38572, 6.45356 ], [ 3.38531, 6.45382 ], [ 3.38506, 6.45396 ], [ 3.38472, 6.45415 ], [ 3.38438, 6.45439 ], [ 3.38356, 6.45488 ], [ 3.38325, 6.45511 ], [ 3.38351, 6.4555 ] ] } }
]
}
