{
"type": "FeatureCollection",
"name": "Mile 2_routes",
"crs": { "type": "name", "properties": { "name": "urn:ogc:def:crs:OGC:1.3:CRS84" } },
"features": [
{ "type": "Feature", "properties": { "Hub": "Mile 2", "Origin": "Mile 2", "Origin_Long": 3.311727575, "Origin_Lat": 6.460267289, "Destination": "Mile 2 Ferry Terminal", "Destination_Long": 3.30812343, "Destination_Lat": 6.45872255, "Distance_km": 5.43, "Duration_min": 54.3, "Route": "- → Lagos-Badagry Expressway → 1st Avenue → publictechstudio-121 → publictechstudio-157" }, "geometry": { "type": "LineString", "coordinates": [ [ 3.31173, 6.46036 ], [ 3.31128, 6.46036 ], [ 3.311, 6.46041 ], [ 3.3105, 6.46044 ], [ 3.3103, 6.46047 ], [ 3.31021, 6.46052 ], [ 3.31014, 6.46052 ], [ 3.30999, 6.46047 ], [ 3.31005, 6.46031 ], [ 3.31006, 6.46019 ], [ 3.30985, 6.46019 ], [ 3.30867, 6.46021 ], [ 3.3079, 6.46026 ], [ 3.30704, 6.46028 ], [ 3.30698, 6.46028 ], [ 3.30542, 6.46027 ], [ 3.30372, 6.46019 ], [ 3.30206, 6.4602 ], [ 3.30141, 6.46018 ], [ 3.30128, 6.46031 ], [ 3.30125, 6.46036 ], [ 3.30124, 6.46045 ], [ 3.30126, 6.46111 ], [ 3.30125, 6.46131 ], [ 3.30118, 6.46178 ], [ 3.30113, 6.462 ], [ 3.30101, 6.46232 ], [ 3.30084, 6.46276 ], [ 3.30081, 6.46282 ], [ 3.30054, 6.46329 ], [ 3.29871, 6.46623 ], [ 3.29836, 6.4668 ], [ 3.29813, 6.46713 ], [ 3.29709, 6.46881 ], [ 3.29453, 6.47297 ], [ 3.29396, 6.4741 ], [ 3.2938, 6.47437 ], [ 3.29388, 6.4744 ], [ 3.29402, 6.47449 ], [ 3.29407, 6.47442 ], [ 3.29431, 6.47459 ], [ 3.29504, 6.47355 ], [ 3.29821, 6.46862 ], [ 3.30087, 6.46428 ], [ 3.30513, 6.46116 ], [ 3.30774, 6.45907 ], [ 3.3081, 6.4587 ] ] } },
{ "type": "Feature", "properties": { "Hub": "Mile 2", "Origin": "Mile 2", "Origin_Long": 3.311727575, "Origin_Lat": 6.460267289, "Destination": "IOGC Gas", "Destination_Long": 3.30940346, "Destination_Lat": 6.46064891, "Distance_km": 0.32, "Duration_min": 3.86, "Route": "- → Lagos-Badagry Expressway → Jakande Estate Road" }, "geometry": { "type": "LineString", "coordinates": [ [ 3.31173, 6.46036 ], [ 3.31128, 6.46036 ], [ 3.311, 6.46041 ], [ 3.3105, 6.46044 ], [ 3.3103, 6.46047 ], [ 3.31021, 6.46052 ], [ 3.31014, 6.46052 ], [ 3.30999, 6.46047 ], [ 3.31005, 6.46031 ], [ 3.31006, 6.46019 ], [ 3.30985, 6.46019 ], [ 3.30988, 6.46035 ], [ 3.3094, 6.46035 ] ] } },
{ "type": "Feature", "properties": { "Hub": "Mile 2", "Origin": "Mile 2", "Origin_Long": 3.311727575, "Origin_Lat": 6.460267289, "Destination": "Mile2 Shopping Center", "Destination_Long": 3.31065089, "Destination_Lat": 6.46152766, "Distance_km": 0.49, "Duration_min": 5.89, "Route": "-" }, "geometry": { "type": "LineString", "coordinates": [ [ 3.31173, 6.46036 ], [ 3.31128, 6.46036 ], [ 3.311, 6.46041 ], [ 3.3105, 6.46044 ], [ 3.3103, 6.46047 ], [ 3.31021, 6.46052 ], [ 3.31014, 6.46052 ], [ 3.31017, 6.46056 ], [ 3.31018, 6.4607 ], [ 3.31023, 6.46073 ], [ 3.31033, 6.46075 ], [ 3.31038, 6.46074 ], [ 3.31125, 6.46079 ], [ 3.3112, 6.46106 ], [ 3.31052, 6.46107 ], [ 3.31037, 6.4611 ], [ 3.31031, 6.46115 ], [ 3.31028, 6.46122 ], [ 3.31026, 6.46139 ], [ 3.31026, 6.46153 ] ] } },
{ "type": "Feature", "properties": { "Hub": "Mile 2", "Origin": "Mile 2", "Origin_Long": 3.311727575, "Origin_Lat": 6.460267289, "Destination": "Lagos State Water Corporation", "Destination_Long": 3.31117465, "Destination_Lat": 6.45888844, "Distance_km": 0.76, "Duration_min": 9.16, "Route": "- → Lagos-Badagry Expressway" }, "geometry": { "type": "LineString", "coordinates": [ [ 3.31173, 6.46036 ], [ 3.31128, 6.46036 ], [ 3.311, 6.46041 ], [ 3.3105, 6.46044 ], [ 3.3103, 6.46047 ], [ 3.31021, 6.46052 ], [ 3.31014, 6.46052 ], [ 3.30999, 6.46047 ], [ 3.31005, 6.46031 ], [ 3.31006, 6.46019 ], [ 3.31033, 6.46019 ], [ 3.3105, 6.46027 ], [ 3.31077, 6.46025 ], [ 3.31077, 6.45986 ], [ 3.31078, 6.45947 ], [ 3.31055, 6.45949 ], [ 3.31041, 6.45956 ], [ 3.30936, 6.45955 ], [ 3.30948, 6.45941 ], [ 3.3098, 6.45936 ], [ 3.30992, 6.45938 ], [ 3.31008, 6.45947 ], [ 3.31028, 6.45948 ], [ 3.31061, 6.45943 ], [ 3.31117, 6.45943 ] ] } },
{ "type": "Feature", "properties": { "Hub": "Mile 2", "Origin": "Mile 2", "Origin_Long": 3.311727575, "Origin_Lat": 6.460267289, "Destination": "Mile 2 interchange", "Destination_Long": 3.31546169, "Destination_Lat": 6.45982459, "Distance_km": 0.77, "Duration_min": 9.2, "Route": "- → Lagos-Badagry Expressway → Apapa-Oworonshoki Expressway" }, "geometry": { "type": "LineString", "coordinates": [ [ 3.31173, 6.46036 ], [ 3.31177, 6.46036 ], [ 3.31209, 6.46031 ], [ 3.31305, 6.46033 ], [ 3.31346, 6.46038 ], [ 3.31369, 6.46036 ], [ 3.31349, 6.46027 ], [ 3.313, 6.46013 ], [ 3.31463, 6.4601 ], [ 3.31455, 6.46017 ], [ 3.3145, 6.46029 ], [ 3.31447, 6.46042 ], [ 3.31447, 6.46056 ], [ 3.31451, 6.46068 ], [ 3.31461, 6.46081 ], [ 3.31471, 6.4609 ], [ 3.31487, 6.46095 ], [ 3.31502, 6.46096 ], [ 3.31516, 6.46093 ], [ 3.31525, 6.46088 ], [ 3.31534, 6.46079 ], [ 3.31542, 6.46068 ], [ 3.31545, 6.46056 ], [ 3.31546, 6.46039 ], [ 3.31541, 6.46015 ], [ 3.31535, 6.45985 ] ] } },
{ "type": "Feature", "properties": { "Hub": "Mile 2", "Origin": "Mile 2", "Origin_Long": 3.311727575, "Origin_Lat": 6.460267289, "Destination": "Iganmu Senior High School", "Destination_Long": 3.31426753, "Destination_Lat": 6.46263557, "Distance_km": 0.81, "Duration_min": 9.67, "Route": "-" }, "geometry": { "type": "LineString", "coordinates": [ [ 3.31173, 6.46036 ], [ 3.31128, 6.46036 ], [ 3.311, 6.46041 ], [ 3.3105, 6.46044 ], [ 3.3103, 6.46047 ], [ 3.31021, 6.46052 ], [ 3.31014, 6.46052 ], [ 3.31017, 6.46056 ], [ 3.31018, 6.4607 ], [ 3.31023, 6.46073 ], [ 3.31033, 6.46075 ], [ 3.31038, 6.46074 ], [ 3.31125, 6.46079 ], [ 3.31213, 6.46077 ], [ 3.31234, 6.46082 ], [ 3.31323, 6.46083 ], [ 3.31334, 6.46086 ], [ 3.31338, 6.46091 ], [ 3.31338, 6.4611 ], [ 3.31368, 6.46111 ], [ 3.31378, 6.46116 ], [ 3.31383, 6.46121 ], [ 3.31393, 6.46136 ], [ 3.31424, 6.46199 ], [ 3.31424, 6.46213 ], [ 3.31415, 6.46231 ], [ 3.31418, 6.46242 ], [ 3.31428, 6.46263 ] ] } },
{ "type": "Feature", "properties": { "Hub": "Mile 2", "Origin": "Mile 2", "Origin_Long": 3.311727575, "Origin_Lat": 6.460267289, "Destination": "Mile 2 Blue Rail Train Station", "Destination_Long": 3.31216637, "Destination_Lat": 6.45990164, "Distance_km": 0.39, "Duration_min": 4.66, "Route": "- → Lagos-Badagry Expressway" }, "geometry": { "type": "LineString", "coordinates": [ [ 3.31173, 6.46036 ], [ 3.31177, 6.46036 ], [ 3.31209, 6.46031 ], [ 3.31305, 6.46033 ], [ 3.31346, 6.46038 ], [ 3.31369, 6.46036 ], [ 3.31349, 6.46027 ], [ 3.313, 6.46013 ], [ 3.31288, 6.46013 ], [ 3.31217, 6.46016 ] ] } },
{ "type": "Feature", "properties": { "Hub": "Mile 2", "Origin": "Mile 2", "Origin_Long": 3.311727575, "Origin_Lat": 6.460267289, "Destination": "Maza Maza Bus stop", "Destination_Long": 3.30403297, "Destination_Lat": 6.45944286, "Distance_km": 1.18, "Duration_min": 14.2, "Route": "- → Lagos-Badagry Expressway" }, "geometry": { "type": "LineString", "coordinates": [ [ 3.31173, 6.46036 ], [ 3.31128, 6.46036 ], [ 3.311, 6.46041 ], [ 3.3105, 6.46044 ], [ 3.3103, 6.46047 ], [ 3.31021, 6.46052 ], [ 3.31014, 6.46052 ], [ 3.30999, 6.46047 ], [ 3.31005, 6.46031 ], [ 3.31006, 6.46019 ], [ 3.31033, 6.46019 ], [ 3.3105, 6.46027 ], [ 3.31077, 6.46025 ], [ 3.31077, 6.45986 ], [ 3.31078, 6.45947 ], [ 3.31055, 6.45949 ], [ 3.31041, 6.45956 ], [ 3.30936, 6.45955 ], [ 3.30762, 6.45963 ], [ 3.30584, 6.45961 ], [ 3.30395, 6.45956 ], [ 3.30393, 6.45937 ], [ 3.30404, 6.45938 ] ] } },
{ "type": "Feature", "properties": { "Hub": "Mile 2", "Origin": "Mile 2", "Origin_Long": 3.311727575, "Origin_Lat": 6.460267289, "Destination": "Community Central Mosque", "Destination_Long": 3.31448404, "Destination_Lat": 6.4650001, "Distance_km": 1.18, "Duration_min": 14.2, "Route": "- → Adeola Johnson Street" }, "geometry": { "type": "LineString", "coordinates": [ [ 3.31173, 6.46036 ], [ 3.31128, 6.46036 ], [ 3.311, 6.46041 ], [ 3.3105, 6.46044 ], [ 3.3103, 6.46047 ], [ 3.31021, 6.46052 ], [ 3.31014, 6.46052 ], [ 3.31017, 6.46056 ], [ 3.31018, 6.4607 ], [ 3.31023, 6.46073 ], [ 3.31033, 6.46075 ], [ 3.31038, 6.46074 ], [ 3.31125, 6.46079 ], [ 3.31213, 6.46077 ], [ 3.31234, 6.46082 ], [ 3.31323, 6.46083 ], [ 3.31334, 6.46086 ], [ 3.31338, 6.46091 ], [ 3.31338, 6.4611 ], [ 3.31368, 6.46111 ], [ 3.31378, 6.46116 ], [ 3.31383, 6.46121 ], [ 3.31393, 6.46136 ], [ 3.31424, 6.46199 ], [ 3.31481, 6.46299 ], [ 3.31434, 6.46327 ], [ 3.31411, 6.46337 ], [ 3.31418, 6.46366 ], [ 3.31421, 6.46383 ], [ 3.31423, 6.46448 ], [ 3.31423, 6.46523 ], [ 3.31449, 6.46522 ] ] } },
{ "type": "Feature", "properties": { "Hub": "Mile 2", "Origin": "Mile 2", "Origin_Long": 3.311727575, "Origin_Lat": 6.460267289, "Destination": "Agofure motor park", "Destination_Long": 3.31673467, "Destination_Lat": 6.45910214, "Distance_km": 1.21, "Duration_min": 14.56, "Route": "- → Lagos-Badagry Expressway" }, "geometry": { "type": "LineString", "coordinates": [ [ 3.31173, 6.46036 ], [ 3.31177, 6.46036 ], [ 3.31209, 6.46031 ], [ 3.31305, 6.46033 ], [ 3.31346, 6.46038 ], [ 3.31369, 6.46036 ], [ 3.31349, 6.46027 ], [ 3.313, 6.46013 ], [ 3.31288, 6.46013 ], [ 3.31277, 6.46026 ], [ 3.31251, 6.46022 ], [ 3.31252, 6.45986 ], [ 3.31253, 6.45944 ], [ 3.31276, 6.45949 ], [ 3.31292, 6.45962 ], [ 3.31307, 6.45962 ], [ 3.31455, 6.45967 ], [ 3.31621, 6.45971 ], [ 3.3167, 6.45977 ], [ 3.31715, 6.45985 ], [ 3.31789, 6.46003 ], [ 3.31764, 6.45993 ], [ 3.31746, 6.45982 ], [ 3.31695, 6.45935 ], [ 3.31673, 6.45911 ] ] } }
]
}
