{
"type": "FeatureCollection",
"name": "Odunade_routes",
"crs": { "type": "name", "properties": { "name": "urn:ogc:def:crs:OGC:1.3:CRS84" } },
"features": [
{ "type": "Feature", "properties": { "Hub": "Odunade", "Origin": "Odunade", "Origin_Long": 3.331378453, "Origin_Lat": 6.469149072, "Destination": "GT Bank", "Destination_Long": 3.32931979, "Destination_Lat": 6.4687114, "Distance_km": 0.33, "Duration_min": 3.92, "Route": "Lagos-Badagry Expressway → -" }, "geometry": { "type": "LineString", "coordinates": [ [ 3.33146, 6.46904 ], [ 3.33129, 6.46891 ], [ 3.33101, 6.46871 ], [ 3.331, 6.4686 ], [ 3.33083, 6.46846 ], [ 3.33041, 6.46907 ], [ 3.33025, 6.46894 ], [ 3.33023, 6.46883 ], [ 3.3302, 6.46882 ], [ 3.33009, 6.46895 ], [ 3.32961, 6.46863 ], [ 3.32941, 6.46853 ] ] } },
{ "type": "Feature", "properties": { "Hub": "Odunade", "Origin": "Odunade", "Origin_Long": 3.331378453, "Origin_Lat": 6.469149072, "Destination": "Rhine Industries Nigeria Limited", "Destination_Long": 3.33107575, "Destination_Lat": 6.47002724, "Distance_km": 0.31, "Duration_min": 3.75, "Route": "Lagos-Badagry Expressway → -" }, "geometry": { "type": "LineString", "coordinates": [ [ 3.33146, 6.46904 ], [ 3.33129, 6.46891 ], [ 3.33101, 6.46871 ], [ 3.331, 6.4686 ], [ 3.33083, 6.46846 ], [ 3.33041, 6.46907 ], [ 3.33057, 6.46919 ], [ 3.33079, 6.46921 ], [ 3.33135, 6.46964 ], [ 3.3314, 6.46968 ] ] } },
{ "type": "Feature", "properties": { "Hub": "Odunade", "Origin": "Odunade", "Origin_Long": 3.331378453, "Origin_Lat": 6.469149072, "Destination": "Orile market", "Destination_Long": 3.33036637, "Destination_Lat": 6.46758615, "Distance_km": 0.23, "Duration_min": 2.73, "Route": "Lagos-Badagry Expressway → -" }, "geometry": { "type": "LineString", "coordinates": [ [ 3.33146, 6.46904 ], [ 3.33129, 6.46891 ], [ 3.33101, 6.46871 ], [ 3.33055, 6.46836 ], [ 3.33039, 6.46825 ], [ 3.33045, 6.46819 ], [ 3.33053, 6.46811 ], [ 3.33059, 6.46791 ], [ 3.33062, 6.46766 ], [ 3.33062, 6.4676 ] ] } },
{ "type": "Feature", "properties": { "Hub": "Odunade", "Origin": "Odunade", "Origin_Long": 3.331378453, "Origin_Lat": 6.469149072, "Destination": "Coker Primary School", "Destination_Long": 3.33219349, "Destination_Lat": 6.47324712, "Distance_km": 0.81, "Duration_min": 9.75, "Route": "Lagos-Badagry Expressway → - → Akinwande Street" }, "geometry": { "type": "LineString", "coordinates": [ [ 3.33146, 6.46904 ], [ 3.33129, 6.46891 ], [ 3.33101, 6.46871 ], [ 3.331, 6.4686 ], [ 3.33083, 6.46846 ], [ 3.33041, 6.46907 ], [ 3.33057, 6.46919 ], [ 3.33079, 6.46921 ], [ 3.33135, 6.46964 ], [ 3.33215, 6.47035 ], [ 3.333, 6.47099 ], [ 3.33274, 6.47138 ], [ 3.33207, 6.4723 ], [ 3.33179, 6.47281 ], [ 3.33176, 6.47287 ], [ 3.33181, 6.47293 ], [ 3.33177, 6.47302 ] ] } },
{ "type": "Feature", "properties": { "Hub": "Odunade", "Origin": "Odunade", "Origin_Long": 3.331378453, "Origin_Lat": 6.469149072, "Destination": "Ibijola Medical Centre And Maternity Home", "Destination_Long": 3.33774167, "Destination_Lat": 6.47262499, "Distance_km": 0.95, "Duration_min": 11.36, "Route": "Lagos-Badagry Expressway → -" }, "geometry": { "type": "LineString", "coordinates": [ [ 3.33146, 6.46904 ], [ 3.33201, 6.46943 ], [ 3.33253, 6.46982 ], [ 3.33306, 6.47019 ], [ 3.33362, 6.47055 ], [ 3.33405, 6.47086 ], [ 3.33436, 6.47107 ], [ 3.33514, 6.47154 ], [ 3.33591, 6.472 ], [ 3.33619, 6.47217 ], [ 3.33663, 6.47249 ], [ 3.33753, 6.47315 ], [ 3.33778, 6.47337 ], [ 3.33796, 6.47315 ], [ 3.33802, 6.47309 ], [ 3.33763, 6.47275 ] ] } },
{ "type": "Feature", "properties": { "Hub": "Odunade", "Origin": "Odunade", "Origin_Long": 3.331378453, "Origin_Lat": 6.469149072, "Destination": "Itire bus stop", "Destination_Long": 3.33315187, "Destination_Lat": 6.46640649, "Distance_km": 0.59, "Duration_min": 7.12, "Route": "Lagos-Badagry Expressway → - → Moshalashi Street" }, "geometry": { "type": "LineString", "coordinates": [ [ 3.33146, 6.46904 ], [ 3.33129, 6.46891 ], [ 3.33101, 6.46871 ], [ 3.33055, 6.46836 ], [ 3.33039, 6.46825 ], [ 3.33045, 6.46819 ], [ 3.33053, 6.46811 ], [ 3.33059, 6.46791 ], [ 3.33062, 6.46766 ], [ 3.33064, 6.46719 ], [ 3.33124, 6.46708 ], [ 3.33209, 6.46688 ], [ 3.33273, 6.46672 ], [ 3.33276, 6.46671 ], [ 3.33277, 6.46668 ], [ 3.33277, 6.46637 ], [ 3.33303, 6.46637 ], [ 3.33315, 6.46635 ] ] } },
{ "type": "Feature", "properties": { "Hub": "Odunade", "Origin": "Odunade", "Origin_Long": 3.331378453, "Origin_Lat": 6.469149072, "Destination": "Alaba Market", "Destination_Long": 3.32655088, "Destination_Lat": 6.46465853, "Distance_km": 0.94, "Duration_min": 11.3, "Route": "Lagos-Badagry Expressway → -" }, "geometry": { "type": "LineString", "coordinates": [ [ 3.33146, 6.46904 ], [ 3.33129, 6.46891 ], [ 3.33101, 6.46871 ], [ 3.33055, 6.46836 ], [ 3.33039, 6.46825 ], [ 3.32948, 6.46755 ], [ 3.32852, 6.46684 ], [ 3.32688, 6.46562 ], [ 3.32664, 6.4655 ], [ 3.32655, 6.46544 ], [ 3.32632, 6.46529 ], [ 3.32562, 6.46478 ], [ 3.32568, 6.46467 ], [ 3.3257, 6.46462 ], [ 3.32585, 6.46431 ], [ 3.32588, 6.46431 ], [ 3.32602, 6.46433 ], [ 3.32623, 6.46442 ], [ 3.32658, 6.46447 ] ] } }
]
}
