{
"type": "FeatureCollection",
"name": "Ojota_routes",
"crs": { "type": "name", "properties": { "name": "urn:ogc:def:crs:OGC:1.3:CRS84" } },
"features": [
{ "type": "Feature", "properties": { "Hub": "Ojota", "Origin": "Ojota", "Origin_Long": 3.379200133, "Origin_Lat": 6.588358532, "Destination": "Arowolo Filling station", "Destination_Long": 3.37560949, "Destination_Lat": 6.58276435, "Distance_km": 0.93, "Duration_min": 11.21, "Route": "- → Ikorodu Road" }, "geometry": { "type": "LineString", "coordinates": [ [ 3.37913, 6.58841 ], [ 3.37912, 6.58842 ], [ 3.37896, 6.5882 ], [ 3.37872, 6.58786 ], [ 3.37871, 6.58794 ], [ 3.37878, 6.58805 ], [ 3.37918, 6.58775 ], [ 3.37927, 6.58789 ], [ 3.37932, 6.58801 ], [ 3.37907, 6.58767 ], [ 3.37887, 6.58738 ], [ 3.37829, 6.58659 ], [ 3.37811, 6.58633 ], [ 3.3771, 6.58495 ], [ 3.37668, 6.58438 ], [ 3.37654, 6.58419 ], [ 3.3763, 6.58387 ], [ 3.37609, 6.58364 ], [ 3.37571, 6.58331 ], [ 3.37553, 6.58309 ], [ 3.37546, 6.58297 ], [ 3.37543, 6.5829 ], [ 3.3754, 6.58285 ], [ 3.37556, 6.58271 ] ] } },
{ "type": "Feature", "properties": { "Hub": "Ojota", "Origin": "Ojota", "Origin_Long": 3.379200133, "Origin_Lat": 6.588358532, "Destination": "Berger Motor Park", "Destination_Long": 3.37667113, "Destination_Lat": 6.5819902, "Distance_km": 1.09, "Duration_min": 13.09, "Route": "- → Ikorodu Road" }, "geometry": { "type": "LineString", "coordinates": [ [ 3.37913, 6.58841 ], [ 3.37912, 6.58842 ], [ 3.37896, 6.5882 ], [ 3.37872, 6.58786 ], [ 3.37871, 6.58794 ], [ 3.37878, 6.58805 ], [ 3.37918, 6.58775 ], [ 3.37927, 6.58789 ], [ 3.37932, 6.58801 ], [ 3.37907, 6.58767 ], [ 3.37887, 6.58738 ], [ 3.37829, 6.58659 ], [ 3.37811, 6.58633 ], [ 3.3771, 6.58495 ], [ 3.37668, 6.58438 ], [ 3.37654, 6.58419 ], [ 3.3763, 6.58387 ], [ 3.37609, 6.58364 ], [ 3.37571, 6.58331 ], [ 3.37553, 6.58309 ], [ 3.37546, 6.58297 ], [ 3.37543, 6.5829 ], [ 3.3754, 6.58285 ], [ 3.37536, 6.58276 ], [ 3.37587, 6.58235 ], [ 3.37603, 6.58222 ], [ 3.37615, 6.58216 ], [ 3.37631, 6.58212 ], [ 3.37654, 6.58199 ], [ 3.37663, 6.58193 ] ] } },
{ "type": "Feature", "properties": { "Hub": "Ojota", "Origin": "Ojota", "Origin_Long": 3.379200133, "Origin_Lat": 6.588358532, "Destination": "Ojota Snr Sec. School", "Destination_Long": 3.37771734, "Destination_Lat": 6.58322327, "Distance_km": 1.09, "Duration_min": 13.09, "Route": "- → Ikorodu Road" }, "geometry": { "type": "LineString", "coordinates": [ [ 3.37913, 6.58841 ], [ 3.37912, 6.58842 ], [ 3.37896, 6.5882 ], [ 3.37872, 6.58786 ], [ 3.37871, 6.58794 ], [ 3.37878, 6.58805 ], [ 3.37918, 6.58775 ], [ 3.37927, 6.58789 ], [ 3.37932, 6.58801 ], [ 3.37907, 6.58767 ], [ 3.37887, 6.58738 ], [ 3.37829, 6.58659 ], [ 3.37811, 6.58633 ], [ 3.3771, 6.58495 ], [ 3.37668, 6.58438 ], [ 3.37654, 6.58419 ], [ 3.3763, 6.58387 ], [ 3.37609, 6.58364 ], [ 3.37571, 6.58331 ], [ 3.37573, 6.58316 ], [ 3.37576, 6.5831 ], [ 3.37585, 6.58303 ], [ 3.37594, 6.58299 ], [ 3.37652, 6.58293 ], [ 3.37668, 6.58321 ], [ 3.37675, 6.5832 ], [ 3.37687, 6.58317 ], [ 3.3774, 6.58279 ] ] } },
{ "type": "Feature", "properties": { "Hub": "Ojota", "Origin": "Ojota", "Origin_Long": 3.379200133, "Origin_Lat": 6.588358532, "Destination": "GAC Motors Assembly Plant", "Destination_Long": 3.37622632, "Destination_Lat": 6.58542291, "Distance_km": 0.46, "Duration_min": 5.56, "Route": "- → Ikorodu Road" }, "geometry": { "type": "LineString", "coordinates": [ [ 3.37913, 6.58841 ], [ 3.37912, 6.58842 ], [ 3.37896, 6.5882 ], [ 3.37872, 6.58786 ], [ 3.37845, 6.58747 ], [ 3.37843, 6.58745 ], [ 3.37829, 6.58724 ], [ 3.37823, 6.58715 ], [ 3.3779, 6.5867 ], [ 3.3776, 6.58628 ], [ 3.37722, 6.58576 ], [ 3.37674, 6.58511 ], [ 3.37667, 6.58517 ] ] } },
{ "type": "Feature", "properties": { "Hub": "Ojota", "Origin": "Ojota", "Origin_Long": 3.379200133, "Origin_Lat": 6.588358532, "Destination": "Ojota Bus stop", "Destination_Long": 3.37926911, "Destination_Lat": 6.58780481, "Distance_km": 0.17, "Duration_min": 2.0, "Route": "- → Ikorodu Road" }, "geometry": { "type": "LineString", "coordinates": [ [ 3.37913, 6.58841 ], [ 3.37912, 6.58842 ], [ 3.37896, 6.5882 ], [ 3.37872, 6.58786 ], [ 3.37871, 6.58794 ], [ 3.37878, 6.58805 ], [ 3.37918, 6.58775 ], [ 3.37923, 6.58783 ] ] } },
{ "type": "Feature", "properties": { "Hub": "Ojota", "Origin": "Ojota", "Origin_Long": 3.379200133, "Origin_Lat": 6.588358532, "Destination": "Bus Park", "Destination_Long": 3.37850432, "Destination_Lat": 6.58883196, "Distance_km": 0.15, "Duration_min": 1.78, "Route": "- → Ikorodu Road → Kudirat Abiola Way" }, "geometry": { "type": "LineString", "coordinates": [ [ 3.37913, 6.58841 ], [ 3.37912, 6.58842 ], [ 3.37932, 6.58868 ], [ 3.37921, 6.58857 ], [ 3.37897, 6.58875 ], [ 3.37885, 6.58879 ], [ 3.37876, 6.58885 ], [ 3.3786, 6.58891 ], [ 3.37852, 6.58888 ], [ 3.37848, 6.58885 ] ] } },
{ "type": "Feature", "properties": { "Hub": "Ojota", "Origin": "Ojota", "Origin_Long": 3.379200133, "Origin_Lat": 6.588358532, "Destination": "Ojota Bus Park", "Destination_Long": 3.38085429, "Destination_Lat": 6.58910725, "Distance_km": 0.4, "Duration_min": 4.81, "Route": "- → Ikorodu Road" }, "geometry": { "type": "LineString", "coordinates": [ [ 3.37913, 6.58841 ], [ 3.37912, 6.58842 ], [ 3.37932, 6.58868 ], [ 3.37939, 6.58878 ], [ 3.37935, 6.58888 ], [ 3.37966, 6.5893 ], [ 3.38011, 6.58901 ], [ 3.38048, 6.58955 ], [ 3.38047, 6.58959 ], [ 3.38049, 6.58962 ], [ 3.38068, 6.58986 ], [ 3.38095, 6.58961 ], [ 3.381, 6.58953 ], [ 3.38102, 6.58944 ], [ 3.38089, 6.58909 ] ] } },
{ "type": "Feature", "properties": { "Hub": "Ojota", "Origin": "Ojota", "Origin_Long": 3.379200133, "Origin_Lat": 6.588358532, "Destination": "MRS Filling station", "Destination_Long": 3.38006984, "Destination_Lat": 6.58867642, "Distance_km": 0.23, "Duration_min": 2.8, "Route": "- → Ikorodu Road" }, "geometry": { "type": "LineString", "coordinates": [ [ 3.37913, 6.58841 ], [ 3.37912, 6.58842 ], [ 3.37932, 6.58868 ], [ 3.37939, 6.58878 ], [ 3.37935, 6.58888 ], [ 3.37966, 6.5893 ], [ 3.38011, 6.58901 ], [ 3.38002, 6.58891 ], [ 3.37996, 6.5889 ], [ 3.37993, 6.58886 ], [ 3.38011, 6.58874 ] ] } },
{ "type": "Feature", "properties": { "Hub": "Ojota", "Origin": "Ojota", "Origin_Long": 3.379200133, "Origin_Lat": 6.588358532, "Destination": "Howson Wright Estate", "Destination_Long": 3.3740175, "Destination_Lat": 6.58638484, "Distance_km": 0.88, "Duration_min": 10.54, "Route": "- → Ikorodu Road → Kudirat Abiola Way → Olorunfunmi Street" }, "geometry": { "type": "LineString", "coordinates": [ [ 3.37913, 6.58841 ], [ 3.37912, 6.58842 ], [ 3.37896, 6.5882 ], [ 3.37897, 6.58834 ], [ 3.37893, 6.58841 ], [ 3.37887, 6.58846 ], [ 3.37873, 6.58852 ], [ 3.37835, 6.58867 ], [ 3.37682, 6.58945 ], [ 3.37651, 6.58958 ], [ 3.37633, 6.58963 ], [ 3.37609, 6.58968 ], [ 3.37565, 6.58972 ], [ 3.37544, 6.58975 ], [ 3.37484, 6.58878 ], [ 3.37463, 6.58844 ], [ 3.3744, 6.58815 ], [ 3.37419, 6.58799 ], [ 3.37385, 6.5875 ], [ 3.3734, 6.58684 ], [ 3.37336, 6.58678 ] ] } },
{ "type": "Feature", "properties": { "Hub": "Ojota", "Origin": "Ojota", "Origin_Long": 3.379200133, "Origin_Lat": 6.588358532, "Destination": "UAC Foods Limited", "Destination_Long": 3.37680534, "Destination_Lat": 6.58760604, "Distance_km": 0.33, "Duration_min": 4.0, "Route": "- → Ikorodu Road" }, "geometry": { "type": "LineString", "coordinates": [ [ 3.37913, 6.58841 ], [ 3.37912, 6.58842 ], [ 3.37896, 6.5882 ], [ 3.37872, 6.58786 ], [ 3.37845, 6.58747 ], [ 3.37843, 6.58745 ], [ 3.37829, 6.58724 ], [ 3.37823, 6.58715 ], [ 3.37699, 6.58791 ] ] } },
{ "type": "Feature", "properties": { "Hub": "Ojota", "Origin": "Ojota", "Origin_Long": 3.379200133, "Origin_Lat": 6.588358532, "Destination": "St. Jude's Anglican Church", "Destination_Long": 3.37992855, "Destination_Lat": 6.58333339, "Distance_km": 0.89, "Duration_min": 10.62, "Route": "- → Ikorodu Road → Aina Street  → Aina Street" }, "geometry": { "type": "LineString", "coordinates": [ [ 3.37913, 6.58841 ], [ 3.37912, 6.58842 ], [ 3.37896, 6.5882 ], [ 3.37872, 6.58786 ], [ 3.37871, 6.58794 ], [ 3.37878, 6.58805 ], [ 3.37918, 6.58775 ], [ 3.37927, 6.58789 ], [ 3.37932, 6.58801 ], [ 3.37907, 6.58767 ], [ 3.37961, 6.58722 ], [ 3.37917, 6.58652 ], [ 3.37892, 6.58615 ], [ 3.37951, 6.58573 ], [ 3.37994, 6.58539 ], [ 3.38017, 6.58517 ], [ 3.38033, 6.58506 ], [ 3.38069, 6.58478 ], [ 3.37979, 6.58343 ] ] } },
{ "type": "Feature", "properties": { "Hub": "Ojota", "Origin": "Ojota", "Origin_Long": 3.379200133, "Origin_Lat": 6.588358532, "Destination": "Industrial Training Fund", "Destination_Long": 3.3745022, "Destination_Lat": 6.58744355, "Distance_km": 0.82, "Duration_min": 9.84, "Route": "- → Ikorodu Road → Kudirat Abiola Way → Olorunfunmi Street" }, "geometry": { "type": "LineString", "coordinates": [ [ 3.37913, 6.58841 ], [ 3.37912, 6.58842 ], [ 3.37896, 6.5882 ], [ 3.37897, 6.58834 ], [ 3.37893, 6.58841 ], [ 3.37887, 6.58846 ], [ 3.37873, 6.58852 ], [ 3.37835, 6.58867 ], [ 3.37682, 6.58945 ], [ 3.37651, 6.58958 ], [ 3.37633, 6.58963 ], [ 3.37609, 6.58968 ], [ 3.37565, 6.58972 ], [ 3.37544, 6.58975 ], [ 3.37484, 6.58878 ], [ 3.37463, 6.58844 ], [ 3.3744, 6.58815 ], [ 3.37429, 6.58795 ], [ 3.374, 6.58752 ], [ 3.37415, 6.58743 ], [ 3.37426, 6.58734 ], [ 3.37438, 6.58726 ] ] } },
{ "type": "Feature", "properties": { "Hub": "Ojota", "Origin": "Ojota", "Origin_Long": 3.379200133, "Origin_Lat": 6.588358532, "Destination": "Residential Areas", "Destination_Long": 3.37595474, "Destination_Lat": 6.58037219, "Distance_km": 1.26, "Duration_min": 15.17, "Route": "- → Ikorodu Road" }, "geometry": { "type": "LineString", "coordinates": [ [ 3.37913, 6.58841 ], [ 3.37912, 6.58842 ], [ 3.37896, 6.5882 ], [ 3.37872, 6.58786 ], [ 3.37871, 6.58794 ], [ 3.37878, 6.58805 ], [ 3.37918, 6.58775 ], [ 3.37927, 6.58789 ], [ 3.37932, 6.58801 ], [ 3.37907, 6.58767 ], [ 3.37887, 6.58738 ], [ 3.37829, 6.58659 ], [ 3.37811, 6.58633 ], [ 3.3771, 6.58495 ], [ 3.37668, 6.58438 ], [ 3.37654, 6.58419 ], [ 3.3763, 6.58387 ], [ 3.37609, 6.58364 ], [ 3.37571, 6.58331 ], [ 3.37553, 6.58309 ], [ 3.37546, 6.58297 ], [ 3.37543, 6.5829 ], [ 3.3754, 6.58285 ], [ 3.37536, 6.58276 ], [ 3.37519, 6.5824 ], [ 3.37528, 6.58232 ], [ 3.37484, 6.58141 ], [ 3.37484, 6.58136 ], [ 3.37486, 6.58132 ], [ 3.37496, 6.58128 ], [ 3.37532, 6.58107 ], [ 3.37583, 6.58065 ], [ 3.37604, 6.58047 ] ] } },
{ "type": "Feature", "properties": { "Hub": "Ojota", "Origin": "Ojota", "Origin_Long": 3.379200133, "Origin_Lat": 6.588358532, "Destination": "Gani Fawehinmi Park", "Destination_Long": 3.38188953, "Destination_Lat": 6.59336224, "Distance_km": 0.63, "Duration_min": 7.53, "Route": "- → Ikorodu Road" }, "geometry": { "type": "LineString", "coordinates": [ [ 3.37913, 6.58841 ], [ 3.37912, 6.58842 ], [ 3.37932, 6.58868 ], [ 3.37939, 6.58878 ], [ 3.37967, 6.58916 ], [ 3.37991, 6.58949 ], [ 3.38021, 6.58992 ], [ 3.38031, 6.59006 ], [ 3.38056, 6.59042 ], [ 3.38062, 6.5905 ], [ 3.38071, 6.59063 ], [ 3.38102, 6.59099 ], [ 3.38246, 6.59295 ] ] } },
{ "type": "Feature", "properties": { "Hub": "Ojota", "Origin": "Ojota", "Origin_Long": 3.379200133, "Origin_Lat": 6.588358532, "Destination": "LAMATA PLACE", "Destination_Long": 3.38327753, "Destination_Lat": 6.59501592, "Distance_km": 0.88, "Duration_min": 10.55, "Route": "- → Ikorodu Road" }, "geometry": { "type": "LineString", "coordinates": [ [ 3.37913, 6.58841 ], [ 3.37912, 6.58842 ], [ 3.37932, 6.58868 ], [ 3.37939, 6.58878 ], [ 3.37967, 6.58916 ], [ 3.37991, 6.58949 ], [ 3.38021, 6.58992 ], [ 3.38031, 6.59006 ], [ 3.38056, 6.59042 ], [ 3.38062, 6.5905 ], [ 3.38071, 6.59063 ], [ 3.38102, 6.59099 ], [ 3.38261, 6.59316 ], [ 3.38338, 6.59424 ], [ 3.38329, 6.59433 ], [ 3.38295, 6.59478 ] ] } },
{ "type": "Feature", "properties": { "Hub": "Ojota", "Origin": "Ojota", "Origin_Long": 3.379200133, "Origin_Lat": 6.588358532, "Destination": "Ojota Interchange", "Destination_Long": 3.38308571, "Destination_Lat": 6.59339868, "Distance_km": 0.77, "Duration_min": 9.27, "Route": "- → Ikorodu Road" }, "geometry": { "type": "LineString", "coordinates": [ [ 3.37913, 6.58841 ], [ 3.37912, 6.58842 ], [ 3.37932, 6.58868 ], [ 3.37939, 6.58878 ], [ 3.37935, 6.58888 ], [ 3.37966, 6.5893 ], [ 3.38011, 6.58901 ], [ 3.38048, 6.58955 ], [ 3.38047, 6.58959 ], [ 3.38049, 6.58962 ], [ 3.38068, 6.58986 ], [ 3.38082, 6.59005 ], [ 3.3809, 6.59017 ], [ 3.38102, 6.59033 ], [ 3.38129, 6.5907 ], [ 3.38257, 6.59249 ], [ 3.38316, 6.59335 ] ] } },
{ "type": "Feature", "properties": { "Hub": "Ojota", "Origin": "Ojota", "Origin_Long": 3.379200133, "Origin_Lat": 6.588358532, "Destination": "LAGBUS Garage", "Destination_Long": 3.37825469, "Destination_Lat": 6.59791331, "Distance_km": 1.29, "Duration_min": 15.51, "Route": "- → Ikorodu Road" }, "geometry": { "type": "LineString", "coordinates": [ [ 3.37913, 6.58841 ], [ 3.37912, 6.58842 ], [ 3.37932, 6.58868 ], [ 3.37939, 6.58878 ], [ 3.37967, 6.58916 ], [ 3.37991, 6.58949 ], [ 3.38021, 6.58992 ], [ 3.38031, 6.59006 ], [ 3.38056, 6.59042 ], [ 3.38062, 6.5905 ], [ 3.38071, 6.59063 ], [ 3.38063, 6.59089 ], [ 3.38066, 6.59101 ], [ 3.38089, 6.59177 ], [ 3.38106, 6.59247 ], [ 3.38111, 6.59297 ], [ 3.38108, 6.59375 ], [ 3.38105, 6.59398 ], [ 3.38094, 6.59442 ], [ 3.38073, 6.595 ], [ 3.38062, 6.59539 ], [ 3.38046, 6.59578 ], [ 3.37993, 6.5968 ], [ 3.37961, 6.5973 ], [ 3.37926, 6.59775 ], [ 3.37885, 6.59756 ], [ 3.37862, 6.59746 ], [ 3.37854, 6.59747 ], [ 3.37814, 6.59774 ] ] } },
{ "type": "Feature", "properties": { "Hub": "Ojota", "Origin": "Ojota", "Origin_Long": 3.379200133, "Origin_Lat": 6.588358532, "Destination": "China Town", "Destination_Long": 3.38609818, "Destination_Lat": 6.58881646, "Distance_km": 1.19, "Duration_min": 14.33, "Route": "- → Ikorodu Road → Ogudu Road → Taiwo Street" }, "geometry": { "type": "LineString", "coordinates": [ [ 3.37913, 6.58841 ], [ 3.37912, 6.58842 ], [ 3.37932, 6.58868 ], [ 3.37939, 6.58878 ], [ 3.37935, 6.58888 ], [ 3.37966, 6.5893 ], [ 3.38011, 6.58901 ], [ 3.38002, 6.58891 ], [ 3.37996, 6.5889 ], [ 3.37993, 6.58886 ], [ 3.38021, 6.58867 ], [ 3.38025, 6.58862 ], [ 3.38027, 6.58856 ], [ 3.38018, 6.58839 ], [ 3.38011, 6.58826 ], [ 3.38036, 6.58814 ], [ 3.38234, 6.58733 ], [ 3.38262, 6.58722 ], [ 3.38302, 6.58705 ], [ 3.38356, 6.58779 ], [ 3.38363, 6.58788 ], [ 3.3843, 6.58882 ], [ 3.38499, 6.58973 ], [ 3.38506, 6.58981 ], [ 3.38513, 6.58983 ], [ 3.3852, 6.58984 ], [ 3.38527, 6.5898 ], [ 3.38534, 6.58975 ], [ 3.38608, 6.58895 ], [ 3.38615, 6.58887 ] ] } },
{ "type": "Feature", "properties": { "Hub": "Ojota", "Origin": "Ojota", "Origin_Long": 3.379200133, "Origin_Lat": 6.588358532, "Destination": "First Bank", "Destination_Long": 3.38264342, "Destination_Lat": 6.58697433, "Distance_km": 0.62, "Duration_min": 7.43, "Route": "- → Ikorodu Road → Ogudu Road" }, "geometry": { "type": "LineString", "coordinates": [ [ 3.37913, 6.58841 ], [ 3.37912, 6.58842 ], [ 3.37896, 6.5882 ], [ 3.37872, 6.58786 ], [ 3.37871, 6.58794 ], [ 3.37878, 6.58805 ], [ 3.37918, 6.58775 ], [ 3.37927, 6.58789 ], [ 3.37932, 6.58801 ], [ 3.37949, 6.58825 ], [ 3.3796, 6.5884 ], [ 3.38006, 6.58819 ], [ 3.38039, 6.58804 ], [ 3.3813, 6.58768 ], [ 3.38232, 6.58726 ], [ 3.3826, 6.58714 ], [ 3.38255, 6.58701 ] ] } },
{ "type": "Feature", "properties": { "Hub": "Ojota", "Origin": "Ojota", "Origin_Long": 3.379200133, "Origin_Lat": 6.588358532, "Destination": "Ojota Jnr Sec. School", "Destination_Long": 3.37771734, "Destination_Lat": 6.58322327, "Distance_km": 1.09, "Duration_min": 13.09, "Route": "- → Ikorodu Road" }, "geometry": { "type": "LineString", "coordinates": [ [ 3.37913, 6.58841 ], [ 3.37912, 6.58842 ], [ 3.37896, 6.5882 ], [ 3.37872, 6.58786 ], [ 3.37871, 6.58794 ], [ 3.37878, 6.58805 ], [ 3.37918, 6.58775 ], [ 3.37927, 6.58789 ], [ 3.37932, 6.58801 ], [ 3.37907, 6.58767 ], [ 3.37887, 6.58738 ], [ 3.37829, 6.58659 ], [ 3.37811, 6.58633 ], [ 3.3771, 6.58495 ], [ 3.37668, 6.58438 ], [ 3.37654, 6.58419 ], [ 3.3763, 6.58387 ], [ 3.37609, 6.58364 ], [ 3.37571, 6.58331 ], [ 3.37573, 6.58316 ], [ 3.37576, 6.5831 ], [ 3.37585, 6.58303 ], [ 3.37594, 6.58299 ], [ 3.37652, 6.58293 ], [ 3.37668, 6.58321 ], [ 3.37675, 6.5832 ], [ 3.37687, 6.58317 ], [ 3.3774, 6.58279 ] ] } }
]
}
