{
"type": "FeatureCollection",
"name": "Oshodi_routes",
"crs": { "type": "name", "properties": { "name": "urn:ogc:def:crs:OGC:1.3:CRS84" } },
"features": [
{ "type": "Feature", "properties": { "Hub": "Oshodi", "Origin": "Oshodi", "Origin_Long": 3.351894639, "Origin_Lat": 6.555757847, "Destination": "Oshodi Terminal 2", "Destination_Long": 3.35104952, "Destination_Lat": 6.55593285, "Distance_km": 0.13, "Duration_min": 1.51, "Route": "-" }, "geometry": { "type": "LineString", "coordinates": [ [ 3.35191, 6.55577 ], [ 3.35184, 6.55593 ], [ 3.35185, 6.55594 ], [ 3.35179, 6.55608 ], [ 3.35143, 6.55592 ], [ 3.35137, 6.55606 ], [ 3.35135, 6.55611 ], [ 3.35118, 6.55603 ] ] } },
{ "type": "Feature", "properties": { "Hub": "Oshodi", "Origin": "Oshodi", "Origin_Long": 3.351894639, "Origin_Lat": 6.555757847, "Destination": "Oshodi Terminal 1", "Destination_Long": 3.3515459, "Destination_Lat": 6.55509048, "Distance_km": 0.1, "Duration_min": 1.21, "Route": "-" }, "geometry": { "type": "LineString", "coordinates": [ [ 3.35191, 6.55577 ], [ 3.35198, 6.55561 ], [ 3.35204, 6.55546 ], [ 3.35171, 6.55534 ], [ 3.35165, 6.55531 ], [ 3.35171, 6.55516 ] ] } },
{ "type": "Feature", "properties": { "Hub": "Oshodi", "Origin": "Oshodi", "Origin_Long": 3.351894639, "Origin_Lat": 6.555757847, "Destination": "Oshodi Terminal 3", "Destination_Long": 3.35245665, "Destination_Lat": 6.55653017, "Distance_km": 0.13, "Duration_min": 1.59, "Route": "-" }, "geometry": { "type": "LineString", "coordinates": [ [ 3.35191, 6.55577 ], [ 3.35184, 6.55593 ], [ 3.35185, 6.55594 ], [ 3.35179, 6.55608 ], [ 3.35202, 6.55618 ], [ 3.35224, 6.55628 ], [ 3.35217, 6.55645 ], [ 3.35216, 6.55648 ], [ 3.3522, 6.55651 ], [ 3.35228, 6.55654 ] ] } },
{ "type": "Feature", "properties": { "Hub": "Oshodi", "Origin": "Oshodi", "Origin_Long": 3.351894639, "Origin_Lat": 6.555757847, "Destination": "Ilupeju Grammar School", "Destination_Long": 3.35376527, "Destination_Lat": 6.55575948, "Distance_km": 0.28, "Duration_min": 3.31, "Route": "- → Apapa-Oworonshoki Expressway → Town Planning Way" }, "geometry": { "type": "LineString", "coordinates": [ [ 3.35191, 6.55577 ], [ 3.35198, 6.55561 ], [ 3.35204, 6.55546 ], [ 3.35229, 6.55556 ], [ 3.35251, 6.55545 ], [ 3.35267, 6.55529 ], [ 3.35284, 6.55523 ], [ 3.35299, 6.5552 ], [ 3.35318, 6.5552 ], [ 3.35342, 6.55525 ], [ 3.35376, 6.55537 ], [ 3.35394, 6.55543 ], [ 3.35391, 6.55553 ] ] } },
{ "type": "Feature", "properties": { "Hub": "Oshodi", "Origin": "Oshodi", "Origin_Long": 3.351894639, "Origin_Lat": 6.555757847, "Destination": "Estate Grammar School", "Destination_Long": 3.35472792, "Destination_Lat": 6.55604529, "Distance_km": 0.37, "Duration_min": 4.42, "Route": "- → Apapa-Oworonshoki Expressway → Town Planning Way" }, "geometry": { "type": "LineString", "coordinates": [ [ 3.35191, 6.55577 ], [ 3.35198, 6.55561 ], [ 3.35204, 6.55546 ], [ 3.35229, 6.55556 ], [ 3.35251, 6.55545 ], [ 3.35267, 6.55529 ], [ 3.35284, 6.55523 ], [ 3.35299, 6.5552 ], [ 3.35318, 6.5552 ], [ 3.35342, 6.55525 ], [ 3.35376, 6.55537 ], [ 3.35394, 6.55543 ], [ 3.35403, 6.55546 ], [ 3.35434, 6.55557 ], [ 3.35483, 6.55574 ] ] } },
{ "type": "Feature", "properties": { "Hub": "Oshodi", "Origin": "Oshodi", "Origin_Long": 3.351894639, "Origin_Lat": 6.555757847, "Destination": "Lagos Metal Warehouse", "Destination_Long": 3.35348079, "Destination_Lat": 6.5590147, "Distance_km": 0.66, "Duration_min": 7.89, "Route": "- → Apapa-Oworonshoki Expressway" }, "geometry": { "type": "LineString", "coordinates": [ [ 3.35191, 6.55577 ], [ 3.35184, 6.55593 ], [ 3.35185, 6.55594 ], [ 3.35179, 6.55608 ], [ 3.35202, 6.55618 ], [ 3.35198, 6.5563 ], [ 3.35208, 6.55647 ], [ 3.35211, 6.55663 ], [ 3.3522, 6.55684 ], [ 3.35226, 6.55693 ], [ 3.3525, 6.55714 ], [ 3.35276, 6.5573 ], [ 3.35293, 6.55738 ], [ 3.35315, 6.5574 ], [ 3.35361, 6.55742 ], [ 3.35412, 6.55737 ], [ 3.35416, 6.55764 ], [ 3.35415, 6.55773 ], [ 3.35403, 6.55816 ], [ 3.35398, 6.55819 ], [ 3.3539, 6.55821 ], [ 3.35327, 6.558 ], [ 3.35321, 6.55799 ], [ 3.35311, 6.55803 ], [ 3.35279, 6.55868 ] ] } },
{ "type": "Feature", "properties": { "Hub": "Oshodi", "Origin": "Oshodi", "Origin_Long": 3.351894639, "Origin_Lat": 6.555757847, "Destination": "Lagos State Drivers Institute, Ilupeju", "Destination_Long": 3.35546498, "Destination_Lat": 6.55996503, "Distance_km": 0.83, "Duration_min": 9.96, "Route": "- → Apapa-Oworonshoki Expressway" }, "geometry": { "type": "LineString", "coordinates": [ [ 3.35191, 6.55577 ], [ 3.35184, 6.55593 ], [ 3.35185, 6.55594 ], [ 3.35179, 6.55608 ], [ 3.35202, 6.55618 ], [ 3.35198, 6.5563 ], [ 3.35208, 6.55647 ], [ 3.35211, 6.55663 ], [ 3.3522, 6.55684 ], [ 3.35226, 6.55693 ], [ 3.3525, 6.55714 ], [ 3.35276, 6.5573 ], [ 3.35293, 6.55738 ], [ 3.35315, 6.5574 ], [ 3.35361, 6.55742 ], [ 3.35412, 6.55737 ], [ 3.35429, 6.55735 ], [ 3.35483, 6.55735 ], [ 3.35497, 6.55736 ], [ 3.35526, 6.55744 ], [ 3.35604, 6.55776 ], [ 3.356, 6.55782 ], [ 3.35599, 6.55789 ], [ 3.3559, 6.55815 ], [ 3.35531, 6.55969 ] ] } },
{ "type": "Feature", "properties": { "Hub": "Oshodi", "Origin": "Oshodi", "Origin_Long": 3.351894639, "Origin_Lat": 6.555757847, "Destination": "LASTMA HQ OFFICE", "Destination_Long": 3.35682139, "Destination_Lat": 6.558255, "Distance_km": 0.7, "Duration_min": 8.42, "Route": "- → Apapa-Oworonshoki Expressway" }, "geometry": { "type": "LineString", "coordinates": [ [ 3.35191, 6.55577 ], [ 3.35184, 6.55593 ], [ 3.35185, 6.55594 ], [ 3.35179, 6.55608 ], [ 3.35202, 6.55618 ], [ 3.35198, 6.5563 ], [ 3.35208, 6.55647 ], [ 3.35211, 6.55663 ], [ 3.3522, 6.55684 ], [ 3.35226, 6.55693 ], [ 3.3525, 6.55714 ], [ 3.35276, 6.5573 ], [ 3.35293, 6.55738 ], [ 3.35315, 6.5574 ], [ 3.35361, 6.55742 ], [ 3.35412, 6.55737 ], [ 3.35429, 6.55735 ], [ 3.35483, 6.55735 ], [ 3.35497, 6.55736 ], [ 3.35526, 6.55744 ], [ 3.35604, 6.55776 ], [ 3.35688, 6.55811 ] ] } },
{ "type": "Feature", "properties": { "Hub": "Oshodi", "Origin": "Oshodi", "Origin_Long": 3.351894639, "Origin_Lat": 6.555757847, "Destination": "RIDA National Plastics Limited", "Destination_Long": 3.35831857, "Destination_Lat": 6.55928236, "Distance_km": 0.92, "Duration_min": 11.06, "Route": "- → Apapa-Oworonshoki Expressway" }, "geometry": { "type": "LineString", "coordinates": [ [ 3.35191, 6.55577 ], [ 3.35184, 6.55593 ], [ 3.35185, 6.55594 ], [ 3.35179, 6.55608 ], [ 3.35202, 6.55618 ], [ 3.35198, 6.5563 ], [ 3.35208, 6.55647 ], [ 3.35211, 6.55663 ], [ 3.3522, 6.55684 ], [ 3.35226, 6.55693 ], [ 3.3525, 6.55714 ], [ 3.35276, 6.5573 ], [ 3.35293, 6.55738 ], [ 3.35315, 6.5574 ], [ 3.35361, 6.55742 ], [ 3.35412, 6.55737 ], [ 3.35429, 6.55735 ], [ 3.35483, 6.55735 ], [ 3.35497, 6.55736 ], [ 3.35526, 6.55744 ], [ 3.35604, 6.55776 ], [ 3.35699, 6.55816 ], [ 3.35712, 6.5582 ], [ 3.35727, 6.55825 ], [ 3.35777, 6.55838 ], [ 3.35804, 6.55842 ], [ 3.35787, 6.55918 ] ] } },
{ "type": "Feature", "properties": { "Hub": "Oshodi", "Origin": "Oshodi", "Origin_Long": 3.351894639, "Origin_Lat": 6.555757847, "Destination": "Orange Group", "Destination_Long": 3.35714913, "Destination_Lat": 6.55696485, "Distance_km": 0.74, "Duration_min": 8.85, "Route": "- → Apapa-Oworonshoki Expressway → Town Planning Way" }, "geometry": { "type": "LineString", "coordinates": [ [ 3.35191, 6.55577 ], [ 3.35198, 6.55561 ], [ 3.35204, 6.55546 ], [ 3.35229, 6.55556 ], [ 3.35251, 6.55545 ], [ 3.35267, 6.55529 ], [ 3.35284, 6.55523 ], [ 3.35299, 6.5552 ], [ 3.35318, 6.5552 ], [ 3.35342, 6.55525 ], [ 3.35376, 6.55537 ], [ 3.35394, 6.55543 ], [ 3.35403, 6.55546 ], [ 3.35434, 6.55557 ], [ 3.3557, 6.55603 ], [ 3.35641, 6.55628 ], [ 3.35662, 6.55636 ], [ 3.35682, 6.55645 ], [ 3.35737, 6.55665 ], [ 3.35762, 6.55676 ], [ 3.35747, 6.5571 ] ] } },
{ "type": "Feature", "properties": { "Hub": "Oshodi", "Origin": "Oshodi", "Origin_Long": 3.351894639, "Origin_Lat": 6.555757847, "Destination": "PZ Cussons Group Training Center", "Destination_Long": 3.3572902, "Destination_Lat": 6.55478931, "Distance_km": 1.26, "Duration_min": 15.09, "Route": "- → Apapa-Oworonshoki Expressway → Town Planning Way → Ilupeju Industrual Avenue" }, "geometry": { "type": "LineString", "coordinates": [ [ 3.35191, 6.55577 ], [ 3.35198, 6.55561 ], [ 3.35204, 6.55546 ], [ 3.35229, 6.55556 ], [ 3.35251, 6.55545 ], [ 3.35267, 6.55529 ], [ 3.35284, 6.55523 ], [ 3.35299, 6.5552 ], [ 3.35318, 6.5552 ], [ 3.35342, 6.55525 ], [ 3.35376, 6.55537 ], [ 3.35404, 6.55523 ], [ 3.35413, 6.55506 ], [ 3.35432, 6.5546 ], [ 3.35443, 6.55433 ], [ 3.35445, 6.55428 ], [ 3.35491, 6.55318 ], [ 3.35519, 6.55254 ], [ 3.35537, 6.5521 ], [ 3.35555, 6.55165 ], [ 3.35561, 6.55168 ], [ 3.35683, 6.55219 ], [ 3.35701, 6.55227 ], [ 3.35722, 6.55236 ], [ 3.35788, 6.55263 ], [ 3.35806, 6.5527 ], [ 3.35714, 6.55472 ] ] } },
{ "type": "Feature", "properties": { "Hub": "Oshodi", "Origin": "Oshodi", "Origin_Long": 3.351894639, "Origin_Lat": 6.555757847, "Destination": "Darlington Hall Event Centre", "Destination_Long": 3.35846404, "Destination_Lat": 6.55498481, "Distance_km": 0.99, "Duration_min": 11.88, "Route": "- → Apapa-Oworonshoki Expressway → Town Planning Way → Industrial Cresent" }, "geometry": { "type": "LineString", "coordinates": [ [ 3.35191, 6.55577 ], [ 3.35198, 6.55561 ], [ 3.35204, 6.55546 ], [ 3.35229, 6.55556 ], [ 3.35251, 6.55545 ], [ 3.35267, 6.55529 ], [ 3.35284, 6.55523 ], [ 3.35299, 6.5552 ], [ 3.35318, 6.5552 ], [ 3.35342, 6.55525 ], [ 3.35376, 6.55537 ], [ 3.35394, 6.55543 ], [ 3.35403, 6.55546 ], [ 3.35434, 6.55557 ], [ 3.3557, 6.55603 ], [ 3.35641, 6.55628 ], [ 3.35662, 6.55636 ], [ 3.35682, 6.55645 ], [ 3.35737, 6.55665 ], [ 3.35821, 6.55463 ], [ 3.35869, 6.55484 ], [ 3.3587, 6.55487 ], [ 3.35865, 6.55504 ] ] } },
{ "type": "Feature", "properties": { "Hub": "Oshodi", "Origin": "Oshodi", "Origin_Long": 3.351894639, "Origin_Lat": 6.555757847, "Destination": "Nestle Nigeria PLC Ilupeju Lagos", "Destination_Long": 3.35490719, "Destination_Lat": 6.55087189, "Distance_km": 0.88, "Duration_min": 10.53, "Route": "- → Apapa-Oworonshoki Expressway → Town Planning Way → Ilupeju Industrual Avenue" }, "geometry": { "type": "LineString", "coordinates": [ [ 3.35191, 6.55577 ], [ 3.35198, 6.55561 ], [ 3.35204, 6.55546 ], [ 3.35229, 6.55556 ], [ 3.35251, 6.55545 ], [ 3.35267, 6.55529 ], [ 3.35284, 6.55523 ], [ 3.35299, 6.5552 ], [ 3.35318, 6.5552 ], [ 3.35342, 6.55525 ], [ 3.35376, 6.55537 ], [ 3.35404, 6.55523 ], [ 3.35413, 6.55506 ], [ 3.35432, 6.5546 ], [ 3.35443, 6.55433 ], [ 3.35445, 6.55428 ], [ 3.35491, 6.55318 ], [ 3.35519, 6.55254 ], [ 3.35537, 6.5521 ], [ 3.35555, 6.55165 ], [ 3.35577, 6.5511 ], [ 3.35566, 6.55112 ], [ 3.35556, 6.55101 ], [ 3.35495, 6.55076 ] ] } },
{ "type": "Feature", "properties": { "Hub": "Oshodi", "Origin": "Oshodi", "Origin_Long": 3.351894639, "Origin_Lat": 6.555757847, "Destination": "The Fountain Of Life Church", "Destination_Long": 3.35539252, "Destination_Lat": 6.5532234, "Distance_km": 0.56, "Duration_min": 6.74, "Route": "- → Apapa-Oworonshoki Expressway → Town Planning Way" }, "geometry": { "type": "LineString", "coordinates": [ [ 3.35191, 6.55577 ], [ 3.35198, 6.55561 ], [ 3.35204, 6.55546 ], [ 3.35229, 6.55556 ], [ 3.35251, 6.55545 ], [ 3.35267, 6.55529 ], [ 3.35284, 6.55523 ], [ 3.35299, 6.5552 ], [ 3.35318, 6.5552 ], [ 3.35342, 6.55525 ], [ 3.35376, 6.55537 ], [ 3.35394, 6.55543 ], [ 3.35403, 6.55546 ], [ 3.35414, 6.55517 ], [ 3.35417, 6.55507 ], [ 3.35421, 6.55499 ], [ 3.35433, 6.55473 ], [ 3.35449, 6.55436 ], [ 3.3548, 6.55362 ], [ 3.35503, 6.55307 ] ] } },
{ "type": "Feature", "properties": { "Hub": "Oshodi", "Origin": "Oshodi", "Origin_Long": 3.351894639, "Origin_Lat": 6.555757847, "Destination": "Digital Bridge Institute", "Destination_Long": 3.35169078, "Destination_Lat": 6.54987018, "Distance_km": 0.93, "Duration_min": 11.14, "Route": "- → Agege Motor Road, A5" }, "geometry": { "type": "LineString", "coordinates": [ [ 3.35191, 6.55577 ], [ 3.35184, 6.55593 ], [ 3.35174, 6.55589 ], [ 3.35269, 6.55363 ], [ 3.35261, 6.55358 ], [ 3.35374, 6.55084 ], [ 3.3539, 6.55044 ], [ 3.3533, 6.55032 ], [ 3.35311, 6.5503 ], [ 3.3528, 6.55033 ], [ 3.35179, 6.55049 ] ] } },
{ "type": "Feature", "properties": { "Hub": "Oshodi", "Origin": "Oshodi", "Origin_Long": 3.351894639, "Origin_Lat": 6.555757847, "Destination": "NOUN", "Destination_Long": 3.35289169, "Destination_Lat": 6.54844063, "Distance_km": 1.1, "Duration_min": 13.2, "Route": "- → Agege Motor Road, A5" }, "geometry": { "type": "LineString", "coordinates": [ [ 3.35191, 6.55577 ], [ 3.35184, 6.55593 ], [ 3.35174, 6.55589 ], [ 3.35269, 6.55363 ], [ 3.35261, 6.55358 ], [ 3.35374, 6.55084 ], [ 3.3539, 6.55044 ], [ 3.3547, 6.54845 ], [ 3.3534, 6.54763 ] ] } },
{ "type": "Feature", "properties": { "Hub": "Oshodi", "Origin": "Oshodi", "Origin_Long": 3.351894639, "Origin_Lat": 6.555757847, "Destination": "Oshodi Federal Medical Center", "Destination_Long": 3.34991383, "Destination_Lat": 6.55053811, "Distance_km": 1.13, "Duration_min": 13.51, "Route": "- → Agege Motor Road, A5" }, "geometry": { "type": "LineString", "coordinates": [ [ 3.35191, 6.55577 ], [ 3.35184, 6.55593 ], [ 3.35174, 6.55589 ], [ 3.35269, 6.55363 ], [ 3.35261, 6.55358 ], [ 3.35374, 6.55084 ], [ 3.3539, 6.55044 ], [ 3.3533, 6.55032 ], [ 3.35311, 6.5503 ], [ 3.3528, 6.55033 ], [ 3.35174, 6.55049 ], [ 3.35127, 6.55056 ], [ 3.35069, 6.55066 ], [ 3.35064, 6.55067 ], [ 3.35025, 6.55072 ], [ 3.35022, 6.55049 ] ] } },
{ "type": "Feature", "properties": { "Hub": "Oshodi", "Origin": "Oshodi", "Origin_Long": 3.351894639, "Origin_Lat": 6.555757847, "Destination": "Aviation Staff Quarters, Cappa-Oshodi", "Destination_Long": 3.35137307, "Destination_Lat": 6.55230754, "Distance_km": 1.3, "Duration_min": 15.66, "Route": "- → Agege Motor Road, A5" }, "geometry": { "type": "LineString", "coordinates": [ [ 3.35191, 6.55577 ], [ 3.35184, 6.55593 ], [ 3.35174, 6.55589 ], [ 3.35269, 6.55363 ], [ 3.35261, 6.55358 ], [ 3.35374, 6.55084 ], [ 3.3539, 6.55044 ], [ 3.3533, 6.55032 ], [ 3.35311, 6.5503 ], [ 3.3528, 6.55033 ], [ 3.35174, 6.55049 ], [ 3.35127, 6.55056 ], [ 3.35069, 6.55066 ], [ 3.35064, 6.55067 ], [ 3.35025, 6.55072 ], [ 3.35022, 6.55121 ], [ 3.35024, 6.55127 ], [ 3.35031, 6.55133 ], [ 3.35067, 6.55157 ], [ 3.35089, 6.55179 ], [ 3.35106, 6.55183 ], [ 3.35132, 6.5518 ] ] } },
{ "type": "Feature", "properties": { "Hub": "Oshodi", "Origin": "Oshodi", "Origin_Long": 3.351894639, "Origin_Lat": 6.555757847, "Destination": "Federal Central Medical Stores", "Destination_Long": 3.34957271, "Destination_Lat": 6.55116363, "Distance_km": 1.15, "Duration_min": 13.85, "Route": "- → Agege Motor Road, A5" }, "geometry": { "type": "LineString", "coordinates": [ [ 3.35191, 6.55577 ], [ 3.35184, 6.55593 ], [ 3.35174, 6.55589 ], [ 3.35269, 6.55363 ], [ 3.35261, 6.55358 ], [ 3.35374, 6.55084 ], [ 3.3539, 6.55044 ], [ 3.3533, 6.55032 ], [ 3.35311, 6.5503 ], [ 3.3528, 6.55033 ], [ 3.35174, 6.55049 ], [ 3.35127, 6.55056 ], [ 3.35069, 6.55066 ], [ 3.35064, 6.55067 ], [ 3.35025, 6.55072 ], [ 3.35022, 6.55121 ] ] } },
{ "type": "Feature", "properties": { "Hub": "Oshodi", "Origin": "Oshodi", "Origin_Long": 3.351894639, "Origin_Lat": 6.555757847, "Destination": "NAFDAC Central Laboratory", "Destination_Long": 3.3489553, "Destination_Lat": 6.55319795, "Distance_km": 0.52, "Duration_min": 6.29, "Route": "- → Apapa-Oworonshoki Expressway" }, "geometry": { "type": "LineString", "coordinates": [ [ 3.35191, 6.55577 ], [ 3.35198, 6.55561 ], [ 3.35204, 6.55546 ], [ 3.35171, 6.55534 ], [ 3.35165, 6.55531 ], [ 3.35185, 6.55485 ], [ 3.35196, 6.55469 ], [ 3.35179, 6.55474 ], [ 3.35157, 6.55462 ], [ 3.35104, 6.55439 ], [ 3.35091, 6.55436 ], [ 3.35072, 6.55437 ], [ 3.35024, 6.5546 ], [ 3.35008, 6.55464 ], [ 3.34988, 6.55463 ], [ 3.34896, 6.5544 ], [ 3.34901, 6.55429 ] ] } },
{ "type": "Feature", "properties": { "Hub": "Oshodi", "Origin": "Oshodi", "Origin_Long": 3.351894639, "Origin_Lat": 6.555757847, "Destination": "MeCure Industries PLC", "Destination_Long": 3.34699183, "Destination_Lat": 6.55268736, "Distance_km": 0.8, "Duration_min": 9.62, "Route": "- → Apapa-Oworonshoki Expressway" }, "geometry": { "type": "LineString", "coordinates": [ [ 3.35191, 6.55577 ], [ 3.35198, 6.55561 ], [ 3.35204, 6.55546 ], [ 3.35171, 6.55534 ], [ 3.35165, 6.55531 ], [ 3.35185, 6.55485 ], [ 3.35196, 6.55469 ], [ 3.35179, 6.55474 ], [ 3.35157, 6.55462 ], [ 3.35104, 6.55439 ], [ 3.35091, 6.55436 ], [ 3.35072, 6.55437 ], [ 3.35024, 6.5546 ], [ 3.35008, 6.55464 ], [ 3.34988, 6.55463 ], [ 3.34896, 6.5544 ], [ 3.34764, 6.55386 ], [ 3.347, 6.5536 ], [ 3.34705, 6.55351 ], [ 3.34705, 6.55347 ], [ 3.34702, 6.55344 ], [ 3.34671, 6.5533 ] ] } },
{ "type": "Feature", "properties": { "Hub": "Oshodi", "Origin": "Oshodi", "Origin_Long": 3.351894639, "Origin_Lat": 6.555757847, "Destination": "NIGALEX, Nigerian Aluminium Extrusion Ltd", "Destination_Long": 3.34604639, "Destination_Lat": 6.55220742, "Distance_km": 0.92, "Duration_min": 11.02, "Route": "- → Apapa-Oworonshoki Expressway" }, "geometry": { "type": "LineString", "coordinates": [ [ 3.35191, 6.55577 ], [ 3.35198, 6.55561 ], [ 3.35204, 6.55546 ], [ 3.35171, 6.55534 ], [ 3.35165, 6.55531 ], [ 3.35185, 6.55485 ], [ 3.35196, 6.55469 ], [ 3.35179, 6.55474 ], [ 3.35157, 6.55462 ], [ 3.35104, 6.55439 ], [ 3.35091, 6.55436 ], [ 3.35072, 6.55437 ], [ 3.35024, 6.5546 ], [ 3.35008, 6.55464 ], [ 3.34988, 6.55463 ], [ 3.34896, 6.5544 ], [ 3.34764, 6.55386 ], [ 3.347, 6.5536 ], [ 3.34631, 6.5533 ], [ 3.34617, 6.55324 ], [ 3.34622, 6.55316 ], [ 3.34621, 6.55314 ], [ 3.34572, 6.55288 ] ] } },
{ "type": "Feature", "properties": { "Hub": "Oshodi", "Origin": "Oshodi", "Origin_Long": 3.351894639, "Origin_Lat": 6.555757847, "Destination": "Federal NeuroPsychiatric Hospital Annex Office", "Destination_Long": 3.3485475, "Destination_Lat": 6.54905411, "Distance_km": 1.5, "Duration_min": 18.06, "Route": "- → Agege Motor Road, A5" }, "geometry": { "type": "LineString", "coordinates": [ [ 3.35191, 6.55577 ], [ 3.35184, 6.55593 ], [ 3.35174, 6.55589 ], [ 3.35269, 6.55363 ], [ 3.35261, 6.55358 ], [ 3.35374, 6.55084 ], [ 3.3539, 6.55044 ], [ 3.3533, 6.55032 ], [ 3.35311, 6.5503 ], [ 3.3528, 6.55033 ], [ 3.35174, 6.55049 ], [ 3.35127, 6.55056 ], [ 3.35069, 6.55066 ], [ 3.35064, 6.55067 ], [ 3.35025, 6.55072 ], [ 3.35011, 6.54985 ], [ 3.35005, 6.54974 ], [ 3.34991, 6.54964 ], [ 3.34976, 6.54955 ], [ 3.34958, 6.54934 ], [ 3.3492, 6.54878 ], [ 3.34911, 6.54855 ], [ 3.34867, 6.54865 ], [ 3.34883, 6.54899 ], [ 3.34884, 6.5491 ], [ 3.34874, 6.54922 ] ] } },
{ "type": "Feature", "properties": { "Hub": "Oshodi", "Origin": "Oshodi", "Origin_Long": 3.351894639, "Origin_Lat": 6.555757847, "Destination": "First Baptist Church Oshodi", "Destination_Long": 3.3489335, "Destination_Lat": 6.55623617, "Distance_km": 0.54, "Duration_min": 6.48, "Route": "- → Agege Motor Road, A5 → Apapa-Oworonshoki Expressway → Oshodi Road" }, "geometry": { "type": "LineString", "coordinates": [ [ 3.35191, 6.55577 ], [ 3.35198, 6.55561 ], [ 3.35204, 6.55546 ], [ 3.35171, 6.55534 ], [ 3.35166, 6.55548 ], [ 3.35164, 6.55546 ], [ 3.35165, 6.5554 ], [ 3.35147, 6.55581 ], [ 3.35166, 6.55589 ], [ 3.35144, 6.55644 ], [ 3.35121, 6.55644 ], [ 3.35105, 6.55642 ], [ 3.35095, 6.55634 ], [ 3.35083, 6.55645 ], [ 3.35074, 6.55649 ], [ 3.35058, 6.55651 ], [ 3.34978, 6.55649 ], [ 3.34904, 6.55649 ], [ 3.34903, 6.55623 ] ] } },
{ "type": "Feature", "properties": { "Hub": "Oshodi", "Origin": "Oshodi", "Origin_Long": 3.351894639, "Origin_Lat": 6.555757847, "Destination": "The Apostolic Church Nigeria", "Destination_Long": 3.34915868, "Destination_Lat": 6.56009641, "Distance_km": 0.62, "Duration_min": 7.43, "Route": "- → Agege Motor Road, A5" }, "geometry": { "type": "LineString", "coordinates": [ [ 3.35191, 6.55577 ], [ 3.35184, 6.55593 ], [ 3.35185, 6.55594 ], [ 3.35179, 6.55608 ], [ 3.35174, 6.55621 ], [ 3.35161, 6.55625 ], [ 3.35099, 6.55774 ], [ 3.35066, 6.55868 ], [ 3.35059, 6.55866 ], [ 3.3505, 6.55866 ], [ 3.34998, 6.55991 ], [ 3.34977, 6.55992 ], [ 3.34915, 6.55998 ] ] } },
{ "type": "Feature", "properties": { "Hub": "Oshodi", "Origin": "Oshodi", "Origin_Long": 3.351894639, "Origin_Lat": 6.555757847, "Destination": "NIGERIAN ARMY SHOPPING ARENA", "Destination_Long": 3.349888, "Destination_Lat": 6.56272546, "Distance_km": 0.95, "Duration_min": 11.4, "Route": "- → Agege Motor Road, A5" }, "geometry": { "type": "LineString", "coordinates": [ [ 3.35191, 6.55577 ], [ 3.35184, 6.55593 ], [ 3.35185, 6.55594 ], [ 3.35179, 6.55608 ], [ 3.35174, 6.55621 ], [ 3.35161, 6.55625 ], [ 3.35099, 6.55774 ], [ 3.35066, 6.55868 ], [ 3.35042, 6.55925 ], [ 3.35024, 6.55977 ], [ 3.35008, 6.56015 ], [ 3.34976, 6.5609 ], [ 3.34969, 6.5611 ], [ 3.34956, 6.56149 ], [ 3.34942, 6.56177 ], [ 3.34911, 6.56253 ], [ 3.34926, 6.56254 ], [ 3.34948, 6.56268 ], [ 3.34967, 6.56276 ], [ 3.34976, 6.56253 ], [ 3.34992, 6.5626 ], [ 3.34987, 6.56272 ] ] } },
{ "type": "Feature", "properties": { "Hub": "Oshodi", "Origin": "Oshodi", "Origin_Long": 3.351894639, "Origin_Lat": 6.555757847, "Destination": "R.H. Plastics", "Destination_Long": 3.35418523, "Destination_Lat": 6.55213318, "Distance_km": 0.64, "Duration_min": 7.63, "Route": "- → Apapa-Oworonshoki Expressway → Town Planning Way → Ilupeju Industrual Avenue" }, "geometry": { "type": "LineString", "coordinates": [ [ 3.35191, 6.55577 ], [ 3.35198, 6.55561 ], [ 3.35204, 6.55546 ], [ 3.35229, 6.55556 ], [ 3.35251, 6.55545 ], [ 3.35267, 6.55529 ], [ 3.35284, 6.55523 ], [ 3.35299, 6.5552 ], [ 3.35318, 6.5552 ], [ 3.35342, 6.55525 ], [ 3.35376, 6.55537 ], [ 3.35404, 6.55523 ], [ 3.35413, 6.55506 ], [ 3.35432, 6.5546 ], [ 3.35443, 6.55433 ], [ 3.35445, 6.55428 ], [ 3.35491, 6.55318 ], [ 3.35519, 6.55254 ], [ 3.35494, 6.55245 ], [ 3.35493, 6.55243 ] ] } }
]
}
