{
"type": "FeatureCollection",
"name": "Waec_routes",
"crs": { "type": "name", "properties": { "name": "urn:ogc:def:crs:OGC:1.3:CRS84" } },
"features": [
{ "type": "Feature", "properties": { "Hub": "Waec", "Origin": "Waec", "Origin_Long": 3.371240146, "Origin_Lat": 6.517766498, "Destination": "Yaba BRT", "Destination_Long": 3.37098615, "Destination_Lat": 6.51074429, "Distance_km": 0.99, "Duration_min": 11.87, "Route": "- → Herbert Macaulay Way, F266 → Edmund Crescent → Murtula Muhammed Way, A5" }, "geometry": { "type": "LineString", "coordinates": [ [ 3.37126, 6.51777 ], [ 3.37129, 6.51757 ], [ 3.37168, 6.51757 ], [ 3.37157, 6.51762 ], [ 3.37146, 6.51765 ], [ 3.37134, 6.51765 ], [ 3.37115, 6.51761 ], [ 3.37018, 6.51724 ], [ 3.3703, 6.51685 ], [ 3.37055, 6.51619 ], [ 3.37057, 6.5161 ], [ 3.37066, 6.51545 ], [ 3.37067, 6.51516 ], [ 3.37067, 6.51485 ], [ 3.37067, 6.51401 ], [ 3.3706, 6.51303 ], [ 3.37059, 6.51298 ], [ 3.37051, 6.5126 ], [ 3.37047, 6.51251 ], [ 3.37039, 6.51239 ], [ 3.37041, 6.51233 ], [ 3.37058, 6.5118 ], [ 3.37072, 6.51133 ], [ 3.37098, 6.51074 ] ] } },
{ "type": "Feature", "properties": { "Hub": "Waec", "Origin": "Waec", "Origin_Long": 3.371240146, "Origin_Lat": 6.517766498, "Destination": "Nigerian Institute Of Medical Research", "Destination_Long": 3.37094884, "Destination_Lat": 6.51416857, "Distance_km": 0.64, "Duration_min": 7.7, "Route": "- → Herbert Macaulay Way, F266 → Edmund Crescent" }, "geometry": { "type": "LineString", "coordinates": [ [ 3.37126, 6.51777 ], [ 3.37129, 6.51757 ], [ 3.37168, 6.51757 ], [ 3.37157, 6.51762 ], [ 3.37146, 6.51765 ], [ 3.37134, 6.51765 ], [ 3.37115, 6.51761 ], [ 3.37018, 6.51724 ], [ 3.3703, 6.51685 ], [ 3.37055, 6.51619 ], [ 3.37057, 6.5161 ], [ 3.37066, 6.51545 ], [ 3.37067, 6.51516 ], [ 3.37067, 6.51485 ], [ 3.37067, 6.51401 ], [ 3.37095, 6.51402 ] ] } },
{ "type": "Feature", "properties": { "Hub": "Waec", "Origin": "Waec", "Origin_Long": 3.371240146, "Origin_Lat": 6.517766498, "Destination": "Jibowu Bridge", "Destination_Long": 3.36878753, "Destination_Lat": 6.51651102, "Distance_km": 0.69, "Duration_min": 8.25, "Route": "- → Herbert Macaulay Way, F266 → A5 → Herbert Macaulay Street, A5 → Murtala Mohammed Way" }, "geometry": { "type": "LineString", "coordinates": [ [ 3.37126, 6.51777 ], [ 3.37124, 6.5179 ], [ 3.37141, 6.51798 ], [ 3.37129, 6.51772 ], [ 3.37108, 6.5177 ], [ 3.37089, 6.51764 ], [ 3.37032, 6.51741 ], [ 3.37011, 6.51732 ], [ 3.36916, 6.51692 ], [ 3.36906, 6.51687 ], [ 3.36869, 6.51673 ], [ 3.36874, 6.51663 ], [ 3.36859, 6.51657 ], [ 3.36871, 6.5163 ], [ 3.36899, 6.5156 ], [ 3.36906, 6.51549 ], [ 3.36919, 6.51539 ], [ 3.369, 6.51578 ], [ 3.36871, 6.51648 ] ] } },
{ "type": "Feature", "properties": { "Hub": "Waec", "Origin": "Waec", "Origin_Long": 3.371240146, "Origin_Lat": 6.517766498, "Destination": "Jibowu bus stop", "Destination_Long": 3.36746187, "Destination_Lat": 6.51941799, "Distance_km": 0.72, "Duration_min": 8.65, "Route": "- → Herbert Macaulay Way, F266 → Murtula Muhammed Way, F266" }, "geometry": { "type": "LineString", "coordinates": [ [ 3.37126, 6.51777 ], [ 3.37124, 6.5179 ], [ 3.37141, 6.51798 ], [ 3.37129, 6.51772 ], [ 3.37108, 6.5177 ], [ 3.37089, 6.51764 ], [ 3.37032, 6.51741 ], [ 3.37011, 6.51732 ], [ 3.36916, 6.51692 ], [ 3.36906, 6.51687 ], [ 3.36869, 6.51673 ], [ 3.36854, 6.51668 ], [ 3.36843, 6.51697 ], [ 3.36792, 6.51822 ], [ 3.3678, 6.5185 ], [ 3.3677, 6.51879 ], [ 3.36765, 6.51901 ], [ 3.36751, 6.51942 ], [ 3.3675, 6.51943 ] ] } },
{ "type": "Feature", "properties": { "Hub": "Waec", "Origin": "Waec", "Origin_Long": 3.371240146, "Origin_Lat": 6.517766498, "Destination": "Military Hospital", "Destination_Long": 3.36633473, "Destination_Lat": 6.51741677, "Distance_km": 0.79, "Duration_min": 9.52, "Route": "- → Herbert Macaulay Way, F266 → Western Avenue" }, "geometry": { "type": "LineString", "coordinates": [ [ 3.37126, 6.51777 ], [ 3.37124, 6.5179 ], [ 3.37141, 6.51798 ], [ 3.37129, 6.51772 ], [ 3.37108, 6.5177 ], [ 3.37089, 6.51764 ], [ 3.37032, 6.51741 ], [ 3.37011, 6.51732 ], [ 3.36916, 6.51692 ], [ 3.36906, 6.51687 ], [ 3.36869, 6.51673 ], [ 3.36854, 6.51668 ], [ 3.36824, 6.51655 ], [ 3.36807, 6.51649 ], [ 3.36798, 6.51641 ], [ 3.36795, 6.5164 ], [ 3.36785, 6.5164 ], [ 3.36764, 6.51633 ], [ 3.36685, 6.5162 ], [ 3.36669, 6.51619 ], [ 3.36649, 6.51623 ], [ 3.36629, 6.51634 ], [ 3.36598, 6.51653 ], [ 3.36587, 6.51664 ], [ 3.36574, 6.5168 ], [ 3.36562, 6.51691 ], [ 3.36564, 6.51715 ], [ 3.36563, 6.51726 ] ] } },
{ "type": "Feature", "properties": { "Hub": "Waec", "Origin": "Waec", "Origin_Long": 3.371240146, "Origin_Lat": 6.517766498, "Destination": "Lifefort Children's Hospital", "Destination_Long": 3.36431616, "Destination_Lat": 6.5214496, "Distance_km": 1.29, "Duration_min": 15.45, "Route": "- → Herbert Macaulay Way, F266 → Western Avenue" }, "geometry": { "type": "LineString", "coordinates": [ [ 3.37126, 6.51777 ], [ 3.37124, 6.5179 ], [ 3.37141, 6.51798 ], [ 3.37129, 6.51772 ], [ 3.37108, 6.5177 ], [ 3.37089, 6.51764 ], [ 3.37032, 6.51741 ], [ 3.37011, 6.51732 ], [ 3.36916, 6.51692 ], [ 3.36906, 6.51687 ], [ 3.36869, 6.51673 ], [ 3.36854, 6.51668 ], [ 3.36824, 6.51655 ], [ 3.36807, 6.51649 ], [ 3.36798, 6.51641 ], [ 3.36795, 6.5164 ], [ 3.36785, 6.5164 ], [ 3.36764, 6.51633 ], [ 3.36685, 6.5162 ], [ 3.36669, 6.51619 ], [ 3.36649, 6.51623 ], [ 3.36629, 6.51634 ], [ 3.36598, 6.51653 ], [ 3.36587, 6.51664 ], [ 3.36574, 6.5168 ], [ 3.36562, 6.51691 ], [ 3.36564, 6.51715 ], [ 3.36563, 6.51726 ], [ 3.36551, 6.51765 ], [ 3.36548, 6.51842 ], [ 3.36546, 6.51871 ], [ 3.36539, 6.51911 ], [ 3.36528, 6.5194 ], [ 3.36514, 6.5197 ], [ 3.36475, 6.52037 ], [ 3.36418, 6.52138 ] ] } },
{ "type": "Feature", "properties": { "Hub": "Waec", "Origin": "Waec", "Origin_Long": 3.371240146, "Origin_Lat": 6.517766498, "Destination": "Moshalashi Bus stop", "Destination_Long": 3.36527905, "Destination_Lat": 6.51949845, "Distance_km": 1.05, "Duration_min": 12.55, "Route": "- → Herbert Macaulay Way, F266 → Western Avenue" }, "geometry": { "type": "LineString", "coordinates": [ [ 3.37126, 6.51777 ], [ 3.37124, 6.5179 ], [ 3.37141, 6.51798 ], [ 3.37129, 6.51772 ], [ 3.37108, 6.5177 ], [ 3.37089, 6.51764 ], [ 3.37032, 6.51741 ], [ 3.37011, 6.51732 ], [ 3.36916, 6.51692 ], [ 3.36906, 6.51687 ], [ 3.36869, 6.51673 ], [ 3.36854, 6.51668 ], [ 3.36824, 6.51655 ], [ 3.36807, 6.51649 ], [ 3.36798, 6.51641 ], [ 3.36795, 6.5164 ], [ 3.36785, 6.5164 ], [ 3.36764, 6.51633 ], [ 3.36685, 6.5162 ], [ 3.36669, 6.51619 ], [ 3.36649, 6.51623 ], [ 3.36629, 6.51634 ], [ 3.36598, 6.51653 ], [ 3.36587, 6.51664 ], [ 3.36574, 6.5168 ], [ 3.36562, 6.51691 ], [ 3.36564, 6.51715 ], [ 3.36563, 6.51726 ], [ 3.36551, 6.51765 ], [ 3.36548, 6.51842 ], [ 3.36546, 6.51871 ], [ 3.36539, 6.51911 ], [ 3.36528, 6.5194 ], [ 3.36524, 6.51948 ] ] } },
{ "type": "Feature", "properties": { "Hub": "Waec", "Origin": "Waec", "Origin_Long": 3.371240146, "Origin_Lat": 6.517766498, "Destination": "Bethesda Home & School For The Blind", "Destination_Long": 3.36395593, "Destination_Lat": 6.51820194, "Distance_km": 1.35, "Duration_min": 16.25, "Route": "- → Herbert Macaulay Way, F266 → Western Avenue → Agege Motor Road, A5" }, "geometry": { "type": "LineString", "coordinates": [ [ 3.37126, 6.51777 ], [ 3.37124, 6.5179 ], [ 3.37141, 6.51798 ], [ 3.37129, 6.51772 ], [ 3.37108, 6.5177 ], [ 3.37089, 6.51764 ], [ 3.37032, 6.51741 ], [ 3.37011, 6.51732 ], [ 3.36916, 6.51692 ], [ 3.36906, 6.51687 ], [ 3.36869, 6.51673 ], [ 3.36854, 6.51668 ], [ 3.36824, 6.51655 ], [ 3.36807, 6.51649 ], [ 3.36798, 6.51641 ], [ 3.36795, 6.5164 ], [ 3.36785, 6.5164 ], [ 3.36764, 6.51633 ], [ 3.36685, 6.5162 ], [ 3.36669, 6.51619 ], [ 3.36649, 6.51623 ], [ 3.36629, 6.51634 ], [ 3.36598, 6.51653 ], [ 3.36587, 6.51664 ], [ 3.36574, 6.5168 ], [ 3.36562, 6.51691 ], [ 3.36564, 6.51715 ], [ 3.36563, 6.51726 ], [ 3.36551, 6.51765 ], [ 3.36544, 6.51766 ], [ 3.36534, 6.51762 ], [ 3.36535, 6.51806 ], [ 3.36533, 6.51869 ], [ 3.36529, 6.51907 ], [ 3.36526, 6.51917 ], [ 3.36511, 6.51956 ], [ 3.36499, 6.51979 ], [ 3.36446, 6.51953 ], [ 3.36377, 6.51926 ], [ 3.364, 6.51849 ], [ 3.364, 6.51845 ], [ 3.36401, 6.51839 ] ] } },
{ "type": "Feature", "properties": { "Hub": "Waec", "Origin": "Waec", "Origin_Long": 3.371240146, "Origin_Lat": 6.517766498, "Destination": "Yaba Cementry", "Destination_Long": 3.37902664, "Destination_Lat": 6.51490008, "Distance_km": 1.11, "Duration_min": 13.38, "Route": "- → Herbert Macaulay Way, F266" }, "geometry": { "type": "LineString", "coordinates": [ [ 3.37126, 6.51777 ], [ 3.37124, 6.5179 ], [ 3.37141, 6.51798 ], [ 3.37159, 6.51766 ], [ 3.37393, 6.51667 ], [ 3.37475, 6.51634 ], [ 3.37518, 6.51615 ], [ 3.37538, 6.51599 ], [ 3.37558, 6.51576 ], [ 3.37577, 6.51536 ], [ 3.37604, 6.51476 ], [ 3.37624, 6.51474 ], [ 3.37676, 6.51497 ], [ 3.37746, 6.51525 ], [ 3.37774, 6.51534 ], [ 3.37794, 6.51492 ], [ 3.37814, 6.51442 ], [ 3.37906, 6.51482 ] ] } },
{ "type": "Feature", "properties": { "Hub": "Waec", "Origin": "Waec", "Origin_Long": 3.371240146, "Origin_Lat": 6.517766498, "Destination": "Igbobi College", "Destination_Long": 3.3722334, "Destination_Lat": 6.52699048, "Distance_km": 1.14, "Duration_min": 13.62, "Route": "- → Hussey Road → Alakija Street → Bajulaye Road" }, "geometry": { "type": "LineString", "coordinates": [ [ 3.37126, 6.51777 ], [ 3.37124, 6.5179 ], [ 3.37141, 6.51798 ], [ 3.37144, 6.51813 ], [ 3.37161, 6.51863 ], [ 3.37176, 6.51902 ], [ 3.37164, 6.5193 ], [ 3.37134, 6.52008 ], [ 3.37111, 6.52065 ], [ 3.37102, 6.52076 ], [ 3.37097, 6.52089 ], [ 3.37097, 6.52093 ], [ 3.37094, 6.52097 ], [ 3.37088, 6.52122 ], [ 3.37093, 6.52133 ], [ 3.37099, 6.52134 ], [ 3.37103, 6.52137 ], [ 3.37108, 6.52149 ], [ 3.37112, 6.52178 ], [ 3.37123, 6.52299 ], [ 3.3713, 6.52309 ], [ 3.37141, 6.52316 ], [ 3.37155, 6.52331 ], [ 3.37166, 6.52344 ], [ 3.3718, 6.52365 ], [ 3.37196, 6.52397 ], [ 3.37201, 6.52419 ], [ 3.37203, 6.52442 ], [ 3.37203, 6.52462 ], [ 3.37206, 6.52484 ], [ 3.37216, 6.52512 ], [ 3.37224, 6.52527 ], [ 3.37234, 6.5255 ], [ 3.37268, 6.52612 ], [ 3.3724, 6.52636 ], [ 3.37232, 6.52647 ], [ 3.37208, 6.52691 ] ] } },
{ "type": "Feature", "properties": { "Hub": "Waec", "Origin": "Waec", "Origin_Long": 3.371240146, "Origin_Lat": 6.517766498, "Destination": "Nigerian Army Reference Hospital", "Destination_Long": 3.37419616, "Destination_Lat": 6.52027468, "Distance_km": 0.48, "Duration_min": 5.71, "Route": "- → Hussey Road" }, "geometry": { "type": "LineString", "coordinates": [ [ 3.37126, 6.51777 ], [ 3.37124, 6.5179 ], [ 3.37141, 6.51798 ], [ 3.37144, 6.51813 ], [ 3.37161, 6.51863 ], [ 3.37176, 6.51902 ], [ 3.37186, 6.51926 ], [ 3.37194, 6.51944 ], [ 3.37199, 6.51951 ], [ 3.37205, 6.51957 ], [ 3.3726, 6.51981 ], [ 3.37266, 6.51982 ], [ 3.37367, 6.52021 ], [ 3.37413, 6.52043 ] ] } },
{ "type": "Feature", "properties": { "Hub": "Waec", "Origin": "Waec", "Origin_Long": 3.371240146, "Origin_Lat": 6.517766498, "Destination": "Yaba College of Technology", "Destination_Long": 3.37218344, "Destination_Lat": 6.51916823, "Distance_km": 0.22, "Duration_min": 2.68, "Route": "- → Hussey Road" }, "geometry": { "type": "LineString", "coordinates": [ [ 3.37126, 6.51777 ], [ 3.37124, 6.5179 ], [ 3.37141, 6.51798 ], [ 3.37144, 6.51813 ], [ 3.37161, 6.51863 ], [ 3.37176, 6.51902 ], [ 3.37186, 6.51926 ], [ 3.37217, 6.51913 ] ] } },
{ "type": "Feature", "properties": { "Hub": "Waec", "Origin": "Waec", "Origin_Long": 3.371240146, "Origin_Lat": 6.517766498, "Destination": "St. Dominic Catholic Church", "Destination_Long": 3.37726699, "Destination_Lat": 6.51250828, "Distance_km": 0.99, "Duration_min": 11.93, "Route": "- → Herbert Macaulay Way, F266" }, "geometry": { "type": "LineString", "coordinates": [ [ 3.37126, 6.51777 ], [ 3.37124, 6.5179 ], [ 3.37141, 6.51798 ], [ 3.37159, 6.51766 ], [ 3.37393, 6.51667 ], [ 3.37475, 6.51634 ], [ 3.37518, 6.51615 ], [ 3.37538, 6.51599 ], [ 3.37558, 6.51576 ], [ 3.37577, 6.51536 ], [ 3.37604, 6.51476 ], [ 3.37611, 6.51458 ], [ 3.37628, 6.51409 ], [ 3.3765, 6.51353 ], [ 3.37681, 6.51276 ], [ 3.3769, 6.51253 ], [ 3.37722, 6.51264 ] ] } },
{ "type": "Feature", "properties": { "Hub": "Waec", "Origin": "Waec", "Origin_Long": 3.371240146, "Origin_Lat": 6.517766498, "Destination": "Marda Army Barracks", "Destination_Long": 3.37552508, "Destination_Lat": 6.51283467, "Distance_km": 1.91, "Duration_min": 22.97, "Route": "- → Herbert Macaulay Way, F266 → Harvey Road" }, "geometry": { "type": "LineString", "coordinates": [ [ 3.37126, 6.51777 ], [ 3.37129, 6.51757 ], [ 3.37168, 6.51757 ], [ 3.37258, 6.51719 ], [ 3.37379, 6.51667 ], [ 3.37429, 6.51648 ], [ 3.37495, 6.51619 ], [ 3.37522, 6.51603 ], [ 3.37546, 6.51581 ], [ 3.37556, 6.51566 ], [ 3.37587, 6.51501 ], [ 3.37602, 6.51466 ], [ 3.37626, 6.514 ], [ 3.3774, 6.51115 ], [ 3.37656, 6.51084 ], [ 3.37579, 6.51053 ], [ 3.37536, 6.51036 ], [ 3.37519, 6.5103 ], [ 3.37516, 6.51034 ], [ 3.37513, 6.51036 ], [ 3.37504, 6.51036 ], [ 3.37443, 6.51013 ], [ 3.37393, 6.50992 ], [ 3.37381, 6.50995 ], [ 3.37367, 6.50994 ], [ 3.37347, 6.51038 ], [ 3.37343, 6.51051 ], [ 3.37321, 6.51116 ], [ 3.37319, 6.51122 ], [ 3.37319, 6.51133 ], [ 3.37315, 6.51147 ], [ 3.37475, 6.51212 ], [ 3.37481, 6.51212 ], [ 3.37484, 6.5121 ] ] } },
{ "type": "Feature", "properties": { "Hub": "Waec", "Origin": "Waec", "Origin_Long": 3.371240146, "Origin_Lat": 6.517766498, "Destination": "Saints Community Church", "Destination_Long": 3.37068015, "Destination_Lat": 6.52207978, "Distance_km": 0.52, "Duration_min": 6.28, "Route": "- → Hussey Road → Alakija Street → Bajulaye Road → Oweh Street" }, "geometry": { "type": "LineString", "coordinates": [ [ 3.37126, 6.51777 ], [ 3.37124, 6.5179 ], [ 3.37141, 6.51798 ], [ 3.37144, 6.51813 ], [ 3.37161, 6.51863 ], [ 3.37176, 6.51902 ], [ 3.37164, 6.5193 ], [ 3.37134, 6.52008 ], [ 3.37111, 6.52065 ], [ 3.37102, 6.52076 ], [ 3.37097, 6.52089 ], [ 3.37097, 6.52093 ], [ 3.37094, 6.52097 ], [ 3.37088, 6.52122 ], [ 3.37093, 6.52133 ], [ 3.37086, 6.5214 ], [ 3.37058, 6.52204 ] ] } },
{ "type": "Feature", "properties": { "Hub": "Waec", "Origin": "Waec", "Origin_Long": 3.371240146, "Origin_Lat": 6.517766498, "Destination": "Lagos state Infectious Diseases Isolation Center", "Destination_Long": 3.37633861, "Destination_Lat": 6.52228389, "Distance_km": 0.87, "Duration_min": 10.41, "Route": "- → Hussey Road" }, "geometry": { "type": "LineString", "coordinates": [ [ 3.37126, 6.51777 ], [ 3.37124, 6.5179 ], [ 3.37141, 6.51798 ], [ 3.37144, 6.51813 ], [ 3.37161, 6.51863 ], [ 3.37176, 6.51902 ], [ 3.37186, 6.51926 ], [ 3.37194, 6.51944 ], [ 3.37199, 6.51951 ], [ 3.37205, 6.51957 ], [ 3.3726, 6.51981 ], [ 3.37266, 6.51982 ], [ 3.37367, 6.52021 ], [ 3.37414, 6.52043 ], [ 3.37424, 6.52047 ], [ 3.37501, 6.52079 ], [ 3.37539, 6.52095 ], [ 3.37567, 6.52106 ], [ 3.37564, 6.52118 ], [ 3.37549, 6.52156 ], [ 3.37547, 6.52167 ], [ 3.37551, 6.52176 ], [ 3.37564, 6.52185 ], [ 3.3764, 6.52214 ], [ 3.37636, 6.52229 ] ] } }
]
}
