{
"type": "FeatureCollection",
"name": "Yaba_routes",
"crs": { "type": "name", "properties": { "name": "urn:ogc:def:crs:OGC:1.3:CRS84" } },
"features": [
{ "type": "Feature", "properties": { "Hub": "Yaba", "Origin": "Yaba", "Origin_Long": 3.37065, "Origin_Lat": 6.510877, "Destination": "Lagos Presbyterian Church", "Destination_Long": 3.37033616, "Destination_Lat": 6.51302688, "Distance_km": 0.32, "Duration_min": 3.86, "Route": "- → Edmund Crescent" }, "geometry": { "type": "LineString", "coordinates": [ [ 3.37048, 6.51082 ], [ 3.37032, 6.51128 ], [ 3.37027, 6.51151 ], [ 3.37027, 6.51196 ], [ 3.3703, 6.51222 ], [ 3.37041, 6.51233 ], [ 3.37039, 6.51239 ], [ 3.37047, 6.51251 ], [ 3.37051, 6.5126 ], [ 3.37059, 6.51298 ], [ 3.3706, 6.51303 ], [ 3.37047, 6.51305 ], [ 3.37042, 6.51283 ], [ 3.37037, 6.51286 ], [ 3.37033, 6.51291 ], [ 3.37031, 6.513 ] ] } },
{ "type": "Feature", "properties": { "Hub": "Yaba", "Origin": "Yaba", "Origin_Long": 3.37065, "Origin_Lat": 6.510877, "Destination": "Federal Medical Neuro-Psychiatric Hospital", "Destination_Long": 3.37187505, "Destination_Lat": 6.5106004, "Distance_km": 0.84, "Duration_min": 10.04, "Route": "- → Murtula Muhammed Way, A5 → Montgomery Road → Maye Street" }, "geometry": { "type": "LineString", "coordinates": [ [ 3.37048, 6.51082 ], [ 3.37053, 6.51068 ], [ 3.37104, 6.50951 ], [ 3.37118, 6.50923 ], [ 3.37139, 6.50896 ], [ 3.37167, 6.50872 ], [ 3.37188, 6.50852 ], [ 3.37202, 6.50838 ], [ 3.37227, 6.50803 ], [ 3.37239, 6.50798 ], [ 3.37246, 6.50788 ], [ 3.37247, 6.50789 ], [ 3.37231, 6.50819 ], [ 3.37299, 6.5085 ], [ 3.37271, 6.50926 ], [ 3.37272, 6.5093 ], [ 3.37297, 6.50941 ], [ 3.37278, 6.50988 ], [ 3.37271, 6.50989 ], [ 3.37264, 6.50989 ], [ 3.37256, 6.50988 ], [ 3.37247, 6.5099 ], [ 3.3724, 6.50995 ], [ 3.3723, 6.51027 ], [ 3.37233, 6.51035 ], [ 3.37218, 6.51072 ] ] } },
{ "type": "Feature", "properties": { "Hub": "Yaba", "Origin": "Yaba", "Origin_Long": 3.37065, "Origin_Lat": 6.510877, "Destination": "Delta line transport services", "Destination_Long": 3.36986973, "Destination_Lat": 6.51567329, "Distance_km": 0.66, "Duration_min": 7.92, "Route": "- → Murtula Muhammed Way, A5" }, "geometry": { "type": "LineString", "coordinates": [ [ 3.37048, 6.51082 ], [ 3.37032, 6.51128 ], [ 3.37027, 6.51151 ], [ 3.37027, 6.51196 ], [ 3.3703, 6.51222 ], [ 3.37041, 6.51233 ], [ 3.37003, 6.51332 ], [ 3.36982, 6.51375 ], [ 3.36981, 6.51381 ], [ 3.36969, 6.51415 ], [ 3.36963, 6.51429 ], [ 3.3696, 6.51437 ], [ 3.36945, 6.5148 ], [ 3.36926, 6.51522 ], [ 3.36925, 6.51538 ], [ 3.36922, 6.51547 ], [ 3.36913, 6.51573 ], [ 3.36954, 6.51583 ], [ 3.36981, 6.5159 ] ] } },
{ "type": "Feature", "properties": { "Hub": "Yaba", "Origin": "Yaba", "Origin_Long": 3.37065, "Origin_Lat": 6.510877, "Destination": "Light House Cinemas", "Destination_Long": 3.36888841, "Destination_Lat": 6.51501973, "Distance_km": 0.52, "Duration_min": 6.23, "Route": "- → Murtula Muhammed Way, A5" }, "geometry": { "type": "LineString", "coordinates": [ [ 3.37048, 6.51082 ], [ 3.37032, 6.51128 ], [ 3.37027, 6.51151 ], [ 3.37027, 6.51196 ], [ 3.3703, 6.51222 ], [ 3.37041, 6.51233 ], [ 3.37003, 6.51332 ], [ 3.36982, 6.51375 ], [ 3.36981, 6.51381 ], [ 3.36969, 6.51415 ], [ 3.36963, 6.51429 ], [ 3.3696, 6.51437 ], [ 3.36945, 6.5148 ], [ 3.36927, 6.51519 ] ] } },
{ "type": "Feature", "properties": { "Hub": "Yaba", "Origin": "Yaba", "Origin_Long": 3.37065, "Origin_Lat": 6.510877, "Destination": "Saint Catherine's Model School", "Destination_Long": 3.36484236, "Destination_Lat": 6.51071601, "Distance_km": 1.34, "Duration_min": 16.11, "Route": "- → Murtula Muhammed Way, A5 → Yaba Flyover Bridge → Ojuelegba Road → Leigh Street" }, "geometry": { "type": "LineString", "coordinates": [ [ 3.37048, 6.51082 ], [ 3.37032, 6.51128 ], [ 3.37027, 6.51151 ], [ 3.37027, 6.51196 ], [ 3.3703, 6.51222 ], [ 3.37041, 6.51233 ], [ 3.37058, 6.5118 ], [ 3.37072, 6.51133 ], [ 3.37121, 6.51025 ], [ 3.37138, 6.50984 ], [ 3.37121, 6.50967 ], [ 3.37016, 6.50914 ], [ 3.36983, 6.50899 ], [ 3.36949, 6.50888 ], [ 3.36903, 6.50879 ], [ 3.36895, 6.50877 ], [ 3.36885, 6.50878 ], [ 3.36871, 6.50875 ], [ 3.36856, 6.50872 ], [ 3.36837, 6.50867 ], [ 3.36808, 6.50861 ], [ 3.36784, 6.50862 ], [ 3.36768, 6.50867 ], [ 3.36757, 6.50873 ], [ 3.36699, 6.50913 ], [ 3.36668, 6.50937 ], [ 3.36644, 6.50951 ], [ 3.3663, 6.50959 ], [ 3.36546, 6.50995 ], [ 3.36527, 6.50999 ], [ 3.36537, 6.51054 ], [ 3.36483, 6.51061 ] ] } },
{ "type": "Feature", "properties": { "Hub": "Yaba", "Origin": "Yaba", "Origin_Long": 3.37065, "Origin_Lat": 6.510877, "Destination": "Zumuratul Islamiyyah Central Mosque", "Destination_Long": 3.36888662, "Destination_Lat": 6.51137789, "Distance_km": 1.38, "Duration_min": 16.51, "Route": "- → Murtula Muhammed Way, A5 → Yaba Flyover Bridge → Ojuelegba Road → Martins Street → Jacob street" }, "geometry": { "type": "LineString", "coordinates": [ [ 3.37048, 6.51082 ], [ 3.37032, 6.51128 ], [ 3.37027, 6.51151 ], [ 3.37027, 6.51196 ], [ 3.3703, 6.51222 ], [ 3.37041, 6.51233 ], [ 3.37058, 6.5118 ], [ 3.37072, 6.51133 ], [ 3.37121, 6.51025 ], [ 3.37138, 6.50984 ], [ 3.37121, 6.50967 ], [ 3.37016, 6.50914 ], [ 3.36983, 6.50899 ], [ 3.36949, 6.50888 ], [ 3.36903, 6.50879 ], [ 3.36895, 6.50877 ], [ 3.36885, 6.50878 ], [ 3.36871, 6.50875 ], [ 3.36856, 6.50872 ], [ 3.36837, 6.50867 ], [ 3.36808, 6.50861 ], [ 3.36784, 6.50862 ], [ 3.36768, 6.50867 ], [ 3.36757, 6.50873 ], [ 3.36699, 6.50913 ], [ 3.36708, 6.50957 ], [ 3.36718, 6.50996 ], [ 3.36724, 6.51027 ], [ 3.36734, 6.51062 ], [ 3.3674, 6.51066 ], [ 3.36744, 6.51066 ], [ 3.36762, 6.51058 ], [ 3.36766, 6.51058 ], [ 3.36769, 6.5106 ], [ 3.36816, 6.51097 ], [ 3.36854, 6.5113 ], [ 3.36879, 6.51149 ] ] } },
{ "type": "Feature", "properties": { "Hub": "Yaba", "Origin": "Yaba", "Origin_Long": 3.37065, "Origin_Lat": 6.510877, "Destination": "Yaba Train Station", "Destination_Long": 3.36985508, "Destination_Lat": 6.51109649, "Distance_km": 1.19, "Duration_min": 14.27, "Route": "- → Murtula Muhammed Way, A5 → Yaba Flyover Bridge → Ojuelegba Road → Olajuwon Street" }, "geometry": { "type": "LineString", "coordinates": [ [ 3.37048, 6.51082 ], [ 3.37032, 6.51128 ], [ 3.37027, 6.51151 ], [ 3.37027, 6.51196 ], [ 3.3703, 6.51222 ], [ 3.37041, 6.51233 ], [ 3.37058, 6.5118 ], [ 3.37072, 6.51133 ], [ 3.37121, 6.51025 ], [ 3.37138, 6.50984 ], [ 3.37121, 6.50967 ], [ 3.37016, 6.50914 ], [ 3.36983, 6.50899 ], [ 3.36949, 6.50888 ], [ 3.36903, 6.50879 ], [ 3.36895, 6.50877 ], [ 3.36885, 6.50878 ], [ 3.36871, 6.50875 ], [ 3.36856, 6.50872 ], [ 3.36837, 6.50867 ], [ 3.36834, 6.50883 ], [ 3.36826, 6.50919 ], [ 3.36822, 6.50939 ], [ 3.3682, 6.5096 ], [ 3.36824, 6.50974 ], [ 3.36837, 6.51006 ], [ 3.36865, 6.5106 ], [ 3.3687, 6.51064 ], [ 3.36896, 6.51066 ], [ 3.36919, 6.51069 ], [ 3.36937, 6.51078 ], [ 3.36972, 6.51093 ] ] } },
{ "type": "Feature", "properties": { "Hub": "Yaba", "Origin": "Yaba", "Origin_Long": 3.37065, "Origin_Lat": 6.510877, "Destination": "Medical Rehabilitation Therapy (Reg) Board Of Nigeria", "Destination_Long": 3.3718772, "Destination_Lat": 6.51231712, "Distance_km": 0.41, "Duration_min": 4.9, "Route": "- → Murtula Muhammed Way, A5" }, "geometry": { "type": "LineString", "coordinates": [ [ 3.37048, 6.51082 ], [ 3.37032, 6.51128 ], [ 3.37027, 6.51151 ], [ 3.37027, 6.51196 ], [ 3.3703, 6.51222 ], [ 3.37041, 6.51233 ], [ 3.37058, 6.5118 ], [ 3.37071, 6.51152 ], [ 3.37086, 6.51162 ], [ 3.37108, 6.5117 ], [ 3.37116, 6.51168 ], [ 3.37127, 6.51173 ], [ 3.37166, 6.51205 ], [ 3.37172, 6.51209 ], [ 3.37176, 6.51208 ] ] } },
{ "type": "Feature", "properties": { "Hub": "Yaba", "Origin": "Yaba", "Origin_Long": 3.37065, "Origin_Lat": 6.510877, "Destination": "National Primary Health Centre", "Destination_Long": 3.37101043, "Destination_Lat": 6.51136943, "Distance_km": 0.3, "Duration_min": 3.61, "Route": "- → Murtula Muhammed Way, A5" }, "geometry": { "type": "LineString", "coordinates": [ [ 3.37048, 6.51082 ], [ 3.37032, 6.51128 ], [ 3.37027, 6.51151 ], [ 3.37027, 6.51196 ], [ 3.3703, 6.51222 ], [ 3.37041, 6.51233 ], [ 3.37058, 6.5118 ], [ 3.37071, 6.51152 ], [ 3.37081, 6.51129 ] ] } },
{ "type": "Feature", "properties": { "Hub": "Yaba", "Origin": "Yaba", "Origin_Long": 3.37065, "Origin_Lat": 6.510877, "Destination": "Medical Laboratory Science Council Of Nigeria", "Destination_Long": 3.37484889, "Destination_Lat": 6.51074335, "Distance_km": 0.92, "Duration_min": 11.05, "Route": "- → Murtula Muhammed Way, A5 → Montgomery Road → Maye Street → Thorborn Avenue" }, "geometry": { "type": "LineString", "coordinates": [ [ 3.37048, 6.51082 ], [ 3.37053, 6.51068 ], [ 3.37104, 6.50951 ], [ 3.37118, 6.50923 ], [ 3.37139, 6.50896 ], [ 3.37167, 6.50872 ], [ 3.37188, 6.50852 ], [ 3.37202, 6.50838 ], [ 3.37227, 6.50803 ], [ 3.37239, 6.50798 ], [ 3.37246, 6.50788 ], [ 3.37247, 6.50789 ], [ 3.37231, 6.50819 ], [ 3.37299, 6.5085 ], [ 3.37271, 6.50926 ], [ 3.37272, 6.5093 ], [ 3.37297, 6.50941 ], [ 3.37391, 6.50975 ], [ 3.37388, 6.50984 ], [ 3.37389, 6.50989 ], [ 3.37393, 6.50992 ], [ 3.37443, 6.51013 ], [ 3.37435, 6.51028 ], [ 3.37458, 6.51038 ], [ 3.37466, 6.51046 ], [ 3.37466, 6.51057 ], [ 3.37463, 6.51067 ] ] } },
{ "type": "Feature", "properties": { "Hub": "Yaba", "Origin": "Yaba", "Origin_Long": 3.37065, "Origin_Lat": 6.510877, "Destination": "All Saints' Anglican Church Yaba", "Destination_Long": 3.3745297, "Destination_Lat": 6.50955988, "Distance_km": 0.79, "Duration_min": 9.51, "Route": "- → Murtula Muhammed Way, A5 → Montgomery Road → Raymond Street" }, "geometry": { "type": "LineString", "coordinates": [ [ 3.37048, 6.51082 ], [ 3.37053, 6.51068 ], [ 3.37104, 6.50951 ], [ 3.37118, 6.50923 ], [ 3.37139, 6.50896 ], [ 3.37167, 6.50872 ], [ 3.37188, 6.50852 ], [ 3.37202, 6.50838 ], [ 3.37227, 6.50803 ], [ 3.37239, 6.50798 ], [ 3.37246, 6.50788 ], [ 3.37247, 6.50789 ], [ 3.37231, 6.50819 ], [ 3.37299, 6.5085 ], [ 3.37422, 6.50901 ], [ 3.37487, 6.50926 ], [ 3.37473, 6.50964 ] ] } },
{ "type": "Feature", "properties": { "Hub": "Yaba", "Origin": "Yaba", "Origin_Long": 3.37065, "Origin_Lat": 6.510877, "Destination": "Lagos State College of Health Technology", "Destination_Long": 3.37248851, "Destination_Lat": 6.50935537, "Distance_km": 0.62, "Duration_min": 7.39, "Route": "- → Murtula Muhammed Way, A5 → Montgomery Road → Maye Street" }, "geometry": { "type": "LineString", "coordinates": [ [ 3.37048, 6.51082 ], [ 3.37053, 6.51068 ], [ 3.37104, 6.50951 ], [ 3.37118, 6.50923 ], [ 3.37139, 6.50896 ], [ 3.37167, 6.50872 ], [ 3.37188, 6.50852 ], [ 3.37202, 6.50838 ], [ 3.37227, 6.50803 ], [ 3.37239, 6.50798 ], [ 3.37246, 6.50788 ], [ 3.37247, 6.50789 ], [ 3.37231, 6.50819 ], [ 3.37299, 6.5085 ], [ 3.37271, 6.50926 ], [ 3.37272, 6.50929 ] ] } },
{ "type": "Feature", "properties": { "Hub": "Yaba", "Origin": "Yaba", "Origin_Long": 3.37065, "Origin_Lat": 6.510877, "Destination": "Yaba Phase 2", "Destination_Long": 3.3722659, "Destination_Lat": 6.50795183, "Distance_km": 0.38, "Duration_min": 4.52, "Route": "-" }, "geometry": { "type": "LineString", "coordinates": [ [ 3.37048, 6.51082 ], [ 3.37053, 6.51068 ], [ 3.37104, 6.50951 ], [ 3.37118, 6.50923 ], [ 3.37139, 6.50896 ], [ 3.37167, 6.50872 ], [ 3.37188, 6.50852 ], [ 3.37202, 6.50838 ], [ 3.37227, 6.50803 ], [ 3.3723, 6.50802 ] ] } },
{ "type": "Feature", "properties": { "Hub": "Yaba", "Origin": "Yaba", "Origin_Long": 3.37065, "Origin_Lat": 6.510877, "Destination": "Lebanese Community School", "Destination_Long": 3.37351583, "Destination_Lat": 6.50773905, "Distance_km": 0.62, "Duration_min": 7.48, "Route": "- → Murtula Muhammed Way, A5 → Montgomery Road → Maye Street" }, "geometry": { "type": "LineString", "coordinates": [ [ 3.37048, 6.51082 ], [ 3.37053, 6.51068 ], [ 3.37104, 6.50951 ], [ 3.37118, 6.50923 ], [ 3.37139, 6.50896 ], [ 3.37167, 6.50872 ], [ 3.37188, 6.50852 ], [ 3.37202, 6.50838 ], [ 3.37227, 6.50803 ], [ 3.37239, 6.50798 ], [ 3.37246, 6.50788 ], [ 3.37247, 6.50789 ], [ 3.37231, 6.50819 ], [ 3.37299, 6.5085 ], [ 3.37324, 6.50788 ], [ 3.37333, 6.50766 ] ] } },
{ "type": "Feature", "properties": { "Hub": "Yaba", "Origin": "Yaba", "Origin_Long": 3.37065, "Origin_Lat": 6.510877, "Destination": "The Ozone e-centre tsboi", "Destination_Long": 3.37456303, "Destination_Lat": 6.50647222, "Distance_km": 0.81, "Duration_min": 9.75, "Route": "- → Murtula Muhammed Way, A5 → Commercial Avenue" }, "geometry": { "type": "LineString", "coordinates": [ [ 3.37048, 6.51082 ], [ 3.37053, 6.51068 ], [ 3.37104, 6.50951 ], [ 3.37118, 6.50923 ], [ 3.37139, 6.50896 ], [ 3.37167, 6.50872 ], [ 3.37188, 6.50852 ], [ 3.37202, 6.50838 ], [ 3.37227, 6.50803 ], [ 3.37239, 6.50798 ], [ 3.37246, 6.50788 ], [ 3.37253, 6.50776 ], [ 3.37269, 6.50738 ], [ 3.3727, 6.50734 ], [ 3.37302, 6.50657 ], [ 3.37336, 6.50575 ], [ 3.37403, 6.50602 ], [ 3.37465, 6.50626 ] ] } },
{ "type": "Feature", "properties": { "Hub": "Yaba", "Origin": "Yaba", "Origin_Long": 3.37065, "Origin_Lat": 6.510877, "Destination": "Yaba Baptist Church", "Destination_Long": 3.37603937, "Destination_Lat": 6.50717037, "Distance_km": 1.04, "Duration_min": 12.44, "Route": "- → Murtula Muhammed Way, A5 → Commercial Avenue → Raymond Street" }, "geometry": { "type": "LineString", "coordinates": [ [ 3.37048, 6.51082 ], [ 3.37053, 6.51068 ], [ 3.37104, 6.50951 ], [ 3.37118, 6.50923 ], [ 3.37139, 6.50896 ], [ 3.37167, 6.50872 ], [ 3.37188, 6.50852 ], [ 3.37202, 6.50838 ], [ 3.37227, 6.50803 ], [ 3.37239, 6.50798 ], [ 3.37246, 6.50788 ], [ 3.37253, 6.50776 ], [ 3.37269, 6.50738 ], [ 3.3727, 6.50734 ], [ 3.37302, 6.50657 ], [ 3.37336, 6.50575 ], [ 3.37403, 6.50602 ], [ 3.37478, 6.50631 ], [ 3.37526, 6.5065 ], [ 3.37535, 6.50649 ], [ 3.37583, 6.50639 ], [ 3.37589, 6.50666 ], [ 3.37589, 6.50676 ], [ 3.37599, 6.50681 ], [ 3.37587, 6.50711 ] ] } },
{ "type": "Feature", "properties": { "Hub": "Yaba", "Origin": "Yaba", "Origin_Long": 3.37065, "Origin_Lat": 6.510877, "Destination": "NTA Channel 10", "Destination_Long": 3.36921991, "Destination_Lat": 6.50512286, "Distance_km": 1.28, "Duration_min": 15.37, "Route": "- → Murtula Muhammed Way, A5 → Yaba Flyover Bridge → Ojuelegba Road → Olajuwon Street → Tejuoso Street → Tejuosho Avenue" }, "geometry": { "type": "LineString", "coordinates": [ [ 3.37048, 6.51082 ], [ 3.37032, 6.51128 ], [ 3.37027, 6.51151 ], [ 3.37027, 6.51196 ], [ 3.3703, 6.51222 ], [ 3.37041, 6.51233 ], [ 3.37058, 6.5118 ], [ 3.37072, 6.51133 ], [ 3.37121, 6.51025 ], [ 3.37138, 6.50984 ], [ 3.37121, 6.50967 ], [ 3.37016, 6.50914 ], [ 3.36983, 6.50899 ], [ 3.36949, 6.50888 ], [ 3.36903, 6.50879 ], [ 3.36895, 6.50877 ], [ 3.36888, 6.50872 ], [ 3.36875, 6.5087 ], [ 3.36838, 6.50861 ], [ 3.36812, 6.50855 ], [ 3.36829, 6.50804 ], [ 3.36832, 6.50796 ], [ 3.36838, 6.50779 ], [ 3.36853, 6.50753 ], [ 3.36868, 6.50704 ], [ 3.36877, 6.50681 ], [ 3.36885, 6.50683 ], [ 3.36898, 6.50629 ], [ 3.36908, 6.50589 ], [ 3.36923, 6.50527 ], [ 3.36927, 6.50512 ], [ 3.36925, 6.5051 ] ] } },
{ "type": "Feature", "properties": { "Hub": "Yaba", "Origin": "Yaba", "Origin_Long": 3.37065, "Origin_Lat": 6.510877, "Destination": "Yabatech Secondary School", "Destination_Long": 3.3764724, "Destination_Lat": 6.51743489, "Distance_km": 1.85, "Duration_min": 22.14, "Route": "- → Edmund Crescent → Herbert Macaulay Way, F266 → Aggrey Avenue → Central Avenue" }, "geometry": { "type": "LineString", "coordinates": [ [ 3.37048, 6.51082 ], [ 3.37032, 6.51128 ], [ 3.37027, 6.51151 ], [ 3.37027, 6.51196 ], [ 3.3703, 6.51222 ], [ 3.37041, 6.51233 ], [ 3.37039, 6.51239 ], [ 3.37047, 6.51251 ], [ 3.37051, 6.5126 ], [ 3.37059, 6.51298 ], [ 3.3706, 6.51303 ], [ 3.37067, 6.51401 ], [ 3.37067, 6.51485 ], [ 3.37067, 6.51516 ], [ 3.37066, 6.51545 ], [ 3.37057, 6.5161 ], [ 3.37055, 6.51619 ], [ 3.3703, 6.51685 ], [ 3.37018, 6.51724 ], [ 3.37115, 6.51761 ], [ 3.37134, 6.51765 ], [ 3.37146, 6.51765 ], [ 3.37157, 6.51762 ], [ 3.37168, 6.51757 ], [ 3.37129, 6.51757 ], [ 3.37124, 6.5179 ], [ 3.37141, 6.51798 ], [ 3.37159, 6.51766 ], [ 3.37393, 6.51667 ], [ 3.37475, 6.51634 ], [ 3.37518, 6.51615 ], [ 3.3753, 6.51614 ], [ 3.3754, 6.51615 ], [ 3.37545, 6.51616 ], [ 3.37556, 6.51623 ], [ 3.37582, 6.51687 ], [ 3.37624, 6.51789 ], [ 3.37627, 6.51794 ], [ 3.3763, 6.51799 ], [ 3.3765, 6.51791 ], [ 3.37692, 6.51772 ], [ 3.37683, 6.51749 ] ] } }
]
}
